{"type": "Feature", "properties": {"fire_id": "AKD_2017_01", "fire_date": "2017-07-01", "province": "Mersin", "region": "Akdeniz", "modis_area_ha": 874}, "geometry": {"type": "MultiPolygon", "coordinates": [[[[32.761001148996364, 36.14898903643135], [32.760994319847576, 36.15123983713513], [32.76376962293273, 36.151245343797775], [32.763776372784136, 36.14899454264263], [32.761001148996364, 36.14898903643135]]], [[[32.70250488671736, 36.18492063378967], [32.70248785044081, 36.18942529476643], [32.705253794844495, 36.19065348206569], [32.70521763378571, 36.202955466002294], [32.70786654661917, 36.20379833731913], [32.707973467108125, 36.20972391963912], [32.71071666427068, 36.21082064692141], [32.71072147401563, 36.21874617951212], [32.71346502406257, 36.219842843739556], [32.71340803517999, 36.224556106102696], [32.71069656462964, 36.225510909044665], [32.710688274923974, 36.22776167177562], [32.730157269601804, 36.22780716113252], [32.73065442190141, 36.225952032837036], [32.73294676899511, 36.22555952621957], [32.73345913429172, 36.21919662910299], [32.74131430950024, 36.21881622231905], [32.74136803586737, 36.20307379440129], [32.73580813527095, 36.203030007470495], [32.7342935997464, 36.205272490073966], [32.72061751295247, 36.20524134735993], [32.71924241978098, 36.20440981936792], [32.71918084795858, 36.195063498026975], [32.721931401816846, 36.193979851004414], [32.72194116546017, 36.19176072115824], [32.7194440344473, 36.19112067471559], [32.71880480373488, 36.18820821488222], [32.72008505326185, 36.18724250736901], [32.724735704017185, 36.187224613885284], [32.72494786132113, 36.18343369354223], [32.72753171623065, 36.18272319341707], [32.7275551179002, 36.17596462381919], [32.71643895198254, 36.175938811787404], [32.71605207336316, 36.17769582425422], [32.71365075275729, 36.17818608630698], [32.71336170361631, 36.17983672720025], [32.71086239428117, 36.18043329432802], [32.710243446566125, 36.18237718393141], [32.705293642457114, 36.18267362394342], [32.70479617305938, 36.18452865885247], [32.70250488671736, 36.18492063378967]]]]}}