{"type": "Feature", "properties": {"fire_id": "AKD_2021_07", "fire_date": "2021-07-28", "province": "Adana", "region": "Akdeniz", "modis_area_ha": 662}, "geometry": {"type": "MultiPolygon", "coordinates": [[[[35.65818274726159, 37.57289278652411], [35.65850296097589, 37.58189350416231], [35.66132746649359, 37.58182981273744], [35.66176042254629, 37.57996473034027], [35.6640756004598, 37.57951502184299], [35.66399545586764, 37.577267181997136], [35.66088988059384, 37.57659307350408], [35.66100691354927, 37.57282911566792], [35.65818274726159, 37.57289278652411]]], [[[35.64985812625785, 37.57758560131918], [35.64993784675447, 37.57983346685119], [35.652762294089115, 37.579769983316055], [35.65268248886492, 37.577522122904725], [35.64985812625785, 37.57758560131918]]], [[[35.61403518028827, 37.605418178912174], [35.614192742728754, 37.60991712242808], [35.61653702658984, 37.61026257954954], [35.61710124569552, 37.61210538289305], [35.624238816247754, 37.61134515926425], [35.62797725789118, 37.61203154093307], [35.62857834965288, 37.61635564771223], [35.63989351492716, 37.61610288311456], [35.640037554112745, 37.6142039110847], [35.64155942842976, 37.61346881358268], [35.6448653429805, 37.61404708553314], [35.64555689958904, 37.61597596313736], [35.648382723483834, 37.61591253285824], [35.64785390316309, 37.610034244030416], [35.650972550368856, 37.609096080713655], [35.650812777424726, 37.604597269702715], [35.64798738717851, 37.60466074202715], [35.6473650157191, 37.609312997108006], [35.639657427650334, 37.60935304847828], [35.63951461070101, 37.61125194575171], [35.63799275858553, 37.61198701614795], [35.63613202773235, 37.61075291170129], [35.636745735145155, 37.60716537623174], [35.631090784369185, 37.60729167414467], [35.6302650917067, 37.609401700717655], [35.62386239378907, 37.61029380400534], [35.62190506249283, 37.60881730855767], [35.622519448138426, 37.605229820993365], [35.61403518028827, 37.605418178912174]]], [[[35.618431142126695, 37.56927624564494], [35.61858876383909, 37.57377520093953], [35.62306096844917, 37.57308752429054], [35.62703204203173, 37.57454833378203], [35.62720206141237, 37.579384277833405], [35.624482417728245, 37.58040566791278], [35.62456138336228, 37.58265357834807], [35.630189120778546, 37.582942132997424], [35.630376917179454, 37.58702958390314], [35.632720531582194, 37.58737474460198], [35.63328493908753, 37.58921746835308], [35.641767236408036, 37.58902779579261], [35.64107929489849, 37.58116137732347], [35.644277220910865, 37.57996049382735], [35.64419767022361, 37.57771261804913], [35.63691699275538, 37.57781583582917], [35.63563337497028, 37.57565150695472], [35.63317482720594, 37.57521067954257], [35.63248798345488, 37.56671064267679], [35.62400815413777, 37.56689955355828], [35.62318263715676, 37.569009534190606], [35.618431142126695, 37.56927624564494]]], [[[35.63389277612338, 37.52612922793452], [35.633971869730416, 37.52837714206857], [35.63679441215846, 37.528314113690506], [35.6367152340347, 37.526066204642994], [35.63389277612338, 37.52612922793452]]], [[[35.61450829918038, 37.61892431281618], [35.614587074223984, 37.62117222650725], [35.616668515443585, 37.62135540646909], [35.61749604675279, 37.6233604566174], [35.62073419838325, 37.62428541189639], [35.6207215645577, 37.63455262441443], [35.63770045707213, 37.63417400247035], [35.637541339722304, 37.62967516235492], [35.635459635627114, 37.62949236197959], [35.634631550790424, 37.6274874605953], [35.63145071079635, 37.62669039035316], [35.63156311648856, 37.620797706196534], [35.62068584938024, 37.620871926838056], [35.62008516094346, 37.61654776696474], [35.61725924867322, 37.61661052050486], [35.61682501228859, 37.618475478930755], [35.61450829918038, 37.61892431281618]], [[35.6233807256643, 37.62998104396347], [35.6236225215275, 37.62796888374212], [35.62633356997043, 37.628295897618635], [35.62582953296293, 37.630274497546466], [35.6233807256643, 37.62998104396347]]], [[[35.60711896900123, 37.56952677480645], [35.607197381797874, 37.571774720597915], [35.61002162181601, 37.5717122710599], [35.609943124313894, 37.56946433030625], [35.60711896900123, 37.56952677480645]]], [[[35.59855333272187, 37.5674282281868], [35.601380478389935, 37.56739755222972], [35.60130225276762, 37.565149594360875], [35.59847824093403, 37.56521182610629], [35.59855333272187, 37.5674282281868]]]]}}