{"type": "Feature", "properties": {"fire_id": "AKD_2023_02", "fire_date": "2023-07-17", "province": "Hatay", "region": "Akdeniz", "modis_area_ha": 747}, "geometry": {"type": "MultiPolygon", "coordinates": [[[[36.22222321976515, 36.513511624874106], [36.22779772143497, 36.51367303462232], [36.22787795638563, 36.511424992331555], [36.2223044086478, 36.5112952427266], [36.22222321976515, 36.513511624874106]]], [[[36.208118322817484, 36.51772283411909], [36.20803749785443, 36.519970836253066], [36.21082262092571, 36.52003604507358], [36.21123910431837, 36.517985111782636], [36.208118322817484, 36.51772283411909]]], [[[36.21336047783467, 36.51765318333068], [36.216259970275914, 36.518626278005726], [36.21632373178547, 36.52241765982194], [36.219108962212715, 36.522482678885765], [36.21935069402556, 36.51573239817045], [36.2170681111451, 36.51528163765168], [36.216642534980856, 36.51341617983089], [36.213857635310575, 36.51335111698492], [36.21336047783467, 36.51765318333068]]], [[[36.20031970393993, 36.50176889526878], [36.20023870049295, 36.504016888437725], [36.203311165602095, 36.50495720617331], [36.20286498323325, 36.50858454966264], [36.208438244427974, 36.50871519922416], [36.20899682794338, 36.50687276051507], [36.21130762305821, 36.50652935378164], [36.21163066700537, 36.49752797807046], [36.209348666930886, 36.49707709321557], [36.20892334912741, 36.49521161499448], [36.206139119728014, 36.49514639975141], [36.20558057194098, 36.49698882896708], [36.20327004551262, 36.49733213618041], [36.20284579658749, 36.501225859035706], [36.20031970393993, 36.50176889526878]]], [[[36.194417973388816, 36.5106421419611], [36.194336773068336, 36.512890120414426], [36.19712160978631, 36.51295563827967], [36.19720272976667, 36.51070765448417], [36.194417973388816, 36.5106421419611]]], [[[36.18490963584901, 36.54195979657963], [36.184828067531875, 36.54420774484961], [36.18761400439186, 36.54427353286451], [36.18769549224736, 36.54202557923222], [36.18490963584901, 36.54195979657963]]], [[[36.14849981527769, 36.46899890863703], [36.14841741222648, 36.4712468135354], [36.150450977177016, 36.47152479789948], [36.151122047021374, 36.473564444748966], [36.153800151740896, 36.47458933952112], [36.15357966460352, 36.48263507135623], [36.16059304558015, 36.48282982500323], [36.161868395384644, 36.483922286184864], [36.16159679907329, 36.48875222572101], [36.1589077841976, 36.48952421339638], [36.15870436800467, 36.49306439209243], [36.15595530777707, 36.49395978156678], [36.1558730451841, 36.49620769164233], [36.15865719204101, 36.496274081503415], [36.16008681952899, 36.49408269203725], [36.16648239394302, 36.49451574036307], [36.166465482298136, 36.49831853740595], [36.161366701918, 36.49859471980407], [36.161120087468916, 36.505344683709644], [36.169481267478076, 36.50554351649951], [36.16981867654997, 36.501761671398626], [36.17243347823896, 36.50110760620411], [36.173252451509, 36.49910341224672], [36.175303517680454, 36.49892265727431], [36.17558801779422, 36.493131367296314], [36.17833685187705, 36.49223551354595], [36.178908548782005, 36.476481174144716], [36.17619480223027, 36.47532730939012], [36.176448086906206, 36.467410941688264], [36.151369242786544, 36.46681450352086], [36.15080966193329, 36.46865663596192], [36.14849981527769, 36.46899890863703]]], [[[36.173996204755134, 36.534907795329865], [36.17678255618772, 36.53500547101642], [36.176864330014816, 36.53275753486088], [36.174078832067906, 36.53269151350069], [36.173996204755134, 36.534907795329865]]], [[[36.165464194590946, 36.53924584120665], [36.16538207140887, 36.54149375274998], [36.17095751408869, 36.54162625535298], [36.171121542560776, 36.53712730452387], [36.16833590172136, 36.53706114227509], [36.16777610022449, 36.53890333085191], [36.165464194590946, 36.53924584120665]]], [[[36.13693762230838, 36.4799867442845], [36.13685485225836, 36.48223462233406], [36.14136496400556, 36.482088073773284], [36.142347020297805, 36.484619358411805], [36.14513071965773, 36.484686045802626], [36.145295901257875, 36.480187152928146], [36.13693762230838, 36.4799867442845]]], [[[36.129117459441424, 36.54062864479573], [36.129034279887236, 36.542876484558086], [36.13739926593567, 36.543077742604716], [36.13748220394213, 36.54082988643856], [36.13519947300036, 36.54037754695935], [36.13477578791603, 36.53851188338512], [36.13199018559624, 36.53844487002437], [36.131429519815704, 36.540286849088204], [36.129117459441424, 36.54062864479573]]], [[[36.12099950386621, 36.53367393342196], [36.12074906538682, 36.54042361941637], [36.123534711195745, 36.540490898456646], [36.12387461801106, 36.53670930808396], [36.12649093684969, 36.53605632371735], [36.12677939458447, 36.530265347929294], [36.12953006054065, 36.529370707972085], [36.12961318483281, 36.52712286213507], [36.1268280035409, 36.52705574607408], [36.12626731739371, 36.528897702141116], [36.123955583997365, 36.52923941212784], [36.12361573849949, 36.53302100849545], [36.12099950386621, 36.53367393342196]]], [[[36.1080335815911, 36.43194220560002], [36.11006668637254, 36.432252477339084], [36.11073641288154, 36.43429230139719], [36.113015896004356, 36.43474497246687], [36.11343865665336, 36.43661069369634], [36.11935547213677, 36.43656450983217], [36.119255979979044, 36.42999550072424], [36.11669620388563, 36.429217547320235], [36.11663707588974, 36.42542627699042], [36.111070217209544, 36.425291602231404], [36.11125042630532, 36.428933729595514], [36.10811777901993, 36.42972601421325], [36.1080335815911, 36.43194220560002]]], [[[36.12144670493235, 36.43699653202781], [36.12162956071432, 36.44131457368752], [36.127197615476064, 36.44144880658702], [36.12728054106655, 36.43920093219249], [36.12500082766924, 36.43874852476065], [36.12457777889974, 36.436882832318304], [36.12144670493235, 36.43699653202781]]], [[[36.10646517603994, 36.549057731322826], [36.10925184291104, 36.54915700580132], [36.109195508921644, 36.54437616632177], [36.10663373146236, 36.544590688027824], [36.10646517603994, 36.549057731322826]]], [[[36.10973130337557, 36.54268652286739], [36.11229301350138, 36.542471931287075], [36.112627956255224, 36.533471383113515], [36.107053383521986, 36.53333617932885], [36.10680173601456, 36.540085782643416], [36.10908425585695, 36.5405386589024], [36.10973130337557, 36.54268652286739]]]]}}