{"type": "Feature", "properties": {"fire_id": "AKD_2022_01", "fire_date": "2022-09-07", "province": "Mersin", "region": "Akdeniz", "modis_area_ha": 2700}, "geometry": {"type": "MultiPolygon", "coordinates": [[[[33.62838293156357, 36.1881487972], [33.628418920067816, 36.19265324493448], [33.63100621708781, 36.19335603045615], [33.63123555526701, 36.19714616603278], [33.636792941293166, 36.19711672840849], [33.63683797898125, 36.19357006711828], [33.6395368905734, 36.19259435903104], [33.639518589642734, 36.190343694879765], [33.63484029424076, 36.19020736266598], [33.63393968493958, 36.18811949827848], [33.62838293156357, 36.1881487972]]], [[[33.53939701940834, 36.18632896363335], [33.539412453012716, 36.18857966987794], [33.54158310463521, 36.18887838827142], [33.54220834410816, 36.190820922146614], [33.54424702281936, 36.191041133489804], [33.545004394533095, 36.193062106914425], [33.54750602197402, 36.19365326037659], [33.54781630515535, 36.19755703285514], [33.55010917416294, 36.197944158998496], [33.550612755730455, 36.19979808067016], [33.554941630947965, 36.19948096044765], [33.5561901898738, 36.202026170657625], [33.56137472602999, 36.202497939684065], [33.56178404397098, 36.20650779710889], [33.56382318042573, 36.206727670398216], [33.564581210186844, 36.208748508923556], [33.56723936680154, 36.20957230617873], [33.567394807167936, 36.213242948363096], [33.57485561057144, 36.21336857742909], [33.57575495569674, 36.21545688946571], [33.57825752070163, 36.21604738952349], [33.57855283781788, 36.21769726493508], [33.58323270379445, 36.2178357824793], [33.58413232346817, 36.21992402750945], [33.589691369063054, 36.2198967620981], [33.59134519970604, 36.217636288235035], [33.60502146719654, 36.21759390820099], [33.606383807659235, 36.21981333876501], [33.60916139780269, 36.21979923130467], [33.60943176114313, 36.21814655526703], [33.611925269825754, 36.21753126505989], [33.61252215115858, 36.215582863008656], [33.61747024386207, 36.21524891716693], [33.617946333469725, 36.2133902340199], [33.6202337151212, 36.21298076115817], [33.62050382387003, 36.21132806070623], [33.62299702688556, 36.21071254202843], [33.6235935836071, 36.20876408571159], [33.6257601791733, 36.208444259793595], [33.62567051462502, 36.19717849468045], [33.61333006485658, 36.19758437260388], [33.611797043841776, 36.19651233775021], [33.612801783516126, 36.192479347506314], [33.62285416961765, 36.192682330616094], [33.622818499746955, 36.18817787811287], [33.62052557830437, 36.1877921448397], [33.62002043384398, 36.185938528462515], [33.60890336281189, 36.18599559272735], [33.609331994124524, 36.18937136774237], [33.6080277899893, 36.19047911852451], [33.60425615236384, 36.19036565911918], [33.603356349689534, 36.1882775569171], [33.5986259436234, 36.1888248019634], [33.5970616525585, 36.18737695060834], [33.59776146496442, 36.18379786965227], [33.59546878747584, 36.18341165376382], [33.5949642615128, 36.181557924469416], [33.59292569893067, 36.18133857559325], [33.59216721731213, 36.17931791160754], [33.5897640326895, 36.17883379945085], [33.58937033234516, 36.177077831082606], [33.58441992059546, 36.17679357991531], [33.5837937581141, 36.17485127034874], [33.5754580361778, 36.17489162699706], [33.574876993921556, 36.179093668183434], [33.568653491830545, 36.17942384454103], [33.56713087084222, 36.177185248615906], [33.5647278987158, 36.17670063173492], [33.56433476724965, 36.17494457531502], [33.561931880193846, 36.174459901373176], [33.56153882285957, 36.17270383446714], [33.55876287209851, 36.17271682208606], [33.557894145870996, 36.17481352487725], [33.553219138843325, 36.17499645484265], [33.55324089185841, 36.182921840584626], [33.5505023382607, 36.184024524151994], [33.54991990051758, 36.18822645002516], [33.545851967812, 36.18839235214814], [33.54495373300374, 36.18630379644866], [33.53939701940834, 36.18632896363335]], [[33.61170933851644, 36.19048219979137], [33.6119972864557, 36.18846975761305], [33.614552400636605, 36.18873370206413], [33.61410332169281, 36.190814317260184], [33.61170933851644, 36.19048219979137]], [[33.55329802970478, 36.19531479218753], [33.55574674005405, 36.1954005267403], [33.555521848460145, 36.19757891402822], [33.5529551275809, 36.19721359841477], [33.55329802970478, 36.19531479218753]]], [[[33.58090131108713, 36.15908812619808], [33.58093454499487, 36.16359263535456], [33.583710163275796, 36.16357913660615], [33.58367677060334, 36.15907462966361], [33.58090131108713, 36.15908812619808]]]]}}