{"type": "Feature", "properties": {"fire_id": "AKD_2021_06", "fire_date": "2021-07-30", "province": "Mersin", "region": "Akdeniz", "modis_area_ha": 3173}, "geometry": {"type": "MultiPolygon", "coordinates": [[[[33.726567328819286, 36.282254493395236], [33.726588190640726, 36.28450508201427], [33.7293680031547, 36.284488158657624], [33.72934706153642, 36.282237571423536], [33.726567328819286, 36.282254493395236]]], [[[33.720358669033494, 36.21242305657781], [33.720379299877756, 36.214673674613934], [33.72315664400445, 36.214656923288466], [33.72313593363707, 36.21240630662428], [33.720358669033494, 36.21242305657781]]], [[[33.61763357150279, 36.23553593428363], [33.61765127540685, 36.23778659086065], [33.619823566367685, 36.23808387206537], [33.62045114316493, 36.24002595930169], [33.622954816227654, 36.24061551137506], [33.62325117063048, 36.24226525982723], [33.6256564977741, 36.24274867365536], [33.6260513578208, 36.2445044924213], [33.62845677019112, 36.244987848924914], [33.62885170475318, 36.24674365706788], [33.6312572023537, 36.24722695623669], [33.63167035108859, 36.25123650813033], [33.633965181085, 36.251622004950285], [33.634471099473515, 36.25347553476785], [33.63724986577197, 36.25346076361147], [33.637725704111965, 36.25160201592246], [33.64001408719145, 36.25119215748969], [33.63958376184339, 36.24781654351841], [33.640726578760024, 36.24674296896298], [33.644662835726386, 36.24682073065274], [33.64556442577952, 36.24890848429683], [33.65108640802484, 36.248880111492696], [33.65229398539862, 36.246677914550745], [33.661053778983465, 36.24662982915323], [33.66225901493047, 36.24881722549821], [33.664848461421336, 36.24951925063139], [33.665079637915355, 36.25330926743805], [33.67224106751047, 36.253329019819056], [33.67344671937175, 36.25551629666162], [33.67595126905363, 36.25610472878099], [33.67624879908025, 36.257754329524936], [33.683987331623, 36.25801884153537], [33.68461665816172, 36.259960567425765], [33.68727777484825, 36.26078165990881], [33.687438963682794, 36.264452055916315], [33.692121743553415, 36.26458628189643], [33.69302480253161, 36.26667365601906], [33.70034212047458, 36.26673552430385], [33.701394069776306, 36.268878701459315], [33.70695645438075, 36.26884595086217], [33.70743072389335, 36.26698694742073], [33.709719168304034, 36.26657575548795], [33.709967157187215, 36.26266917300559], [33.71246125236132, 36.262051785159095], [33.7123596455767, 36.24272915274389], [33.715059270038275, 36.24175174108787], [33.7151342868529, 36.235826119857244], [33.71777959885871, 36.23497392314824], [33.718504811463085, 36.23294518537112], [33.72054081991656, 36.232703481871546], [33.72052017084177, 36.230452870711304], [33.713057658765045, 36.23033634415742], [33.7114187181183, 36.2273213312048], [33.712113638864246, 36.22374165741565], [33.70743327516501, 36.22360818671367], [33.70653034934615, 36.22152090518099], [33.70097131669503, 36.221553599441734], [33.70049715023149, 36.223412589983], [33.69820990890892, 36.223823595198894], [33.69826998548337, 36.23058168397152], [33.70031009281671, 36.230799220024196], [33.701071861625095, 36.23281914663791], [33.703575881878606, 36.23340700822314], [33.703399751512656, 36.236918647967656], [33.694269737842916, 36.23736154807992], [33.692742415815964, 36.23512462080202], [33.68527947224462, 36.235006366051245], [33.68437699641253, 36.23291891634805], [33.68171685828725, 36.23209774512906], [33.68155602793625, 36.228427318096855], [33.67938378872974, 36.22813115692721], [33.678754859064675, 36.22618938914209], [33.67596351226915, 36.22485132446351], [33.676222791828984, 36.2222954717646], [33.678715886627494, 36.22167879421398], [33.67886263277792, 36.21563278720348], [33.681438698548554, 36.21490175368962], [33.68216467657598, 36.21287322127807], [33.68420028788962, 36.212632139764516], [33.68416107639007, 36.20812775747434], [33.67908632882844, 36.20775902218217], [33.678560217658315, 36.20365192450842], [33.676266587232554, 36.20326726761857], [33.6757600274222, 36.20141390594397], [33.6729831231215, 36.20142955240487], [33.672508406473646, 36.20328844401012], [33.67022159410011, 36.203698910970985], [33.67027922015327, 36.210457062060954], [33.67286746559272, 36.2111589305956], [33.6738341051115, 36.21587697555909], [33.67311351266841, 36.22062350458468], [33.67037537697955, 36.22172892039619], [33.669509117865495, 36.22382639161845], [33.6658589756475, 36.223903500079366], [33.664827305933784, 36.22279241182921], [33.66473234390961, 36.21274496983779], [33.66243851087411, 36.212360050567185], [33.66193221418379, 36.21050663037704], [33.65490139191005, 36.21114721353204], [33.65141735247802, 36.210255810802074], [33.65003748307241, 36.20725347752689], [33.65071463666724, 36.199298827953], [33.64768117528693, 36.19857071389442], [33.64789681655847, 36.19480637887144], [33.64560358569966, 36.19442112960375], [33.64509780686883, 36.19256762745491], [33.636760302721626, 36.1926122709263], [33.63666111620867, 36.1962841736442], [33.63401619218224, 36.19713457823184], [33.633419978491254, 36.19908308684797], [33.62569061818359, 36.19946390297407], [33.62571019550768, 36.20168291789201], [33.627881514723406, 36.201980064048975], [33.628508988427335, 36.203922121571104], [33.63068037943492, 36.20421921612575], [33.63130794076956, 36.20616125739047], [33.633347245278344, 36.20637994431312], [33.63410705255163, 36.20840032533411], [33.636765903236295, 36.209222571398136], [33.637319721552075, 36.21640445659708], [33.63417815940152, 36.2174501554239], [33.63419798847699, 36.21966915989347], [33.63685722319144, 36.22049139858857], [33.63688022957223, 36.22332938198747], [33.63550863005082, 36.22416496957579], [33.62867126246171, 36.22420915434937], [33.628195365473516, 36.22606787497746], [33.625907647542654, 36.22647750245896], [33.62594354455906, 36.23098192341882], [33.62870009285564, 36.232057516239514], [33.628146819972514, 36.23517268392547], [33.624379777037134, 36.23544113324903], [33.62317580174663, 36.23325333795658], [33.62043678717853, 36.23326601831212], [33.61992159812565, 36.235126462646356], [33.61763357150279, 36.23553593428363]]], [[[33.656223399598986, 36.19250715050036], [33.656242180031974, 36.19475780639483], [33.65901885819886, 36.19474255074557], [33.65899999831649, 36.19249189610086], [33.656223399598986, 36.19250715050036]]], [[[33.63196088465784, 36.287299570254305], [33.63197903352024, 36.28955020115602], [33.634759079706754, 36.2895354753329], [33.6347408510214, 36.28728484563625], [33.63196088465784, 36.287299570254305]]]]}}