{"type": "Feature", "properties": {"fire_id": "AKD_2021_02", "fire_date": "2021-08-01", "province": "Antalya", "region": "Akdeniz", "modis_area_ha": 13402}, "geometry": {"type": "MultiPolygon", "coordinates": [[[[32.14237245508223, 36.808753547794936], [32.14229707277726, 36.815510716399736], [32.14789855610615, 36.81555098821461], [32.14792349929278, 36.81330066856607], [32.1455669195722, 36.813115673165726], [32.14470850887322, 36.81187770481323], [32.14554914646599, 36.80926922173637], [32.147973480695576, 36.80879070132506], [32.147998415564984, 36.80654037906873], [32.14519993345544, 36.80652029657944], [32.144684884393804, 36.80837260798873], [32.14237245508223, 36.808753547794936]]], [[[32.12960868056247, 36.6982331071816], [32.12958330762178, 36.700483459602644], [32.13237792962524, 36.70050385935571], [32.13240322112671, 36.698253505272916], [32.12960868056247, 36.6982331071816]]], [[[32.111363607068625, 36.824301072123426], [32.111337583336145, 36.82655136572476], [32.11364151960286, 36.82696615592598], [32.11411465578199, 36.828825686337446], [32.11691392696032, 36.82884651101821], [32.11696568501353, 36.82434280948303], [32.111363607068625, 36.824301072123426]]], [[[32.09158303953498, 36.837673136374306], [32.091556423652584, 36.83992341268491], [32.09435608196494, 36.83994477392086], [32.09438261584938, 36.83769449587276], [32.09158303953498, 36.837673136374306]]], [[[31.860011053961756, 36.761310673882896], [31.859977746539478, 36.76356081610265], [31.86277442438821, 36.763587583123034], [31.86314880570995, 36.761529965005415], [31.860011053961756, 36.761310673882896]]], [[[31.865270860704165, 36.76116858400151], [31.86856833350989, 36.76201590632072], [31.868346269187864, 36.76589428632138], [31.87109670740327, 36.767010325412386], [31.871047792537187, 36.77268066418364], [31.874237615651268, 36.773840537344284], [31.873923988279195, 36.77884508985824], [31.868147477584564, 36.77941691247487], [31.868114386088365, 36.78166705418513], [31.87041555378628, 36.7820865167824], [31.87088253471405, 36.78394692898033], [31.882083865221627, 36.78405273622262], [31.882425755338026, 36.780151299360774], [31.886072835726004, 36.77958457798356], [31.88772291569843, 36.7818520345092], [31.893154305268446, 36.782224108316406], [31.893195751442747, 36.79091736068154], [31.89578662454344, 36.79165774343932], [31.895900302432747, 36.797703197500454], [31.89840824521009, 36.79832893994833], [31.89863758829704, 36.80223570844984], [31.900939550197965, 36.8026545920208], [31.90140738455164, 36.80451489242791], [31.90420559053146, 36.80454071010589], [31.904726379292907, 36.80268952973887], [31.907039690669755, 36.8023132264927], [31.907221749629453, 36.79864401933686], [31.909905562862253, 36.79783239695401], [31.910549663207128, 36.79589320686077], [31.914189452881146, 36.795645552701245], [31.915495273474388, 36.79671983865554], [31.91548133088168, 36.80013694345733], [31.9199407117552, 36.79958899863376], [31.923266222051016, 36.800516159285195], [31.9238555867351, 36.80246658721772], [31.93444280687297, 36.80287039913199], [31.9350324729909, 36.80482077576266], [31.93708227693412, 36.805068546519635], [31.9378034604928, 36.807099129891995], [31.940464221839015, 36.807959121350606], [31.940512507119877, 36.81388400665044], [31.946113542259035, 36.813933781091094], [31.947032963335374, 36.81184956974441], [31.95100070930629, 36.81195285645988], [31.95166086080793, 36.81848995806267], [31.95637310780714, 36.81869262534184], [31.957235545803773, 36.820792548329905], [31.965639836716132, 36.82086595814875], [31.967188748386707, 36.81863391615776], [31.976880756920643, 36.818709642837746], [31.97713169231698, 36.8149209545069], [31.97974323365006, 36.814227088009], [31.980180055504306, 36.8102195889028], [31.982605371949735, 36.80974445580621], [31.982664959759425, 36.8052409153492], [31.979911486874336, 36.80412741652685], [31.97924998381644, 36.79500003975369], [31.980419064174782, 36.79219298787678], [31.982843808158158, 36.7917178397353], [31.98328031303408, 36.78771030983597], [31.987314593861786, 36.78730859432362], [31.988480659121024, 36.78951232680563], [31.993584393476763, 36.78995321327678], [31.99399547492161, 36.79631986143105], [31.99679346592057, 36.79634349619797], [31.997311975423806, 36.794491872553735], [31.999624629159914, 36.79411375684888], [32.00039997620594, 36.7920961209276], [32.00245562832997, 36.79188394679912], [32.002572430482054, 36.78287367192203], [32.00052297858599, 36.78262703493173], [31.999800344468728, 36.78059680187034], [31.997292100434162, 36.77997319202556], [31.9963233067046, 36.774995965527474], [31.997728878455234, 36.7718703608547], [32.00120442657282, 36.7715991780059], [32.00269312510516, 36.773857198765135], [32.01011310304125, 36.77335685671112], [32.01339805441517, 36.77434405691685], [32.01386846266138, 36.776203962506926], [32.0180707831005, 36.77591249454411], [32.01944926246957, 36.7771219253347], [32.01961384887434, 36.78452446995085], [32.01375293149424, 36.785220495033954], [32.01369520640654, 36.78972409353427], [32.01641023764353, 36.79070777694064], [32.01709088652996, 36.797972851038814], [32.01586347547047, 36.8006155242805], [32.01355069803007, 36.80099395365718], [32.0132437846528, 36.8092894465685], [32.00783033265067, 36.809960707679956], [32.00780129236055, 36.812210939788116], [32.01010419645944, 36.81262772287842], [32.01057473758214, 36.81448763198236], [32.018978477555834, 36.81455726180214], [32.01928486024872, 36.81290869512797], [32.021809692427034, 36.81232700138461], [32.02287694077909, 36.81018667086092], [32.03153311022246, 36.81016106867087], [32.0330234283371, 36.81241871938449], [32.04007514016213, 36.81250338979762], [32.04140276578845, 36.81474015275287], [32.046115100572734, 36.81493926335406], [32.04697996567168, 36.817038571990615], [32.05538407475252, 36.81710563308459], [32.05590133019405, 36.81525374198425], [32.05821434802099, 36.81487449292376], [32.05898838775011, 36.81285646281369], [32.06104445704068, 36.81264328223495], [32.061099456965906, 36.808139638422524], [32.055994066116206, 36.8077016279286], [32.05531819544108, 36.803309880871524], [32.05033549393719, 36.80305106717712], [32.049955477871784, 36.79729619596068], [32.05496271783729, 36.7963476939134], [32.056358253408206, 36.79776307666573], [32.05581364655556, 36.801610678622126], [32.06559421429243, 36.80147092181247], [32.0667627451071, 36.80367391680318], [32.069272353337254, 36.804296078066045], [32.06953766431119, 36.80594925740815], [32.075138340291595, 36.80599294675786], [32.07542074728515, 36.793309808071974], [32.08090446914283, 36.7925160446133], [32.08142093422219, 36.790664024057506], [32.08373309474622, 36.79028426501657], [32.08378672220405, 36.78578057528129], [32.08103242443507, 36.78466940335967], [32.08109280038993, 36.77674536269942], [32.078790551407614, 36.776329961562745], [32.07831856817429, 36.77447029057477], [32.07580985015606, 36.77384832968488], [32.07554449988412, 36.77219515517348], [32.07033182204525, 36.77165861761224], [32.069290576128594, 36.7641882582209], [32.07105436714737, 36.762579095887745], [32.07565274204795, 36.76317844027459], [32.075898576654325, 36.75938943659794], [32.07850737982409, 36.75869335535068], [32.077881664338186, 36.748479841407985], [32.078887749573404, 36.74363728749376], [32.08562554154687, 36.74237085292625], [32.08989595858692, 36.74300567177028], [32.08997573551303, 36.73624851622722], [32.087384752774845, 36.73551235620952], [32.08722934652572, 36.73172023026266], [32.08167337370434, 36.731675933709695], [32.08132936071346, 36.73332595750184], [32.07880755354859, 36.7339089651624], [32.07803486878237, 36.735927169099725], [32.073817875420715, 36.73617814191975], [32.07297258804963, 36.7335868687731], [32.07085044593356, 36.733679019097224], [32.07004244123346, 36.732172530149995], [32.071594281895, 36.73100721700231], [32.07603108035094, 36.73163070761061], [32.07605804474912, 36.72938040001947], [32.07400974872818, 36.72913504369982], [32.073285638580515, 36.727105218523306], [32.07087540262798, 36.72659050799025], [32.07053589287027, 36.72379460800034], [32.071733797842974, 36.72264254102148], [32.07613906891797, 36.72261703830268], [32.07665514347758, 36.72076501197047], [32.07896522098778, 36.72038531226195], [32.07828581098565, 36.71467858781702], [32.07945002129527, 36.71187045650723], [32.084670502661545, 36.71141479384034], [32.084631760390806, 36.700772983353126], [32.093199437604795, 36.7002118827916], [32.09322587080048, 36.69796155249326], [32.083386155685524, 36.69785866411034], [32.08205924032009, 36.69562233737457], [32.076466569529046, 36.69557908504461], [32.07595067194957, 36.697431120608044], [32.0736412704129, 36.697810772695355], [32.07361426650725, 36.70006109071023], [32.076023697099714, 36.70057573667802], [32.077106331073324, 36.70327391834649], [32.07555193970438, 36.706972989690364], [32.068971684496425, 36.70668440252644], [32.06795911123217, 36.70452732835225], [32.054208537922804, 36.70414208692546], [32.05356548022947, 36.70617147500231], [32.05114384257441, 36.706648116839055], [32.05083861322529, 36.70829681061235], [32.04831741225108, 36.70887918303583], [32.04754419919211, 36.710897189569614], [32.042692019474245, 36.71108770313983], [32.04142182748235, 36.71362820149117], [32.03706630920476, 36.71329595187168], [32.037010095681744, 36.71779963619127], [32.03966895501234, 36.71865739197226], [32.040433329075825, 36.72379442180819], [32.039207952695946, 36.72643739738359], [32.03689751470859, 36.72681631954304], [32.036352285088, 36.7309215477134], [32.031242177182996, 36.73127765634221], [32.031147356312644, 36.735370057820056], [32.02558618538648, 36.73573871143436], [32.025529255311554, 36.74024236343369], [32.02793959263386, 36.740757993068854], [32.02870497492173, 36.74324367810352], [32.02751953922595, 36.744706660217915], [32.02359081968716, 36.744936702828724], [32.02269694245951, 36.74247585646196], [32.017100970628356, 36.74242976558816], [32.015718407160875, 36.74464441130842], [32.00755035447938, 36.74460254820782], [32.00589747852215, 36.742336697793206], [32.00160611312494, 36.742902603326066], [31.998389835170173, 36.74211252505699], [31.99752709781168, 36.74001286942343], [31.995478801173597, 36.739766161297425], [31.994756676298845, 36.73773589128256], [31.99216660102357, 36.73699767099372], [31.992045338293874, 36.73095213203978], [31.989007308610894, 36.73018188011711], [31.989304934523734, 36.726421670931124], [31.986509488679467, 36.72639789861946], [31.987193524400706, 36.729983787838634], [31.985605616367977, 36.731422522414405], [31.97384802479989, 36.731122849412515], [31.972479116245548, 36.72853120008502], [31.969683608609127, 36.72850703142111], [31.970385157473658, 36.731960898126694], [31.96921683613837, 36.73334825776125], [31.962261198895217, 36.73284526764009], [31.961251305172716, 36.730687335593494], [31.958745007684005, 36.73006293807983], [31.95848230397694, 36.728409531360505], [31.955976103926204, 36.72778507681577], [31.95574397759621, 36.72387832782554], [31.953154758725443, 36.723139269892236], [31.953036550865395, 36.71709372575976], [31.944643611491546, 36.71701960416245], [31.943419771902313, 36.719202572747655], [31.93621576895875, 36.71919818151544], [31.934831337852916, 36.7214118657691], [31.927787463702465, 36.72137615353994], [31.92634847170197, 36.723943011416075], [31.910961284852267, 36.723476977182536], [31.910184344737463, 36.72549402641495], [31.907008661700733, 36.725692783533134], [31.905359167295785, 36.72342558401219], [31.902563905634196, 36.7233998419829], [31.902043649936147, 36.725251045186894], [31.899732640230383, 36.7256272940988], [31.89963622481344, 36.7323840669673], [31.904483434738694, 36.7326582207708], [31.905613844592015, 36.735685163989714], [31.90472979283295, 36.73677325913109], [31.90237146595075, 36.73691961424192], [31.901931112168725, 36.740926816941894], [31.897744316601603, 36.74127953731861], [31.896736138430946, 36.73912108867647], [31.88554128390002, 36.73901677021764], [31.885020506225427, 36.74086788556187], [31.88270895184071, 36.74124379358753], [31.88268586816653, 36.74748817893581], [31.87701096033456, 36.74795089687084], [31.87648991270643, 36.749801967639726], [31.87417805188223, 36.75017770410441], [31.87362397692281, 36.754282024954136], [31.87131196855852, 36.75465770291494], [31.870241348621025, 36.756796636093895], [31.86567834433108, 36.7568576993143], [31.865270860704165, 36.76116858400151]], [[32.075346431351825, 36.787958831050936], [32.07567971096084, 36.78595388965691], [32.07834514907325, 36.78636208650262], [32.07775412592109, 36.78832561757665], [32.075346431351825, 36.787958831050936]], [[32.073196774720614, 36.738320593510274], [32.0755608090075, 36.73805282444763], [32.07600049416497, 36.74013192096182], [32.07329335322598, 36.74030560701757], [32.073196774720614, 36.738320593510274]], [[32.06457810303571, 36.75181688642283], [32.064911485490015, 36.74981196489806], [32.067575614580036, 36.750220387080994], [32.06698461532709, 36.75218387648607], [32.06457810303571, 36.75181688642283]], [[32.05900329916951, 36.7505334830906], [32.06075727861168, 36.7491959602261], [32.06255097802765, 36.75075154745734], [32.06055296376679, 36.75213717684946], [32.05900329916951, 36.7505334830906]], [[32.0486199275492, 36.74471011568132], [32.04855234461262, 36.72955817207325], [32.05247137824209, 36.72925162023061], [32.053638480827324, 36.731454749590725], [32.05918913382469, 36.7319128188283], [32.05890486721955, 36.73540436242044], [32.05638283255477, 36.73598689127984], [32.055609541856406, 36.73800494025897], [32.053555456821165, 36.73821805776579], [32.05352782688806, 36.74046834754069], [32.056241665043366, 36.74145111216939], [32.05578335333533, 36.744599013483494], [32.0486199275492, 36.74471011568132]], [[32.05524480927501, 36.767754784221154], [32.05518813693392, 36.77197290451158], [32.05042138292606, 36.7710360626096], [32.051584732971655, 36.76755600472606], [32.05524480927501, 36.767754784221154]], [[32.04499782977543, 36.75076837771422], [32.046366606145924, 36.74945316963233], [32.05222205054789, 36.74953219664713], [32.05329924456984, 36.753030121084834], [32.05200769921077, 36.7539535103815], [32.046151919319755, 36.75387446803523], [32.04499782977543, 36.75076837771422]], [[31.99496194104621, 36.75987606647588], [31.99511550686549, 36.75587359175473], [32.00124436516297, 36.755817807622954], [32.00289738277605, 36.758083719911745], [32.014095428261555, 36.75817704012538], [32.01412422774887, 36.75592678325215], [32.00828461574293, 36.75513377162518], [32.00858142699484, 36.75137351704891], [32.005806974173225, 36.750129184908445], [32.00595841465813, 36.747677579981236], [32.00735657830686, 36.74686104997364], [32.010823257056565, 36.7471903354567], [32.011414474234016, 36.74914037432398], [32.01392184116703, 36.74976367626778], [32.0141857991751, 36.75141697381252], [32.019396663488635, 36.75195594754621], [32.02049222109624, 36.75478703228703], [32.01970026487645, 36.75822335285512], [32.02529738808859, 36.75826933832689], [32.02593824143591, 36.75632946173083], [32.03092673499733, 36.75606171554301], [32.032309077678384, 36.75384689387674], [32.040805631429365, 36.753915693582414], [32.04213511945904, 36.75512005335531], [32.04182662617542, 36.75780421569343], [32.039303733453906, 36.75838636789655], [32.0396389318888, 36.76402023479276], [32.03813600893757, 36.76512940309135], [32.0237659402551, 36.76499316830989], [32.02240035717098, 36.762754332858904], [32.00283899941312, 36.76259354087564], [32.00202930691278, 36.76497317017491], [31.998121804005766, 36.76477883476936], [31.996813816036806, 36.76366682903804], [31.99726321057088, 36.76029307709895], [31.99496194104621, 36.75987606647588]], [[32.03410847340263, 36.78777395162568], [32.034140839697024, 36.78319340907159], [32.03807695595556, 36.783191661892744], [32.039351304180386, 36.78417053639734], [32.03774394283326, 36.787610821946046], [32.03410847340263, 36.78777395162568]], [[32.00181894209999, 36.74912004262907], [32.00265845646267, 36.75333847482492], [31.998546360687556, 36.75348330328626], [31.99747165813949, 36.749984920530984], [32.00181894209999, 36.74912004262907]], [[31.995721520014726, 36.7828144717291], [31.997364407616782, 36.78395643089729], [31.996637451890734, 36.7867284450595], [31.992059882884327, 36.78706279990573], [31.991644316214206, 36.78338091499701], [31.995721520014726, 36.7828144717291]], [[31.960811669341712, 36.766689166074805], [31.96317310883634, 36.766421045658205], [31.963613865114162, 36.768502934243756], [31.9609055326589, 36.76867404303492], [31.960811669341712, 36.766689166074805]], [[31.956316472281294, 36.76444654837825], [31.957857662687953, 36.765294766136336], [31.958196303893413, 36.76822728266245], [31.953224721968976, 36.76876690126686], [31.95258424837383, 36.765128500303504], [31.956316472281294, 36.76444654837825]], [[31.938535158624617, 36.753922720664654], [31.937324879098643, 36.755205847634606], [31.93380627324673, 36.75507293125194], [31.933166817422467, 36.75143443405539], [31.937688318590535, 36.750919796615], [31.938535158624617, 36.753922720664654]], [[31.885035728843157, 36.77381981868542], [31.886457102983922, 36.7724996819378], [31.88990192955359, 36.77308753788569], [31.890312576507807, 36.77676970372263], [31.88573524305084, 36.77709996906232], [31.885035728843157, 36.77381981868542]]], [[[32.05375548338011, 36.70243532227208], [32.05402148414341, 36.69991012451621], [32.051226944419234, 36.699887885856306], [32.051199285091855, 36.70213818863714], [32.05375548338011, 36.70243532227208]]], [[[32.07206790132367, 36.82850806493748], [32.072040722760796, 36.830758332406866], [32.07484003178732, 36.83078014858453], [32.07486712839109, 36.82852987934047], [32.07206790132367, 36.82850806493748]]], [[[32.05780372432041, 36.84867812172426], [32.05777610778371, 36.85092837237294], [32.060493871477036, 36.85191107816072], [32.060524854411014, 36.85545728426971], [32.06332505467865, 36.855479384177436], [32.06412686509115, 36.851207976175104], [32.0689878609691, 36.85101671697072], [32.06901514900625, 36.84876645913705], [32.05780372432041, 36.84867812172426]]], [[[32.06255737124639, 36.68870946335115], [32.06250269460275, 36.69321319963838], [32.06529700181588, 36.693235170228135], [32.06535151554808, 36.68873143035888], [32.06255737124639, 36.68870946335115]]], [[[32.04372854295504, 36.85307287332196], [32.04370050942779, 36.855323113118615], [32.046456759201085, 36.85643516522077], [32.04639256818849, 36.8643590314261], [32.05760624665038, 36.86444847732839], [32.05766155190483, 36.859944877296094], [32.05535695573581, 36.85952899471182], [32.0541937602091, 36.856862128189974], [32.05494056401419, 36.85316254724242], [32.05214045501674, 36.853140251019276], [32.05042828082444, 36.85537860599516], [32.04725315654557, 36.855125320085406], [32.04652864265806, 36.85309536765577], [32.04372854295504, 36.85307287332196]]], [[[32.04865067006514, 36.68183824430671], [32.04862295384093, 36.68408855224166], [32.05141691977568, 36.684110843837395], [32.05144455463379, 36.681860534086304], [32.04865067006514, 36.68183824430671]]], [[[32.03242749032479, 36.859742130192856], [32.032370704654916, 36.86424569722432], [32.03467530736754, 36.86466202548063], [32.03514673623928, 36.86652183459258], [32.0376581164932, 36.86714468267956], [32.037922932487064, 36.868797908634534], [32.04072360120572, 36.868820547940125], [32.04075173577597, 36.86657031522477], [32.03869991884412, 36.86632430543092], [32.0379755332545, 36.864294306377325], [32.035380783318224, 36.863556974196136], [32.03522782403799, 36.85976489423192], [32.03242749032479, 36.859742130192856]]], [[[32.00447332868742, 36.8527505749795], [32.00444414483007, 36.855000788563274], [32.009158818551555, 36.85520139808695], [32.01002309566844, 36.85730095332027], [32.02061850121214, 36.8576972080581], [32.02194636222637, 36.860717584456424], [32.02115327063705, 36.86415383909604], [32.02395375596241, 36.8641768710885], [32.02447210900656, 36.86232514692443], [32.02678669163502, 36.8619465352821], [32.026934603164676, 36.856148229032584], [32.02967643972411, 36.855209453589346], [32.02970488420514, 36.852959223036024], [32.026987493694804, 36.85197581857245], [32.02695805807589, 36.84842962418365], [32.01855059222856, 36.848360503983436], [32.01890580863131, 36.85385984529322], [32.01754654931482, 36.85508424619676], [32.01140472439799, 36.85503445927424], [32.01007731022166, 36.85279737889489], [32.00447332868742, 36.8527505749795]]], [[[32.00987769286289, 36.868570672575416], [32.009848650741716, 36.87082088384507], [32.01256647454761, 36.87180468374409], [32.01259522917706, 36.87535085821587], [32.02100563734141, 36.87542044288014], [32.02103435704407, 36.87317022580494], [32.018729579815215, 36.87275363092364], [32.01825851557319, 36.870893763893555], [32.01574718012697, 36.870270506722086], [32.01548283879795, 36.868617238710875], [32.00987769286289, 36.868570672575416]]], [[[32.00421019413821, 36.87303044035909], [32.00418098106585, 36.87528064606783], [32.006981858246235, 36.875304083965766], [32.00701098918579, 36.87305387635136], [32.00421019413821, 36.87303044035909]]], [[[31.989721919308064, 36.69487458058998], [31.9896924724894, 36.697124843852585], [31.992486860847038, 36.697148525307526], [31.992516226252995, 36.69489826011582], [31.989721919308064, 36.69487458058998]]], [[[31.961861614593047, 36.68562042594141], [31.96183136599356, 36.68787067309231], [31.964130302620468, 36.688288293065995], [31.96459904253366, 36.69014839337918], [31.970191133560466, 36.690196894129755], [31.970221141150553, 36.68794664191779], [31.967922178864317, 36.68752913918264], [31.96745337295818, 36.6856690501403], [31.961861614593047, 36.68562042594141]]]]}}