{"type": "Feature", "properties": {"fire_id": "AKD_2021_04", "fire_date": "2021-07-29", "province": "Osmaniye", "region": "Akdeniz", "modis_area_ha": 3971}, "geometry": {"type": "MultiPolygon", "coordinates": [[[[36.29967650842512, 37.32863564636968], [36.29959599756013, 37.3308835139857], [36.305229882080674, 37.3310120574671], [36.30539067090407, 37.326513195371746], [36.30257583586533, 37.32644901186443], [36.30201220838075, 37.3282915134572], [36.29967650842512, 37.32863564636968]]], [[[36.28446546184547, 37.28097817151946], [36.28438463715515, 37.28322602896222], [36.287092492069036, 37.28424903702739], [36.2870399730038, 37.28779260331396], [36.292447277528176, 37.288632570225616], [36.29243230771112, 37.29467462969276], [36.298063457491786, 37.294803408313015], [36.29825344291024, 37.29071601332047], [36.30385931099195, 37.29043001902187], [36.304260997152895, 37.279178134058895], [36.29018019970902, 37.27885640402529], [36.28920983223217, 37.28092583396283], [36.28446546184547, 37.28097817151946]]], [[[36.297502343711585, 37.31052870703426], [36.300094069702524, 37.31133559905414], [36.30016016386591, 37.31512668411824], [36.302974571061576, 37.31519090857165], [36.30313540236411, 37.3106920427897], [36.300828672013594, 37.3102419585217], [36.30035830847732, 37.30837430253742], [36.29758366946127, 37.308312482475834], [36.297502343711585, 37.31052870703426]]], [[[36.264048485212435, 37.22193438293361], [36.26396722699889, 37.22418222458565], [36.266778166763046, 37.22424717523352], [36.26719821918845, 37.222196357120815], [36.264048485212435, 37.22193438293361]]], [[[36.26933920103894, 37.221864259285155], [36.271981932401886, 37.22251186465954], [36.27245118490191, 37.22437960844309], [36.27522268875566, 37.22444189566132], [36.27578602965789, 37.22259948819297], [36.27811850070763, 37.222255695895974], [36.27824676587229, 37.211738689139835], [36.281337499104545, 37.21106549086367], [36.28251193658288, 37.20858486690817], [36.287399330572356, 37.208762517860784], [36.287127438051904, 37.206695755044436], [36.28482395755104, 37.20624548114897], [36.28371896196983, 37.20356337634917], [36.284555336454815, 37.1998782465485], [36.281745258923515, 37.19981375369014], [36.2811822656079, 37.20165620840672], [36.27885044547942, 37.20200008810345], [36.27947824576232, 37.20546114422643], [36.27813032223099, 37.210861020660275], [36.27289819532233, 37.210874460230336], [36.27233489011969, 37.21271685786501], [36.27000269672943, 37.21306054732021], [36.26933920103894, 37.221864259285155]]], [[[36.28951257362131, 37.209192444426435], [36.28978453635381, 37.211259203935136], [36.29259505701034, 37.21132352288901], [36.2931578624244, 37.209481008334556], [36.296511063522196, 37.20859684419741], [36.30393290662369, 37.20932946051153], [36.304012935744616, 37.207081538631], [36.3017093227915, 37.2066315891255], [36.30105238132053, 37.20448452927023], [36.29688524558004, 37.20496312874045], [36.29573089967981, 37.202386921463635], [36.29292070311648, 37.202322690016736], [36.29257869716066, 37.20823742485894], [36.28951257362131, 37.209192444426435]]], [[[36.30158956810727, 37.20279420049651], [36.30417329888886, 37.20257637645753], [36.30425330132864, 37.20032845156525], [36.30166607259288, 37.19955343326473], [36.30159964549556, 37.195762284133906], [36.298789680866406, 37.19569820159915], [36.298629259164386, 37.20019713876017], [36.30093265663614, 37.20064714019194], [36.30158956810727, 37.20279420049651]]], [[[36.14113087027583, 37.11990669940912], [36.13968963935684, 37.15816618668158], [36.14227359572052, 37.158944624043635], [36.14233213071406, 37.16273555106038], [36.14489390905201, 37.1630740315961], [36.1464224140355, 37.160641164629034], [36.150849576991696, 37.160688012658994], [36.15104669866482, 37.15660108664464], [36.15664270963554, 37.15632167707154], [36.15720828531693, 37.1544799139402], [36.15953902648768, 37.15413839138472], [36.160483194235205, 37.14545822316818], [36.16474293094953, 37.14548125927981], [36.16613060712832, 37.1486019053585], [36.16489936927295, 37.15793957503705], [36.1621863818679, 37.15871055716672], [36.161358910553865, 37.16071416507874], [36.15928995373436, 37.16089390205287], [36.15859834112914, 37.16282172970535], [36.156393359253975, 37.1630771683474], [36.15579355746797, 37.165280633969985], [36.1453061404161, 37.16478649370994], [36.14449357866323, 37.16689891848339], [36.14216239295216, 37.167240124689776], [36.14173829309129, 37.17849067432063], [36.147360087673434, 37.17862626272542], [36.14818814936862, 37.17662278176529], [36.151384543371044, 37.17647193305163], [36.152989680149425, 37.17876177143293], [36.15785482101287, 37.179108014821324], [36.15840793476092, 37.18243976281408], [36.15563351367358, 37.183333993300124], [36.15554915599862, 37.18558164176817], [36.16117154372503, 37.18571659675137], [36.161947620238294, 37.18153800035154], [36.16896657380208, 37.180874436457735], [36.170430472850896, 37.1828920311117], [36.16913329867891, 37.18551290436696], [36.16680161391935, 37.185854575867495], [36.166717579532005, 37.18810224516227], [36.16948739446902, 37.18817005649353], [36.17009250372111, 37.18632762927141], [36.17277675581607, 37.18580511282252], [36.17180142655701, 37.182524466983295], [36.1732965953854, 37.181027542839416], [36.1866573207827, 37.181819385210794], [36.18724178870409, 37.16606676227322], [36.184433194582574, 37.16600001277052], [36.18422709343331, 37.16953985441893], [36.18274224235019, 37.17045733431849], [36.179536903373645, 37.17022792917191], [36.17872066174652, 37.16811684210952], [36.1755744551752, 37.16704494109086], [36.176198528524914, 37.16225607685671], [36.17897195028141, 37.16136131913706], [36.17974671609108, 37.1571825397124], [36.183867666679284, 37.15713339809304], [36.184683955499935, 37.15924445413548], [36.19767086466067, 37.159297747955634], [36.19857891246549, 37.16407960575985], [36.20138746961277, 37.164146017089394], [36.20171947380223, 37.155144733265196], [36.196498529653496, 37.15452649134931], [36.19719805936063, 37.15033022734584], [36.20112928932815, 37.150852381945185], [36.202032477252864, 37.15317387374449], [36.20596491115438, 37.15238816231883], [36.209195288386, 37.15317064404043], [36.210385870858644, 37.15562375831164], [36.21713049681981, 37.15490388677071], [36.22020684546935, 37.155637763334575], [36.221326037619995, 37.15785709688311], [36.22388811506757, 37.15819387512445], [36.22469839012468, 37.156080807575684], [36.22702896215354, 37.155737945304764], [36.22711111283242, 37.15349014755683], [36.21699810201879, 37.15384126112856], [36.21368080569283, 37.152866551317686], [36.21313335711288, 37.15090922150708], [36.20840912764456, 37.150636797535405], [36.20759224495182, 37.14852587904358], [36.205088804712695, 37.14786454029643], [36.20449770236195, 37.14507339536293], [36.20960005989788, 37.14350232584052], [36.21287466359156, 37.14453901131344], [36.21330266385061, 37.146404450894316], [36.215806139473145, 37.147065616995974], [36.21603191211932, 37.148721462119546], [36.22165186192312, 37.14885343576337], [36.22193848800225, 37.14306254722798], [36.22471072213988, 37.142166664001735], [36.225242044611086, 37.13816919252585], [36.22768681945424, 37.13773069527282], [36.22708317691159, 37.1341377302832], [36.22830010340672, 37.131482286763855], [36.23074464668358, 37.131043716382656], [36.23072029923551, 37.12716391737871], [36.235069500285114, 37.12603719163896], [36.242153351272776, 37.12680419505928], [36.24265506976068, 37.12250249548296], [36.23799753476269, 37.122806551184915], [36.234513539954605, 37.12181513402733], [36.23325347909638, 37.11877723911513], [36.234463726362, 37.11727561029407], [36.23966939773999, 37.11773496060944], [36.24049429444975, 37.11573068853034], [36.24417553122859, 37.1156467764011], [36.2459961463508, 37.11881394716367], [36.245130452997444, 37.12236772515029], [36.26063731752068, 37.12275489274442], [36.26191669405302, 37.12500979908821], [36.264723957414255, 37.12507465134557], [36.265548295639505, 37.12307018334874], [36.2691977609279, 37.12262801268955], [36.27035014447684, 37.125204424782886], [36.27285350549548, 37.12586437817038], [36.27308049621995, 37.12752016746251], [36.27780368626799, 37.127789962269674], [36.278622366324775, 37.12990047252559], [36.28600950050577, 37.130174396293505], [36.28701547382008, 37.132347412772106], [36.295406619677195, 37.1325377430036], [36.295486678869594, 37.13028980776891], [36.29230852533206, 37.129087913206135], [36.293928242073825, 37.125490611922416], [36.29770249394705, 37.12606088284473], [36.298382160040376, 37.12809989796859], [36.30400097205744, 37.12822790639647], [36.3043212370036, 37.119258421380884], [36.3017591812275, 37.11889177285575], [36.300236457997045, 37.121326895761825], [36.29631734957, 37.120899813440055], [36.29625731703037, 37.117028654644876], [36.30134356762896, 37.11717971183495], [36.30167011029445, 37.11469231235792], [36.29696907631672, 37.11475335568872], [36.29612771653902, 37.11228144851291], [36.2764565900297, 37.111830891457444], [36.27576843774441, 37.11375955667176], [36.272484146463746, 37.11433639558384], [36.270972970336445, 37.11360054617817], [36.27083136382425, 37.11170144747595], [36.24272903594172, 37.11105077165442], [36.24190425592024, 37.113055065180575], [36.23871056556113, 37.11320847709137], [36.2371040265879, 37.11091972990036], [36.21185277349821, 37.11032662254577], [36.21108497254915, 37.11261720005792], [36.206109573127506, 37.11244571075982], [36.20450408869817, 37.114652605180844], [36.198664786260615, 37.114777486984735], [36.19767411913565, 37.11224648184931], [36.189246501957044, 37.11204683767177], [36.18948734112547, 37.115561288410866], [36.1878238206327, 37.11651716258171], [36.18385789863262, 37.11592876618628], [36.1836216753069, 37.111913255669535], [36.175194196968626, 37.11171261420368], [36.17342232898, 37.11392161231922], [36.17024553591776, 37.11361797398814], [36.16956946321522, 37.11157836659508], [36.166762925466706, 37.111511281952566], [36.1649908254977, 37.113720143873714], [36.159290494919496, 37.11348070497765], [36.15832786116501, 37.11130925810903], [36.152710992912326, 37.11117439797657], [36.152514239030936, 37.11526136298747], [36.14692126352941, 37.11554070573733], [36.14627124614523, 37.11963319215677], [36.14113087027583, 37.11990669940912]], [[36.289759314390324, 37.11928891578358], [36.28943458323638, 37.125536832233095], [36.284912251372226, 37.12514471599866], [36.28512532998427, 37.119182814381425], [36.289759314390324, 37.11928891578358]], [[36.276177931174495, 37.120783910081016], [36.27855822138666, 37.1205525528134], [36.27895038225554, 37.12263654514165], [36.27622778089937, 37.12276865014815], [36.276177931174495, 37.120783910081016]], [[36.24817806858488, 37.11567632690561], [36.248858573097245, 37.11355191572397], [36.25259061160843, 37.11292797887309], [36.25421003576772, 37.11402535300282], [36.25321504362435, 37.11569114359888], [36.24817806858488, 37.11567632690561]], [[36.188242988907554, 37.13905372235563], [36.1892624928709, 37.13662527980099], [36.19394916571643, 37.1369362307031], [36.19423779856215, 37.13114548441125], [36.19700987356399, 37.130250243924756], [36.19783603481654, 37.12824632490881], [36.20125388142109, 37.12749590500764], [36.20833739609592, 37.12826492344027], [36.20819409439315, 37.12573513742705], [36.201452027171754, 37.12645460622477], [36.19980078442387, 37.1256009877105], [36.19998330091805, 37.12407806888521], [36.202634692005596, 37.12390142914103], [36.203706875385734, 37.121626583804776], [36.20738836576865, 37.12154382911094], [36.20873265548535, 37.124045271909], [36.21131382691105, 37.12382937412097], [36.21153457922962, 37.11993515118126], [36.213405777657265, 37.119040333299445], [36.21724732886055, 37.1200896847952], [36.21693966846054, 37.12396167845412], [36.219746786643384, 37.124027594148444], [36.22010470709, 37.11543856771269], [36.22465470537642, 37.11523577476289], [36.22561931335311, 37.117406761191994], [36.22812197251746, 37.11806763488032], [36.228787239188115, 37.12782137451978], [36.22757039630223, 37.13047682759694], [36.22512585733544, 37.130915332457405], [36.22575080337245, 37.13437658678785], [36.22413578950741, 37.13742127885296], [36.21790615216365, 37.138106344178524], [36.208010124601415, 37.13727161912225], [36.20673036335367, 37.139434511398576], [36.19949274858325, 37.139323360016824], [36.1996034919435, 37.14308739421641], [36.19651497961309, 37.143758548177395], [36.196235299828366, 37.14564772399179], [36.19484175755323, 37.14631359110986], [36.19143459779965, 37.14558262314737], [36.19088777049126, 37.14362521420808], [36.18566770872547, 37.143005548715955], [36.1856061134836, 37.13970715455706], [36.188242988907554, 37.13905372235563]], [[36.18400700925785, 37.17724638755837], [36.18436489611074, 37.17919243806063], [36.18175705138233, 37.17950741029381], [36.18148814115418, 37.17743243755515], [36.18400700925785, 37.17724638755837]], [[36.168342756449505, 37.15643710888581], [36.16875024645821, 37.150161744606315], [36.176332082360794, 37.15031107562491], [36.17714356323073, 37.14819838263557], [36.179474045192684, 37.14785645534159], [36.17885115510034, 37.14439504655009], [36.17991260082709, 37.14320583333609], [36.18205087334656, 37.14354604944599], [36.18237205819765, 37.14567258233809], [36.18532749707691, 37.14636934453229], [36.18491852490746, 37.149405939446154], [36.18220602229677, 37.15017740267741], [36.18172635874896, 37.15228492639365], [36.17674498043338, 37.15202345816097], [36.175933440775665, 37.15413614505119], [36.17360275251992, 37.1544779936005], [36.172731995486956, 37.15684278030255], [36.168342756449505, 37.15643710888581]], [[36.177881447703896, 37.116230427296216], [36.18025800804455, 37.11599839224376], [36.18065136187305, 37.11808508768543], [36.17792889895227, 37.11821493182844], [36.177881447703896, 37.116230427296216]], [[36.168283798977704, 37.17942865199957], [36.167511184359995, 37.17484355599444], [36.17164592888073, 37.17476309620595], [36.172641045461496, 37.17827494357501], [36.168283798977704, 37.17942865199957]]], [[[36.17488858391332, 37.186237035261264], [36.17586933839445, 37.189384904037475], [36.17490560032696, 37.19505629842588], [36.17771524735864, 37.195123318185416], [36.1788927337366, 37.19264384653655], [36.1826691966882, 37.19321788242498], [36.18334621257287, 37.1952574351519], [36.18599830200542, 37.19615647570264], [36.185992550085075, 37.19982596244272], [36.19097759550437, 37.199890103780035], [36.19145310105428, 37.20446124098999], [36.19419230575087, 37.205615736354545], [36.193939241032126, 37.21244496413179], [36.1911190299664, 37.21346759909626], [36.19082943912331, 37.21925824400224], [36.187701278647076, 37.22033400967353], [36.18797366651084, 37.22414089854652], [36.18507206807066, 37.224587877744405], [36.184988458064744, 37.226835567774515], [36.187728342723766, 37.227990238384045], [36.18755220889423, 37.2336548837854], [36.18996347766207, 37.234207902262256], [36.19099621267789, 37.23705345569424], [36.18974931311666, 37.23997281276265], [36.187301027811394, 37.24041037411272], [36.18696625885918, 37.24941043573147], [36.189553825163074, 37.250187979011535], [36.189614504967764, 37.253978932405545], [36.19805790904337, 37.25417919798246], [36.19903033644423, 37.2521105955772], [36.203370088748116, 37.252185966006245], [36.20361585261949, 37.255477062369124], [36.200794114405284, 37.25649986102063], [36.20062673950863, 37.26096673515313], [36.20333333129857, 37.26202323279915], [36.203193656891784, 37.26781742896218], [36.20819514466744, 37.268243939748885], [36.20874311913671, 37.27020128772279], [36.21079810352527, 37.27047911089604], [36.211476447240486, 37.27251853857871], [36.21398401002708, 37.27317990105891], [36.21417473973338, 37.27573757181104], [36.21131015402476, 37.277023297408], [36.210185669984945, 37.27914512206422], [36.20705774619234, 37.279777606355445], [36.2038220678517, 37.27899485998716], [36.20285633258214, 37.276823689292996], [36.200348763404094, 37.27616209014768], [36.200123134425546, 37.27450624504384], [36.19771051026582, 37.27395338123049], [36.197390103575195, 37.27218874366782], [36.19193652353897, 37.271738113883565], [36.19192454371034, 37.26755356959927], [36.189619917038904, 37.26710139272079], [36.189192014654424, 37.26523589693875], [36.1863797371434, 37.26516904254677], [36.18581385999059, 37.26701091004838], [36.18347969106413, 37.26735280546398], [36.182829799316885, 37.271445428573884], [36.18049548228076, 37.27178725863016], [36.17952226882384, 37.27385567113861], [36.174778549335365, 37.27390362151116], [36.17421231348929, 37.27574541669066], [36.171877834207564, 37.276087069236965], [36.171370529211, 37.280388161429556], [36.174275304320275, 37.280923472393205], [36.17620596243476, 37.28010458027623], [36.180381609174795, 37.281536718686546], [36.17921285578109, 37.283545431820365], [36.174438642320354, 37.282938192700335], [36.17427343649926, 37.28740503801722], [36.1792759729485, 37.28783281799763], [36.179745346905314, 37.290954765841064], [36.178377661392005, 37.29198413488874], [36.172810669838285, 37.29187064911798], [36.171368161041606, 37.289591458711435], [36.16855502054181, 37.289524143621655], [36.16847072260044, 37.29177177692474], [36.17112592832355, 37.29267127122794], [36.171125399723444, 37.29525441729093], [36.16830174921412, 37.29627635466253], [36.168094143128194, 37.29981605351389], [36.165315419078624, 37.300710321284626], [36.16523099062971, 37.302957944027426], [36.16804462335141, 37.30302535870754], [36.16949066860023, 37.30083474903302], [36.176581447647685, 37.30097673112534], [36.177147855586085, 37.299134936932354], [36.17948303770826, 37.29879320987982], [36.17933004498655, 37.29450110896166], [36.18100426418895, 37.29372210202863], [36.18528571536032, 37.294425930799044], [36.18553129480817, 37.28876299105673], [36.18835445065102, 37.28774061971169], [36.18843502177334, 37.283752950691756], [36.196972610711995, 37.283439631305], [36.19725300355438, 37.28155051273923], [36.19881861257223, 37.28088657771295], [36.20238455201397, 37.28191725929594], [36.20252686066553, 37.285823907436765], [36.20533994557748, 37.2858904095163], [36.20711526605333, 37.28368111720633], [36.21282869396085, 37.28391877907505], [36.21379479910448, 37.28608988138337], [36.21865038123589, 37.28607139240074], [36.21926303658289, 37.29072414072797], [36.22156859014268, 37.291175774622886], [36.22199740648858, 37.29304118454984], [36.23013839470269, 37.293471186986096], [36.2305106029908, 37.298023106996276], [36.23515744912808, 37.29808450233375], [36.23583666099573, 37.30012381849238], [36.238493053973244, 37.30102184253811], [36.23848951975776, 37.30469137774451], [36.2413033932561, 37.304757053311356], [36.24179684287335, 37.29125490411493], [36.23905381745096, 37.29010137082711], [36.239391054689406, 37.27993479004664], [36.237085711624076, 37.27948351262138], [36.236656574640435, 37.27761814169519], [36.22851523329524, 37.276825389725225], [36.2285469197732, 37.27363576931674], [36.23118823037545, 37.27298156826823], [36.23135308748592, 37.26848294012437], [36.229048147756494, 37.268031521268], [36.228619258369086, 37.26616612864657], [36.223748028681975, 37.26582255841279], [36.22306939767097, 37.26378318808239], [36.22056204984191, 37.263122026855534], [36.22033599584452, 37.26146620065143], [36.217923607911864, 37.26091375924927], [36.216889575066126, 37.25806839639779], [36.21776845802399, 37.254647464342156], [36.215180412038485, 37.25387052099757], [36.21529363691561, 37.250796598680715], [36.22533650172092, 37.2504209308804], [36.22630260573616, 37.25259193902243], [36.228809667875616, 37.25325296739299], [36.229035895520965, 37.254908785966954], [36.231448190131054, 37.2554609966303], [36.231769352466614, 37.25722557571614], [36.23418174350807, 37.25777773422066], [36.234502976593795, 37.259542308253984], [36.24232027601226, 37.26003315510529], [36.24278698017518, 37.26424127205422], [36.245493546804134, 37.26526518592003], [36.2454391453312, 37.26880866597174], [36.25084898820108, 37.269291528453444], [36.25090823332658, 37.27344150114628], [36.25349735436148, 37.274217701898685], [36.253561189443204, 37.2780087393112], [36.25637410504412, 37.2780740169031], [36.256938382020394, 37.27623174855249], [36.2592725869214, 37.27588840065016], [36.260098962445646, 37.2738840879186], [36.262170901447504, 37.27370270588823], [36.26225235873313, 37.271454886440736], [36.259596668018304, 37.270557422805474], [36.25984392153736, 37.26013505740466], [36.257082122056126, 37.25885030540367], [36.25745610523593, 37.2561732772863], [36.26000722307163, 37.25563010096264], [36.260171060192405, 37.25116299725742], [36.25742834913021, 37.24997828384723], [36.25776259730745, 37.2398114830418], [36.25318036187103, 37.23960075926389], [36.25221361436848, 37.23742994207676], [36.247631551905805, 37.23721900964017], [36.246664992753736, 37.23504815397028], [36.242083103301276, 37.234837012915094], [36.24111673247007, 37.232666118790824], [36.23668945017742, 37.23250306329037], [36.23556883352431, 37.2302838366068], [36.231338024495436, 37.23051104604114], [36.230038911083234, 37.22954829314018], [36.230225707589696, 37.22435823088411], [36.2330008945008, 37.22346228159792], [36.23345181662674, 37.21316962306524], [36.236226551265545, 37.212273578376745], [36.236390747684005, 37.207774884882205], [36.23373758928808, 37.20687693475092], [36.23341603449599, 37.201940737390906], [36.23663725712482, 37.20101907465335], [36.237656197427704, 37.19859020823973], [36.242347008650896, 37.19889940378404], [36.24259347275534, 37.192181406296754], [36.238364017433625, 37.192377308700095], [36.23706543353654, 37.191414650418665], [36.23730498196277, 37.188233788840535], [36.23994320065071, 37.18757925998561], [36.240188987515936, 37.18082961639533], [36.23760315635276, 37.1800532482516], [36.23753989390431, 37.176262182332536], [36.23523768347246, 37.17581099029185], [36.23480901837748, 37.1739456094337], [36.23230447841296, 37.173284805006816], [36.232078309347806, 37.17162897950187], [36.229043198527656, 37.170813767523526], [36.22969448040159, 37.16766675854993], [36.23224583018932, 37.1670925047591], [36.23232476710927, 37.16487625759611], [36.229621900677465, 37.16385217999795], [36.22967665521036, 37.160308678604444], [36.224302129462295, 37.15990613556612], [36.22308540387443, 37.16224596363009], [36.21834859928795, 37.162295949657675], [36.218001787361366, 37.16393833772972], [36.215453556992294, 37.164480729120804], [36.214627397115024, 37.16648476322037], [36.20974579139285, 37.16659918837811], [36.20988776807554, 37.17434991650671], [36.208820417560545, 37.17547973146209], [36.20419093900998, 37.17534554305592], [36.203950846752015, 37.170968119602136], [36.19551666729791, 37.17076865359968], [36.19495186357029, 37.17261062891814], [36.192620663300595, 37.17295283117752], [36.19212056762699, 37.186454685596246], [36.194625130463706, 37.18711634286246], [36.19481517317557, 37.189674041871314], [36.191953641549674, 37.19095943539788], [36.19099950316942, 37.195575169059275], [36.18666690305779, 37.19494205744182], [36.18632295378141, 37.19082574066996], [36.184020675543636, 37.190373547298016], [36.18359322444613, 37.18850803357022], [36.181088727864186, 37.187846144965576], [36.18086366169865, 37.186190269604765], [36.17488858391332, 37.186237035261264]], [[36.24899780357966, 37.24861179828746], [36.249635155688395, 37.244522832795624], [36.254276665926334, 37.244630629347995], [36.25458444196345, 37.247788187546135], [36.25145587542776, 37.24886562418512], [36.25241396147238, 37.252277476207574], [36.25062281743495, 37.25372602144772], [36.24611899242569, 37.25209708289564], [36.246438158348575, 37.24915893201112], [36.24899780357966, 37.24861179828746]], [[36.212957976726784, 37.18003057401462], [36.21274594397206, 37.17359321624298], [36.217035897969886, 37.17368725790923], [36.21799677265368, 37.17833100266669], [36.225757754911086, 37.17840444605765], [36.225869784407415, 37.182031730186054], [36.21896299181202, 37.1825582297158], [36.21745795211114, 37.180020889319614], [36.212957976726784, 37.18003057401462]], [[36.20891342823873, 37.1891045911452], [36.20945499781012, 37.182597988293665], [36.21326758820999, 37.18245679023673], [36.21470955682758, 37.184735473821775], [36.217214291757564, 37.1853966587833], [36.21644827668231, 37.19356137310709], [36.206241403443606, 37.19330869063584], [36.20619968704005, 37.18987655143015], [36.20891342823873, 37.1891045911452]], [[36.20013527266559, 37.19790479609665], [36.200663495402665, 37.19583623968942], [36.20753266659453, 37.195242123828336], [36.2110788144689, 37.19640979059264], [36.21135119030373, 37.19920844198309], [36.209956512360755, 37.20036880176614], [36.20158233168336, 37.20019058964619], [36.20013527266559, 37.19790479609665]], [[36.20509548442657, 37.182257645229896], [36.20671850171224, 37.18342365698604], [36.20600417711609, 37.18820310255659], [36.201521034877345, 37.18882873842058], [36.20052832833748, 37.18768896364021], [36.20082231606514, 37.182991108600696], [36.20509548442657, 37.182257645229896]], [[36.19578182327285, 37.17967725419854], [36.195911205415186, 37.17342515077463], [36.200548151786506, 37.17353487503628], [36.200328007474134, 37.17949629690432], [36.19578182327285, 37.17967725419854]]], [[[36.185588423538015, 37.21990227579454], [36.18531930650515, 37.21783539478097], [36.18250879893547, 37.21776852069795], [36.1824251334988, 37.22001620835961], [36.185588423538015, 37.21990227579454]]], [[[36.169227555484234, 37.28071839641592], [36.16607590202647, 37.28045372815445], [36.165991558000954, 37.28270136008152], [36.16880443828693, 37.2827687256411], [36.169227555484234, 37.28071839641592]]], [[[36.22997103445458, 37.29971299714659], [36.22456630379854, 37.29986296331955], [36.22427851826551, 37.305653706586575], [36.22150015668718, 37.30654931315286], [36.22141660310953, 37.30876539587368], [36.22423136870883, 37.308863129666456], [36.22535596239444, 37.306741182727414], [36.22903011808692, 37.30675155399454], [36.23032015663975, 37.30788236227506], [36.22968829282349, 37.310411026638945], [36.226970293999116, 37.31118328110896], [36.22670486104048, 37.31484665934204], [36.223986673189685, 37.315618836964205], [36.22342124569133, 37.317460892643446], [36.219024214217, 37.31769271134026], [36.21789719231013, 37.31659924818994], [36.21842954584526, 37.31323546324103], [36.21527679341301, 37.31216437150653], [36.21577766310866, 37.308667496586814], [36.2075749274393, 37.30819739513329], [36.205808725760114, 37.30903396737998], [36.20424509863308, 37.3080628113015], [36.204745389514194, 37.306472639348705], [36.207407480489145, 37.306215222306996], [36.20783253001804, 37.300182000156546], [36.21047804599725, 37.29949675535875], [36.21072435166097, 37.29277896263591], [36.20509376609024, 37.292646034982575], [36.20511630861901, 37.29652569168214], [36.2021096967134, 37.297081028231105], [36.20154390935291, 37.29892296821249], [36.19920879516576, 37.2992651351297], [36.19912537975502, 37.30151282404184], [36.2018681392579, 37.302667274131515], [36.202484152300904, 37.307294728443765], [36.20150927078277, 37.30974749796213], [36.200082276980055, 37.31054161247854], [36.193155311290504, 37.31038545205983], [36.19307168212236, 37.31263312508024], [36.1957279355073, 37.313532105974566], [36.19572820366313, 37.31611527868397], [36.19436024594512, 37.3171448191006], [36.19008594289936, 37.31707084492675], [36.19023951203228, 37.321362944504486], [36.18856474754245, 37.32214205780485], [36.18269559444195, 37.32169748142911], [36.181317333349455, 37.31883821425819], [36.17839127858155, 37.31804822714851], [36.17983331102577, 37.31626032825515], [36.18444598667609, 37.31693357157063], [36.185012349922935, 37.31509174108304], [36.187348005332844, 37.314749878256436], [36.18743181130731, 37.31250221709065], [36.17616407413003, 37.3122336649295], [36.17573118225876, 37.31612656917165], [36.17317750072564, 37.31666781273602], [36.17234831273386, 37.318671390867905], [36.170275016547414, 37.318851137414136], [36.1698527760128, 37.330101673557614], [36.17244285698465, 37.3308796891476], [36.172502479120546, 37.33467057297585], [36.179722439081786, 37.334546056564704], [36.180874487620656, 37.337123266221965], [36.183689432290386, 37.33719036104777], [36.18377341527286, 37.334942715493185], [36.18140764959209, 37.33471831221027], [36.180595850940236, 37.33333257956498], [36.18160554376478, 37.330779881154164], [36.185461605226244, 37.329872694567975], [36.18972556741452, 37.33120215956704], [36.189414945889084, 37.33507386625241], [36.19955226923963, 37.33472612142117], [36.20287720008685, 37.33570152092861], [36.20342541334925, 37.33765888823417], [36.21469721082529, 37.33792499813401], [36.21467429848549, 37.334045346678714], [36.21876672741251, 37.33317125628098], [36.22028161079658, 37.333907906316114], [36.2204220059142, 37.335806967591346], [36.222836777176035, 37.336359449762256], [36.22315796098916, 37.3381240367001], [36.23161101700186, 37.3383222889782], [36.23217643561945, 37.33648019808693], [36.234512605476645, 37.33613742209889], [36.23459507094144, 37.33388967869015], [36.22921983938284, 37.33401418705561], [36.22824342462154, 37.332676957923326], [36.229122882544395, 37.329255993924235], [36.22595498744443, 37.32937090580215], [36.22661668047227, 37.33243892746662], [36.22554718391925, 37.333568786042306], [36.22126183896456, 37.33351475008798], [36.22011984087022, 37.33228634235997], [36.221034652612296, 37.32955878028718], [36.223838855496815, 37.32893972950535], [36.22285463433412, 37.32579216848239], [36.22407533386229, 37.31858664064904], [36.22953650271349, 37.31799867563607], [36.229966645139854, 37.3141054630622], [36.23251990889837, 37.31356297183698], [36.23334745942589, 37.311558902792086], [36.235420473803266, 37.311378035059555], [36.23558530776816, 37.30687942004017], [36.23151798908892, 37.30712611067627], [36.23010345214458, 37.306272175681954], [36.22997103445458, 37.29971299714659]], [[36.211984817190896, 37.3333216657275], [36.211697095228445, 37.33141550469788], [36.214307032216105, 37.331103234543626], [36.21447025197641, 37.33328335227856], [36.211984817190896, 37.3333216657275]], [[36.204387717189135, 37.31165530098751], [36.20584764278938, 37.310356830082], [36.21227752690196, 37.31094360673606], [36.21326162261194, 37.3121217551763], [36.212595681477474, 37.314871894506695], [36.21112059276272, 37.31565791821514], [36.20530570172841, 37.31507434207476], [36.204387717189135, 37.31165530098751]], [[36.20703015146875, 37.31843004352976], [36.2123231901212, 37.31783569605046], [36.2124254016547, 37.321144316596744], [36.20806028086567, 37.32229915358285], [36.20688726793138, 37.32123695443324], [36.20703015146875, 37.31843004352976]], [[36.19557234778774, 37.31948759260552], [36.197319209366704, 37.31890385875944], [36.20111336312617, 37.320418008604065], [36.20141529105569, 37.327339521398216], [36.200345508375264, 37.32846914025782], [36.19507739536772, 37.32770897390577], [36.19557234778774, 37.31948759260552]], [[36.18138664304732, 37.32780628043505], [36.18231405374924, 37.32344123724076], [36.18843385992415, 37.323460637404956], [36.18997698042521, 37.32635287356485], [36.19211610819385, 37.32629503775722], [36.19292805632021, 37.32768069826122], [36.191461534557824, 37.32893065064522], [36.18943627158708, 37.328042526041216], [36.1851632656949, 37.32880586530742], [36.18138664304732, 37.32780628043505]]], [[[36.20984707669157, 37.157313615689915], [36.207264757383314, 37.1575294333263], [36.2071820070896, 37.15977719159045], [36.20999042570515, 37.159843392521715], [36.20984707669157, 37.157313615689915]]], [[[36.29645772686975, 37.1821278441104], [36.296377546077, 37.18437576145777], [36.299187085596984, 37.184439884630464], [36.299267183314896, 37.182191962090954], [36.29645772686975, 37.1821278441104]]], [[[36.25605008435275, 37.287046097713834], [36.25823691230667, 37.28743681016045], [36.25878630717653, 37.28939397834264], [36.261529638007936, 37.2905470648449], [36.2613398197539, 37.293125882019105], [36.258622733346925, 37.29389890444395], [36.25854110193322, 37.29614670852327], [36.26135470453373, 37.29621189466796], [36.26312869956598, 37.29400170822194], [36.268688672413234, 37.29418844274261], [36.2698111128978, 37.29640741124825], [36.27262475170748, 37.296472329863946], [36.27281612262446, 37.292385031743855], [36.2784221365107, 37.29210025272784], [36.278986008071584, 37.29025786573239], [36.281320577660196, 37.28991409643417], [36.28140151304619, 37.28766624725533], [36.27858818159356, 37.28760155025061], [36.277617374783226, 37.289670865200414], [36.272872475163354, 37.28972271518635], [36.27185323442434, 37.29215184805343], [36.26820181048977, 37.29176329492686], [36.26700744928379, 37.2893106506308], [36.26264875172955, 37.28938209630889], [36.261681179583675, 37.287211336269294], [36.259267624949544, 37.28665969554546], [36.259027432138566, 37.28264425398948], [36.25621434018973, 37.28257903266128], [36.25605008435275, 37.287046097713834]]], [[[36.26754610974917, 37.287620552581686], [36.27013280906091, 37.287403594843006], [36.27069683829972, 37.28556125276031], [36.27303128880038, 37.28521764266038], [36.27311245699167, 37.282969807202925], [36.26748230574368, 37.28283987651361], [36.26754610974917, 37.287620552581686]]], [[[36.27690702914572, 37.25602337897451], [36.27682605276083, 37.25827123178393], [36.27963828890119, 37.25833592747423], [36.27971918191295, 37.256088069430284], [36.27690702914572, 37.25602337897451]]], [[[36.275202281548864, 37.30329328177235], [36.27512111590242, 37.30554111341379], [36.27793510743711, 37.305605919251974], [36.27801618951604, 37.30335808236957], [36.275202281548864, 37.30329328177235]]], [[[36.263518283701416, 37.23769034995891], [36.263071554830574, 37.248942571327355], [36.265883411992036, 37.24900757990121], [36.26607486615948, 37.244920273354836], [36.27167735150101, 37.24463567242082], [36.272015348275225, 37.24085387780354], [36.27465517941309, 37.24019864145052], [36.27481725814727, 37.23569982416852], [36.2720058743504, 37.235635047398084], [36.27095443810955, 37.23995529770302], [36.26741177591468, 37.23997494440494], [36.266290142119786, 37.23775597067355], [36.263518283701416, 37.23769034995891]]], [[[36.26013248199596, 37.329978683284224], [36.26005078903545, 37.332226476481154], [36.26286574021325, 37.33229168017103], [36.26294734950024, 37.330043881702416], [36.26013248199596, 37.329978683284224]]], [[[36.246309745519085, 37.16745513288941], [36.24622812193829, 37.169702961786435], [36.24893144047206, 37.17072667673045], [36.24887754733679, 37.174270217732236], [36.25152978888037, 37.175167793742155], [36.25152727851928, 37.17883742415627], [36.25433650800291, 37.178902602575164], [36.25489994247751, 37.17706028881049], [36.25723106673312, 37.176716853355025], [36.25773244317315, 37.17241510071826], [36.25316626935451, 37.17244617905058], [36.25183057458211, 37.17135153054638], [36.252007821333486, 37.16642111108137], [36.254825509992905, 37.16539691297146], [36.25498832584765, 37.1608981133851], [36.25217976122675, 37.16083297722997], [36.25175212700678, 37.164726441078805], [36.24920406524798, 37.16526956795622], [36.24837877299252, 37.16727387336316], [36.246309745519085, 37.16745513288941]]], [[[36.25987203466094, 37.17208311675668], [36.263019684612395, 37.17234512014187], [36.263100818615776, 37.17009726057383], [36.26029189447524, 37.17003230301637], [36.25987203466094, 37.17208311675668]]], [[[36.25216842283594, 37.3162771008415], [36.25208653315836, 37.31852488423651], [36.25490095448269, 37.318590257061196], [36.254982760545595, 37.31634246838014], [36.25216842283594, 37.3162771008415]]], [[[36.2379125802877, 37.32045052910095], [36.237830253671945, 37.32269828392263], [36.24039797468061, 37.32303492576987], [36.24072703984553, 37.320516241913566], [36.2379125802877, 37.32045052910095]]], [[[36.24081303397736, 37.32474713796987], [36.24023676496451, 37.3340184028297], [36.24254377815463, 37.33446968299985], [36.242973297068, 37.33633503556645], [36.24578836120073, 37.336400651676925], [36.2461993504406, 37.32514841727807], [36.24081303397736, 37.32474713796987]]], [[[36.2465121874637, 37.323177471542664], [36.24910014477268, 37.322961026696426], [36.24918213652385, 37.32071325063046], [36.246367649565265, 37.32064773862799], [36.2465121874637, 37.323177471542664]]], [[[36.23803571767568, 37.16275676813192], [36.23795386295043, 37.165004583134355], [36.240762548297624, 37.165070062665315], [36.240844320043635, 37.16282224236016], [36.23803571767568, 37.16275676813192]]], [[[36.229374901579696, 37.32250356002748], [36.229292314559004, 37.32475129783992], [36.23210691400671, 37.32481722212407], [36.23218941739342, 37.32256947898143], [36.229374901579696, 37.32250356002748]]], [[[36.23273922662159, 37.15362179147682], [36.232657242163924, 37.155869599887474], [36.235465576995686, 37.155935191259154], [36.23554747851301, 37.15368737753626], [36.23273922662159, 37.15362179147682]]], [[[36.17646021466736, 37.22888828535226], [36.176376336026166, 37.23113595706564], [36.17918732482545, 37.23120299708784], [36.179271120233494, 37.22895531994924], [36.17646021466736, 37.22888828535226]]], [[[36.1488360990297, 37.28905041313454], [36.14875121594841, 37.29129800812156], [36.151524765723785, 37.291366396392405], [36.15253859595435, 37.28929766090878], [36.157283239960385, 37.28925064400917], [36.15745259348423, 37.28475231337417], [36.154639667080076, 37.28468467500886], [36.15407284801123, 37.28652634698284], [36.1517379667451, 37.2868675835431], [36.150908597997834, 37.288871010062614], [36.1488360990297, 37.28905041313454]]], [[[36.142435355729006, 37.30917062014782], [36.14235022034438, 37.311418194929836], [36.147981900725306, 37.31155416530046], [36.14806686888552, 37.30930657952412], [36.142435355729006, 37.30917062014782]]], [[[36.14131372331881, 37.18974740781471], [36.14037921403792, 37.214502196370425], [36.1431894977718, 37.21457006504136], [36.143875052131534, 37.21011599123138], [36.14898737443284, 37.210204330779725], [36.14855662911454, 37.20210967134935], [36.14977750157741, 37.19945522270125], [36.15222461260254, 37.19901838932447], [36.15230910986909, 37.19677075246222], [36.15000689952064, 37.19631789842185], [36.14958027054012, 37.194452297050354], [36.14752762759014, 37.194173502195454], [36.14685159782824, 37.19213378489238], [36.144442022101614, 37.191579953155504], [36.14412309171276, 37.18981521600423], [36.14131372331881, 37.18974740781471]]], [[[36.14158239919154, 37.33167736835846], [36.14141181182039, 37.33617560106373], [36.14422662479269, 37.33624363333603], [36.14439704474576, 37.33174538962426], [36.14158239919154, 37.33167736835846]]], [[[36.14524339478878, 37.23489762418999], [36.145158571112454, 37.23714523272156], [36.1479697069124, 37.23721302298195], [36.14805444733988, 37.234965408964925], [36.14524339478878, 37.23489762418999]]], [[[36.142173367324126, 37.24158179912239], [36.141833217227436, 37.25058150690482], [36.14464484396975, 37.250649396879986], [36.144984660564184, 37.241649667105655], [36.142173367324126, 37.24158179912239]]], [[[36.13995388865192, 37.22575884796504], [36.139868936026524, 37.228006449584726], [36.14267971956994, 37.22807435126604], [36.14324628122777, 37.226232711235944], [36.14557929838564, 37.22589156268427], [36.145664075052906, 37.223643949050654], [36.14285344860392, 37.22357612505093], [36.14228690164647, 37.225417764356926], [36.13995388865192, 37.22575884796504]]]]}}