{"type": "Feature", "properties": {"fire_id": "AKD_2021_01", "fire_date": "2021-07-29", "province": "Antalya", "region": "Akdeniz", "modis_area_ha": 57716}, "geometry": {"type": "MultiPolygon", "coordinates": [[[[31.83072219625169, 37.029159961418046], [31.836340245355313, 37.0292468315738], [31.836408943680784, 37.0247436773119], [31.830792679276183, 37.024688467894734], [31.83072219625169, 37.029159961418046]]], [[[31.800953230694137, 37.13477454877859], [31.803764895716, 37.13483459617088], [31.80380031914033, 37.13258464006409], [31.800990179004827, 37.132556246370996], [31.800953230694137, 37.13477454877859]]], [[[31.789181179753456, 36.634410551227816], [31.789145966065632, 36.636660684278056], [31.79193797968523, 36.63668903249295], [31.791973112224756, 36.63443889713212], [31.789181179753456, 36.634410551227816]]], [[[31.76923147905751, 37.181770904454716], [31.774860656833987, 37.18186088785415], [31.77489699786748, 37.179610973692405], [31.769269415741988, 37.17955264633446], [31.76923147905751, 37.181770904454716]]], [[[31.75948595458516, 36.74224178677064], [31.76228317968898, 36.742302554917025], [31.762088634935978, 36.73977330624662], [31.759523591311055, 36.740023372203794], [31.75948595458516, 36.74224178677064]]], [[[31.76259007731631, 36.73807541483123], [31.76515504788604, 36.73782528128256], [31.765191091550154, 36.73557520670924], [31.762395529134317, 36.735546164915256], [31.76259007731631, 36.73807541483123]]], [[[31.75028273182313, 36.79172342117876], [31.752332922206303, 36.79200601325372], [31.75304908324339, 36.79403763050788], [31.75534992832438, 36.794459314048424], [31.75581418034368, 36.79632012447447], [31.758611942684468, 36.796349362010275], [31.7586846123468, 36.791846159409474], [31.756095137040166, 36.79110281370195], [31.75595601690377, 36.78731057676701], [31.753158586034004, 36.78728128289741], [31.75263428282964, 36.789131739292785], [31.75032069938364, 36.789505033040385], [31.75028273182313, 36.79172342117876]]], [[[31.751730172434726, 36.87511882306626], [31.75453222238106, 36.87517986302239], [31.75456875791784, 36.87292984958269], [31.751768209546473, 36.87290046490155], [31.751730172434726, 36.87511882306626]]], [[[31.72099367525974, 36.868031472921295], [31.723795420574, 36.86809323241307], [31.723832847992057, 36.86584324292323], [31.721032591479492, 36.865813138924395], [31.72099367525974, 36.868031472921295]]], [[[31.718913245332264, 36.65617662405027], [31.72170729467074, 36.65623828587017], [31.721744495768185, 36.653988217927534], [31.718951932258047, 36.653958212632695], [31.718913245332264, 36.65617662405027]]], [[[31.715667440852005, 36.683184493776885], [31.718462461534983, 36.68324625048132], [31.718499793711178, 36.68099619561898], [31.715706257791627, 36.680966095328266], [31.715667440852005, 36.683184493776885]]], [[[31.271162925178004, 36.91645382189145], [31.27111213211202, 36.918703324664484], [31.2732933017368, 36.91904350440518], [31.273866826267042, 36.92099674606112], [31.27661359018281, 36.92212643927797], [31.27640897250264, 36.931213724346264], [31.273612739310252, 36.93226290209195], [31.273560767243694, 36.93448074825862], [31.276271977007383, 36.935512867763876], [31.276215805356397, 36.94131099310608], [31.281824573357245, 36.94139228996439], [31.28265847527795, 36.939018203612996], [31.28748765969311, 36.939220757167334], [31.288148688741018, 36.93728538646478], [31.2920129502594, 36.93644411715155], [31.295205151778987, 36.93730787293228], [31.295910317573586, 36.939341937786374], [31.298417495491094, 36.93998032242432], [31.29861639648549, 36.94388744706723], [31.3011237467673, 36.94452577843944], [31.30132278888003, 36.94843289949383], [31.303625429512138, 36.948863371369576], [31.304079452031363, 36.95072565917551], [31.30968899171205, 36.95080565750418], [31.30979877656352, 36.94739031708596], [31.3111452976439, 36.94634720952095], [31.317168338194293, 36.94650966926997], [31.318162560619562, 36.948672642561014], [31.329345875741314, 36.94883209016198], [31.33063027461281, 36.94665501451782], [31.339143753796165, 36.94672270516984], [31.340615897627526, 36.94898858754862], [31.343027659694844, 36.949518132208105], [31.343373793746753, 36.951280464240384], [31.345785648752805, 36.95180995492523], [31.34613185503678, 36.953572280088984], [31.350439066753808, 36.95303043604372], [31.354253749852496, 36.95428757782279], [31.354270054834267, 36.95747897357683], [31.351648406213343, 36.958158836615475], [31.350854306525157, 36.96017175980239], [31.348792715773474, 36.96037251263104], [31.34799851637481, 36.962385413568704], [31.337515379231046, 36.96246749357159], [31.33741737325103, 36.96697070504603], [31.339829673315478, 36.96750032667729], [31.340844628892306, 36.97073173393846], [31.339591175423926, 36.9733667540235], [31.33727027646849, 36.97373181435378], [31.33694852055234, 36.975378230640914], [31.334413583374843, 36.97594511404348], [31.33375334329741, 36.977880751314416], [31.331556724912225, 36.97815834005268], [31.331458393469617, 36.982660546252916], [31.333871138870947, 36.98319029896115], [31.334168052715548, 36.987205304361346], [31.3368277465433, 36.98807877815123], [31.33682896226009, 36.99400266342834], [31.33957929635276, 36.995130975041896], [31.3394903247168, 37.000799967075174], [31.34179477676398, 37.00122973927933], [31.34228939617492, 37.00309400072746], [31.345054804781547, 37.003131047057146], [31.346300270274902, 37.00095483619366], [31.350220630340946, 37.00134718209144], [31.35062738108487, 37.00546198122674], [31.35334092816803, 37.00646076337365], [31.35333895610511, 37.01000633275616], [31.355999670482266, 37.01087939843309], [31.356050846219894, 37.01455062686891], [31.358104021070233, 37.014808465323455], [31.35881151294292, 37.01684218995615], [31.36140438284452, 37.01759425711144], [31.36152396144492, 37.02138636781013], [31.363829171418477, 37.02181572876199], [31.364285037109955, 37.023677811009236], [31.369755863339748, 37.02458928345395], [31.369621933419314, 37.02754484069418], [31.366997977727912, 37.0282249799106], [31.366740877487278, 37.034145296728866], [31.36404335769314, 37.03494429505085], [31.363945482289385, 37.039414878908524], [31.366000615719962, 37.03970424961242], [31.366708525960295, 37.041737929675755], [31.369370498565257, 37.04261072156869], [31.369325877424682, 37.050787289259496], [31.37775344567274, 37.05090285604829], [31.37828877194464, 37.049054384678286], [31.38061181113614, 37.04868857706388], [31.379953935462904, 37.04509995466989], [31.380957412254123, 37.04229037412822], [31.38250830049726, 37.04161033332761], [31.38814477973907, 37.042135624692236], [31.389142180057878, 37.04429804869012], [31.391736297826014, 37.04504947901334], [31.39263329231406, 37.047662997534665], [31.39171473975816, 37.05559967184775], [31.39733223774397, 37.055675713511], [31.397447253158553, 37.05190828160218], [31.398842684604002, 37.050863232433635], [31.407473029857783, 37.051365389507474], [31.408625981786635, 37.05357444028694], [31.41143273815628, 37.053612066249656], [31.412838414059983, 37.051405069291846], [31.422721957318164, 37.051509381449044], [31.423427270141417, 37.04732050002105], [31.428436034408065, 37.04707852203258], [31.429679916601028, 37.04490141183765], [31.434103166925127, 37.044900115527106], [31.434423184403453, 37.043253411652564], [31.436959712693223, 37.0426844325287], [31.43761797682864, 37.040748192591124], [31.44122816891523, 37.04016104342755], [31.442584134913, 37.0427584116568], [31.44509602029036, 37.043393795496634], [31.44534846680644, 37.04504803481291], [31.45067084749224, 37.04572010385468], [31.45087762852318, 37.049627096735186], [31.45403846244607, 37.05066548064983], [31.453596738383293, 37.054169299731285], [31.467646491295437, 37.05435164885369], [31.467772337048935, 37.05026055805573], [31.47271950212369, 37.04985607415114], [31.47322671201589, 37.05667697676392], [31.475642870326826, 37.05720391633685], [31.476708841405856, 37.05990707199953], [31.475857252793595, 37.06572426570568], [31.478664546472466, 37.06576031108836], [31.479197557173055, 37.0639113349055], [31.481520637824396, 37.0635435504746], [31.482222864376688, 37.05935425657841], [31.49004326440364, 37.05914562936775], [31.49057594872708, 37.05729659280632], [31.492898779328602, 37.05692857930533], [31.492943280608166, 37.05467888237876], [31.49063626645327, 37.05425199413184], [31.490177140179235, 37.052390332131615], [31.48288969842597, 37.05288582052691], [31.481015379626047, 37.05120909944326], [31.48220974195848, 37.048274660066475], [31.4846454192249, 37.04780993912963], [31.485437017068808, 37.04579608879781], [31.487500650307204, 37.04559300893856], [31.48796490025365, 37.041588043676626], [31.49040033140905, 37.04112319844845], [31.491191702889058, 37.03910930253915], [31.493255142601054, 37.03890611792372], [31.493299604311932, 37.03665641377967], [31.490583049647952, 37.03566077187107], [31.490765588489793, 37.03283057851249], [31.496198653357613, 37.032183332184594], [31.496730978092007, 37.0303342522964], [31.499052956936158, 37.02996609761977], [31.49947215554178, 37.02821388349326], [31.50190709465153, 37.027748789866294], [31.50222556881421, 37.02610186390603], [31.504761066521024, 37.02553140894053], [31.505417458399975, 37.02359474534281], [31.507614872561913, 37.02331395485885], [31.508347538436333, 37.01876211821828], [31.513321987227044, 37.01887882729322], [31.51345360730517, 37.012123412136106], [31.51073763629747, 37.01112824136331], [31.510413334903024, 37.00207941413382], [31.51130606960486, 37.00099448261483], [31.513673037952515, 37.00085608180923], [31.51381654981797, 36.99731220188074], [31.516569416552528, 36.996385527277404], [31.516613123028208, 36.99413578302272], [31.51380841524408, 36.99410069353478], [31.51272436306596, 36.99623603915433], [31.509342486917443, 36.99623830824462], [31.508198981477754, 36.99519388949779], [31.508231401936893, 36.99177732552564], [31.503008589662922, 36.99121569427622], [31.501929184241003, 36.988380276625115], [31.503109386554353, 36.9810451747398], [31.508451440893065, 36.98050998326361], [31.508983067028147, 36.97866081820227], [31.511303414738197, 36.978292384408164], [31.511665325268737, 36.9743925565113], [31.514199028921368, 36.973821855377736], [31.51451697399184, 36.97217487107449], [31.517050584324892, 36.971604106754235], [31.518290665745468, 36.96942595672708], [31.52151484299764, 36.96946615680022], [31.522658161858274, 36.97051044713342], [31.5225123542283, 36.97309253594971], [31.51981852119058, 36.97389516955431], [31.519774941136596, 36.97614492476056], [31.525386931871758, 36.97621477485896], [31.52631978017557, 36.97413415306825], [31.531046124796013, 36.97403153352216], [31.53217260353909, 36.96964311761307], [31.542363561460483, 36.969664217787376], [31.543654603105804, 36.967129580631074], [31.55644475985301, 36.96758286664991], [31.55737665739113, 36.965501977242056], [31.562102467452267, 36.96539810835893], [31.56222952313839, 36.958642485001505], [31.55162381345524, 36.9582051166371], [31.5510855909955, 36.954000160398], [31.54837114106944, 36.95300587576242], [31.54836396658079, 36.94946006869834], [31.54561200122936, 36.948336555490044], [31.544958704840596, 36.941460910504404], [31.545885421287544, 36.93899570514721], [31.551386866064647, 36.93819510781642], [31.551426922522097, 36.93597691240237], [31.549375088144583, 36.935722448196636], [31.548663159910806, 36.93368973678129], [31.54607112273634, 36.93294177341831], [31.545956011383, 36.930236491015194], [31.548748659886368, 36.92918081184229], [31.54889029998234, 36.925636809723606], [31.551640159416785, 36.92470924545579], [31.551682722022502, 36.922459438651494], [31.543268621641676, 36.92235653244687], [31.542186468277055, 36.92449221233864], [31.53778264196378, 36.92422115942686], [31.537695823246757, 36.920034616466125], [31.535644468153787, 36.91977992465293], [31.534933041309532, 36.917747136837775], [31.532220083740395, 36.916752509755945], [31.53198406014098, 36.90891102393061], [31.533802019036155, 36.90811455215779], [31.537160408423908, 36.90898716470132], [31.537871821367897, 36.911019941591185], [31.540380277729838, 36.91165324397088], [31.540634457505835, 36.913307351969706], [31.546241893659648, 36.913376116557686], [31.547173356309813, 36.91129528050696], [31.55189581673336, 36.911191744734836], [31.5530200596373, 36.90680303994613], [31.560397279430827, 36.90678820306151], [31.561328275066366, 36.90470724370796], [31.568855692175905, 36.904636967858956], [31.569385278589447, 36.90278746652782], [31.57271143974647, 36.90186642456013], [31.57671905568898, 36.90258693370338], [31.577719734711472, 36.903754216300314], [31.57695935200834, 36.90638842644999], [31.571622865893172, 36.906926829101806], [31.5715809128133, 36.909176661515836], [31.573884081105472, 36.90960190166384], [31.57434451734039, 36.911463308584], [31.579201438206642, 36.911750923494616], [31.579913998790108, 36.91378347205672], [31.584630654452656, 36.914000975133035], [31.585483824049323, 36.91610338060542], [31.58789642147079, 36.91662796785727], [31.588165014136575, 36.92289561889827], [31.590916734194813, 36.92401814426903], [31.590846662319713, 36.9296877991473], [31.599261742971606, 36.92978735208411], [31.59950021474442, 36.9238660338086], [31.602191491770412, 36.92306153048584], [31.602461407257397, 36.919274071277826], [31.6050796689139, 36.91858858759744], [31.606533121693364, 36.91602598755195], [31.623688894911673, 36.91629740853995], [31.624684628815547, 36.921070675885176], [31.626988480860497, 36.92149489880713], [31.62745027704194, 36.923356124445], [31.63867092975545, 36.92348526763333], [31.640396531753037, 36.92125312972968], [31.646089929006063, 36.921421088402944], [31.647093240109047, 36.92358150688688], [31.65831401709836, 36.92370879527802], [31.659242596230808, 36.92162702393862], [31.66396568380273, 36.921519041421874], [31.664177478393356, 36.91134394507212], [31.66696788696218, 36.9102854350804], [31.667619114842637, 36.908347733888], [31.68103518131468, 36.90818899599576], [31.68156210181114, 36.906338941494425], [31.683879520242172, 36.90596706898246], [31.684445041732893, 36.90186395087517], [31.68956770340353, 36.90152299843782], [31.68970274011629, 36.897978680427784], [31.69244999182624, 36.89704779722636], [31.69313887473799, 36.892856877288345], [31.69813701247209, 36.89260328706123], [31.69937064852007, 36.89042308856915], [31.703785276402694, 36.89041155981544], [31.70486245839732, 36.888274296101265], [31.709433223474985, 36.88821955694846], [31.709697668648403, 36.88443172560983], [31.71231384267529, 36.883743831743885], [31.71254333069542, 36.877822067193605], [31.71523186677837, 36.87701494125513], [31.715269557504993, 36.87476496268751], [31.712857318061836, 36.874242967851366], [31.711771592475543, 36.871409281730486], [31.712954148093402, 36.86847220142166], [31.71538281275647, 36.868002589756294], [31.715420486727336, 36.86575260763615], [31.704719852940006, 36.86560152908503], [31.703549036787486, 36.860052381324046], [31.70435624229101, 36.856618505091234], [31.70194465062321, 36.856096299684424], [31.701181945698465, 36.85333801410532], [31.702713219403723, 36.852098826046145], [31.712843188423616, 36.85220061118998], [31.713368920382468, 36.85035037623216], [31.715684503431778, 36.849977844072775], [31.715759832204267, 36.84547475674908], [31.712960327466536, 36.84544447682129], [31.71188400601546, 36.84758184501052], [31.705816101949342, 36.84822221312085], [31.69965485879068, 36.84732373801717], [31.698939664642005, 36.845291834680395], [31.696431947706937, 36.84466189088463], [31.696174577710888, 36.843008034784525], [31.693375184600786, 36.84297729541012], [31.692298359908577, 36.845114477081886], [31.688768347852555, 36.84507558814603], [31.687471542637216, 36.84152403120257], [31.6906065346189, 36.84069021952224], [31.69139044067479, 36.8386747748128], [31.69344804125795, 36.83846798409999], [31.693486317329977, 36.83621801031095], [31.685699390520586, 36.835823703455844], [31.685154440641476, 36.83161913978414], [31.68285291542274, 36.8311960860373], [31.68239025335369, 36.829335031888846], [31.67398589565195, 36.82924158568708], [31.67371996362938, 36.83302934074649], [31.67110521222584, 36.833716418063716], [31.67125808063754, 36.846241901235814], [31.66995397837433, 36.84719584579717], [31.666457354472424, 36.84712556417821], [31.665313818109915, 36.84608263479288], [31.665338953561275, 36.84266579988514], [31.663037220194127, 36.84224235873883], [31.66257498249609, 36.84038123912594], [31.657470226161195, 36.8399261198008], [31.657047533442153, 36.83581193215419], [31.651943120218455, 36.83535658189107], [31.651520741695016, 36.831242378018274], [31.64921943333076, 36.83081867695431], [31.648757592263337, 36.82895750830382], [31.64035339158292, 36.82886168570266], [31.640233803033624, 36.835617682496924], [31.645084294043354, 36.83573538229005], [31.646243022799236, 36.8370860803687], [31.645445663126246, 36.84183829980368], [31.642917242012903, 36.842411924259586], [31.64213203228785, 36.84442702144941], [31.640074161175114, 36.84463291748642], [31.6394228335541, 36.84657048479238], [31.6372309159437, 36.8468538385197], [31.63719097667272, 36.84910375666347], [31.639849610825276, 36.84997043332813], [31.640229928238902, 36.85343149614652], [31.63808836971055, 36.85418640784035], [31.63480516522427, 36.85318887886414], [31.634343557971203, 36.85132766542619], [31.631543932231022, 36.85129546394043], [31.6312290798927, 36.85294285706825], [31.628700193715286, 36.85351616829533], [31.627914490831703, 36.855531157858316], [31.620249007226537, 36.85567183533016], [31.6200058059401, 36.85756536443948], [31.61862940034959, 36.858248444651004], [31.614893515360926, 36.85726055479908], [31.6146785400984, 36.85335355855017], [31.611878863648858, 36.8533208924069], [31.61135067656052, 36.85517062679543], [31.609034494305547, 36.855541111994974], [31.608830331915783, 36.86680297524745], [31.61148923221136, 36.86767029004462], [31.611534534496084, 36.872244484487226], [31.60870768981863, 36.87356505500671], [31.60937514270385, 36.87715270842703], [31.607696567131338, 36.88015240475891], [31.601475063969122, 36.88084233941434], [31.59720930697701, 36.87956363789952], [31.59805707339113, 36.87599869081564], [31.603054296769823, 36.8757490840759], [31.60309527590097, 36.873499208417286], [31.600793005275612, 36.87307455161326], [31.60033212341282, 36.87121322685823], [31.597531812477847, 36.87118020920023], [31.597115828340677, 36.872932880578965], [31.594686359977594, 36.87340005615493], [31.594370613143212, 36.87504732712808], [31.59184074286281, 36.87561983067251], [31.59076063200227, 36.87775601227894], [31.5876593655966, 36.87842570285734], [31.581620470104426, 36.8776472556905], [31.58061958238567, 36.87548631941034], [31.576208162877382, 36.87537376720017], [31.575043683239816, 36.87419847957742], [31.57536903170018, 36.871515914201105], [31.57789887697856, 36.870943760767716], [31.578379833999303, 36.866576500948305], [31.58359037579455, 36.866504813521026], [31.58371508481698, 36.85974901417732], [31.58105679055043, 36.858881089204495], [31.581036316206614, 36.85295666062165], [31.578446642947128, 36.85220944555616], [31.57800076992942, 36.848627478089206], [31.57965147406246, 36.84782803374031], [31.585807790596768, 36.8483035993672], [31.586647232107676, 36.85302040937315], [31.591057395420126, 36.85313254745883], [31.592212918276033, 36.85533993617539], [31.595012644876498, 36.855373067031465], [31.59594203985814, 36.853291785784656], [31.600660923463984, 36.85318623320785], [31.601271455094214, 36.84683056802494], [31.606390689049316, 36.84649313043555], [31.606570273493084, 36.84069595301718], [31.609316399619214, 36.83976696178582], [31.609697972400724, 36.83771031153378], [31.606645966460224, 36.83652416563141], [31.607288009366723, 36.831037753081986], [31.611989927121385, 36.831386744736484], [31.612972330346572, 36.83424646531441], [31.611823192015418, 36.83735352438611], [31.614465309639932, 36.83797118051466], [31.614926362536274, 36.83983246356162], [31.623331674236724, 36.83993010811438], [31.623859457673788, 36.83808030769961], [31.626175048127294, 36.837709520097924], [31.62696059896118, 36.8356945333314], [31.629018257684184, 36.83548885985215], [31.62917903281519, 36.82647986832259], [31.623577742984853, 36.82641514864577], [31.622182408364793, 36.82862493886501], [31.61842981675119, 36.82821134863373], [31.61800926414391, 36.8240970588066], [31.615260663210073, 36.822975209119356], [31.615328578195005, 36.81730540119147], [31.61291887520575, 36.816781423843864], [31.61260768660121, 36.812766702034416], [31.60985956847569, 36.81164473549459], [31.6101615320582, 36.808830508868816], [31.612689062258458, 36.808257560135885], [31.612495726789, 36.80171196843875], [31.614145063822182, 36.80091201021431], [31.62121598557678, 36.801596254734754], [31.621256323266987, 36.79934633362919], [31.61850854586657, 36.79822457191472], [31.618616598114112, 36.79030170380107], [31.61631670977699, 36.78987739211285], [31.615855883603118, 36.78801610479235], [31.60274338919857, 36.78770156463166], [31.601931989941303, 36.783346242441596], [31.599632410827205, 36.782921613884994], [31.599172026596136, 36.781060269179676], [31.596667272989123, 36.780428274826846], [31.596412227118556, 36.77877423447841], [31.589205517293944, 36.7786291954765], [31.588051162282344, 36.77642177619537], [31.58364540341784, 36.77630961906379], [31.582491242269935, 36.774102149129156], [31.57751199745316, 36.77373423911725], [31.577056585955003, 36.76502327291203], [31.575009198440007, 36.76476934050382], [31.574298019499565, 36.76273674543539], [31.57171142518092, 36.7619894392913], [31.57162318397014, 36.75594416252169], [31.566027164643852, 36.755876841822], [31.56463154520289, 36.75808597414593], [31.557583967131713, 36.758028314429396], [31.557927292497947, 36.761409812114536], [31.55658460945399, 36.76249446011429], [31.552813859597865, 36.762448646601015], [31.55154621184616, 36.76146468870434], [31.552355338869987, 36.75845753583479], [31.555128822837588, 36.75780610469714], [31.554823595061187, 36.75574127046364], [31.552027542245085, 36.755707271629355], [31.551711452504524, 36.75735445163564], [31.549185196030077, 36.757926135446446], [31.54825578634313, 36.760007081134354], [31.543783016254554, 36.75983685035707], [31.543500071362843, 36.76236053828047], [31.546684254041946, 36.76352908539847], [31.54639246155938, 36.77066853781652], [31.540769501910255, 36.7710673604961], [31.5392929931827, 36.77351971733884], [31.532084720957755, 36.77349075129334], [31.531701456812453, 36.77554713558304], [31.534449635593575, 36.77626617484862], [31.535183531382987, 36.77915980121321], [31.530884373741696, 36.78058049012517], [31.529200902356582, 36.77947782155747], [31.529577631520002, 36.77590252329891], [31.524529331004416, 36.775489540563974], [31.52367927604799, 36.773386720226696], [31.51031708981038, 36.773274395862686], [31.50899279647006, 36.769885742145895], [31.50980756756983, 36.7664533050638], [31.501410701188377, 36.76634781466683], [31.500173626199764, 36.76852592348428], [31.490937832306248, 36.76860169633049], [31.490780549784372, 36.762100932245275], [31.501494586916237, 36.76183880988909], [31.502024682713856, 36.759989579837836], [31.504338416113136, 36.7596211212994], [31.504382105741993, 36.75737129975032], [31.48758657639214, 36.75715895657595], [31.487056157994537, 36.75900811565745], [31.484742372282536, 36.759376236556385], [31.48460943591431, 36.76613185070258], [31.486787387075005, 36.76646804002762], [31.487595130707394, 36.76870008949498], [31.489718600755648, 36.76861837756864], [31.490549027614136, 36.76999572941198], [31.488954298177543, 36.771286095756295], [31.487087443502112, 36.770396675679486], [31.48172031748166, 36.77060505607614], [31.481675944677654, 36.77285484913551], [31.484383191150556, 36.77385052366247], [31.484387674836334, 36.777396369135666], [31.48998505268078, 36.777467564687036], [31.48964589158627, 36.774085912842985], [31.49082583329423, 36.773033611241566], [31.498234255978193, 36.77334183492212], [31.499005106288962, 36.77121889416877], [31.502488852086014, 36.77027600214577], [31.504848067190377, 36.77209214274813], [31.50329156797313, 36.775155972816826], [31.4986753077842, 36.77505044661404], [31.498247293502434, 36.781121075517646], [31.495502032301413, 36.78204752670135], [31.495369930885683, 36.788803148585096], [31.49741764483622, 36.78905845958199], [31.49812699635093, 36.791091465603415], [31.500535037904665, 36.79161773655438], [31.500726677557147, 36.79479809426825], [31.499322446267996, 36.79560853183505], [31.49243637537121, 36.79552949714786], [31.4926111289354, 36.799294202900285], [31.489546601864312, 36.799999748791954], [31.48936966466233, 36.8090092081862], [31.4944577218363, 36.8091076910233], [31.494611433947235, 36.81298227704147], [31.490511213522428, 36.813829819094984], [31.489091551255953, 36.810984492113576], [31.486523438227206, 36.811228595792954], [31.486840427277603, 36.81672875676934], [31.48547356001044, 36.817946916778766], [31.48167613046001, 36.81776594710773], [31.48082683135778, 36.815662850901994], [31.472424705480368, 36.81555519234196], [31.471994809494845, 36.81986420175075], [31.473059745496297, 36.821264354821615], [31.47171505511473, 36.82257612325472], [31.469786430965193, 36.822039943140915], [31.46953034438221, 36.820024912991464], [31.463928703557027, 36.81995261986353], [31.463883730341745, 36.82220237554129], [31.467069074266814, 36.82337307248705], [31.466735939465334, 36.83152973682688], [31.4766742975132, 36.83148522082388], [31.477682122320726, 36.83261475325229], [31.47714038695213, 36.83549915123118], [31.47348856343437, 36.836451908224944], [31.467768244771214, 36.83574874148783], [31.466227330613513, 36.83322619641043], [31.461474827212253, 36.833133085391424], [31.46089706419466, 36.83118062421992], [31.458188148071628, 36.830184384403914], [31.45823016657363, 36.824385740677144], [31.455128448043904, 36.823477109232726], [31.455518444639818, 36.81984365612395], [31.45272018882665, 36.81980726983208], [31.453229646500127, 36.82377059006952], [31.450225676234894, 36.82414775278179], [31.450209107380655, 36.82221725762552], [31.447364023797494, 36.821388427384804], [31.447157619204482, 36.817481301878736], [31.44474917804127, 36.8169539415755], [31.443990666423, 36.81432968385587], [31.444887483046514, 36.81310971077175], [31.44724871248526, 36.812972498622344], [31.447394633052532, 36.80942865314465], [31.450141423446706, 36.808503353095176], [31.45018677632772, 36.80625360679908], [31.445779692424704, 36.80613630716038], [31.444629118286457, 36.80392759048376], [31.44183145611895, 36.803890961452566], [31.44174020124167, 36.808393544722456], [31.44439508344837, 36.80926451669452], [31.4441582196198, 36.8126935400786], [31.433243266288688, 36.81279186915424], [31.43315147888927, 36.81729442720998], [31.435897070931993, 36.818420423162735], [31.435770047926738, 36.82634265522074], [31.438921558959056, 36.827381259645975], [31.438294813687303, 36.830169570849755], [31.431425329549704, 36.83076784620753], [31.43011542468887, 36.82852465560002], [31.427316886638216, 36.828487664096485], [31.427402635207237, 36.83236904880056], [31.42442207309286, 36.83295619043045], [31.42388955648813, 36.83480499679519], [31.421573218090096, 36.83517182285184], [31.421526979542346, 36.83742152742022], [31.424325835249963, 36.83745866286734], [31.425566211022613, 36.83528144429325], [31.429587443047712, 36.83577074204953], [31.42988913928991, 36.83978669112196], [31.43238645697473, 36.84005780088419], [31.43304074138066, 36.841495421152395], [31.431477222081675, 36.842652124971835], [31.42704007306071, 36.84200457608871], [31.426993983184033, 36.84425428398746], [31.431294560041465, 36.84370933776678], [31.434508712937163, 36.84451470535028], [31.43525627251484, 36.84791218052721], [31.433955897945236, 36.84882864853424], [31.42970474007666, 36.8488000895768], [31.428620571077442, 36.850934711185886], [31.423704035151363, 36.85116332968002], [31.423846888632756, 36.85464661588455], [31.421156310967515, 36.85544709969976], [31.42091629205393, 36.863496459839645], [31.418167181895193, 36.86442102114466], [31.41741715521631, 36.870862823713544], [31.4103665029515, 36.87084774672995], [31.409705537609874, 36.866561493508094], [31.405403549259233, 36.867105622019224], [31.39631018671208, 36.866073009893505], [31.395780980651505, 36.8618675022446], [31.393480350402506, 36.86143886245284], [31.39234034907476, 36.85876602347768], [31.393166100963555, 36.852818529341384], [31.39036672784289, 36.85278064690521], [31.39011788279045, 36.85467357369099], [31.388570907517835, 36.855353827392946], [31.383102599534432, 36.85487567377623], [31.381953172558617, 36.85266639367245], [31.379153820467867, 36.85262824731632], [31.37873299110831, 36.85438004392198], [31.376302948024648, 36.854842737952914], [31.375982623701244, 36.85648932436673], [31.37345191118388, 36.85705715536877], [31.372366071222753, 36.859191220000554], [31.368687903417882, 36.859084055026926], [31.36784131458351, 36.85698022924601], [31.3622384733537, 36.85690314502917], [31.361397692847245, 36.86116894119998], [31.357728450462922, 36.86128792951751], [31.35657967448183, 36.85907842183594], [31.353780123985587, 36.859039672219346], [31.353310330038518, 36.863044088695304], [31.348828225310093, 36.8634154487167], [31.347690913158118, 36.86233239651377], [31.347443389521946, 36.85788745038804], [31.34831489641034, 36.852203643994066], [31.346014854194337, 36.85177409809204], [31.345560299146406, 36.849911930094166], [31.342761098474632, 36.84987292921714], [31.342615230342524, 36.85662797546405], [31.345651157584115, 36.8574146901773], [31.34604427099433, 36.86237972745863], [31.34499043306878, 36.86721491163611], [31.34237182966215, 36.8678946542215], [31.34128497084638, 36.87002840577585], [31.335142160273698, 36.87034402850654], [31.333956819689508, 36.8677769629305], [31.331156983912702, 36.86773767260005], [31.33133749566501, 36.870267244469375], [31.334210025423616, 36.87089913596787], [31.33331363377546, 36.87268650182755], [31.321073910044348, 36.872399458603965], [31.319889016800243, 36.86983226455468], [31.31718070936097, 36.86883282784993], [31.317295812036825, 36.866121878482545], [31.319987761450804, 36.86532378446801], [31.320038264569895, 36.86310585804822], [31.317736837377335, 36.86264410736513], [31.317282918793264, 36.860781850112545], [31.314483362129906, 36.860742173420135], [31.313186754702677, 36.863274221087195], [31.30602338823206, 36.862875254984075], [31.30597371575959, 36.86512481908944], [31.30868173805204, 36.866124504874676], [31.308677953073328, 36.86967010206047], [31.31366168686387, 36.87004938871915], [31.31423593084591, 36.872002467653815], [31.316823473705263, 36.87275539244291], [31.31696098727047, 36.87554383110273], [31.31569349086324, 36.87683006930538], [31.311332830194598, 36.876471109108614], [31.310195342261462, 36.88085721926389], [31.306664304604528, 36.88080694390111], [31.305671216469552, 36.878643881170724], [31.302910426594853, 36.87860292314557], [31.302335240600122, 36.88045208087922], [31.30001702621651, 36.8808164851259], [31.29991718971632, 36.88531869218269], [31.30512288266212, 36.88552697642854], [31.30615193390178, 36.890978753036045], [31.304975732489066, 36.90081056704987], [31.299567276910068, 36.90109037129101], [31.299467340490093, 36.905592561903596], [31.30187742945863, 36.906122904440146], [31.30217251977602, 36.91013798988412], [31.304940676582234, 36.911398580122764], [31.304768043215944, 36.91810181795007], [31.30197265861192, 36.91915168799014], [31.30149967322447, 36.92315578279345], [31.297034687020275, 36.92372050264125], [31.29635772067414, 36.91907127280578], [31.294056016422058, 36.91864068177156], [31.293602398916782, 36.91677835705728], [31.289034901078626, 36.916608172426876], [31.28804189247867, 36.914444975620604], [31.283055448422463, 36.91406454574605], [31.282481732537768, 36.91211134159791], [31.277766512558966, 36.91188186207386], [31.276921919105245, 36.90977745505599], [31.274120631969193, 36.90973678175964], [31.27391556692755, 36.91553276349343], [31.271162925178004, 36.91645382189145]], [[31.706795960926787, 36.87463606848569], [31.706471901797418, 36.87273255540546], [31.70906112933415, 36.872386796378095], [31.709266827957965, 36.874566001635245], [31.706795960926787, 36.87463606848569]], [[31.701238839557963, 36.87460240351416], [31.7015822930342, 36.87259872543945], [31.70424850080043, 36.873015322513474], [31.703647238739013, 36.874976778544436], [31.701238839557963, 36.87460240351416]], [[31.689885568161177, 36.88501749312532], [31.690305015990827, 36.87509178652191], [31.69283419840364, 36.8745171711097], [31.69376121104567, 36.87243508288213], [31.698093043051134, 36.871986330392026], [31.699216189838186, 36.87339566962987], [31.698018552314387, 36.88298868942251], [31.69548912401412, 36.88356340969158], [31.69456201415228, 36.88564550587842], [31.69107337681226, 36.88606540746272], [31.689885568161177, 36.88501749312532]], [[31.672328239105543, 36.88714103487897], [31.67456717581478, 36.883336817337344], [31.68291330133767, 36.883449097266656], [31.68423924938586, 36.88465737034796], [31.684077161345172, 36.8871083121824], [31.682673076741814, 36.88792090915656], [31.673951477384588, 36.88839424087622], [31.672328239105543, 36.88714103487897]], [[31.652903688223873, 36.91238334351652], [31.65182471138461, 36.91452009172093], [31.64775057135955, 36.91418068518845], [31.64785591607658, 36.90821351974614], [31.655737823802724, 36.90831944075499], [31.655521295741494, 36.91169673296281], [31.652903688223873, 36.91238334351652]], [[31.639028057901957, 36.89597180161836], [31.6337544353319, 36.89567411482118], [31.63373653047056, 36.89271635027783], [31.638636913600916, 36.89204532595835], [31.639638420101672, 36.893212105494385], [31.639028057901957, 36.89597180161836]], [[31.587283603472716, 36.81832600666859], [31.58834446328534, 36.81708943986777], [31.59199274658974, 36.816828339126836], [31.592644874949848, 36.820829747516186], [31.58811735006967, 36.82133113169989], [31.587283603472716, 36.81832600666859]], [[31.572058689696014, 36.85695849595789], [31.567236811512796, 36.85705636388448], [31.56707540076746, 36.85374719493866], [31.57164899471436, 36.852278819522915], [31.573302184457553, 36.85432075303405], [31.572058689696014, 36.85695849595789]], [[31.54820400441477, 36.80974427536774], [31.545494634075514, 36.80875001356527], [31.545559605390633, 36.80191606231936], [31.54661029032842, 36.80081227228717], [31.54966137180459, 36.80075311421749], [31.551124865765285, 36.80185275212084], [31.551052267165993, 36.8075224355832], [31.556263039780944, 36.80808170568983], [31.556571269297017, 36.81209651418445], [31.559280907943954, 36.81309052867269], [31.559014740743862, 36.816033751084035], [31.55443404998561, 36.81635118389169], [31.553722987658123, 36.81431848432954], [31.551217565335147, 36.81368552053743], [31.55096341398425, 36.81203141051099], [31.54855435769547, 36.81150614105313], [31.54820400441477, 36.80974427536774]], [[31.513928399177985, 36.843119585461345], [31.514433256957645, 36.83686141711709], [31.516861993820058, 36.83639586487051], [31.51809976124888, 36.834217620344354], [31.524120991601485, 36.83429253207961], [31.525274302366174, 36.83650052995983], [31.527931157028537, 36.8373696751009], [31.527891579230975, 36.84233531114954], [31.526592372300815, 36.84325282071283], [31.522784960355473, 36.84306502154076], [31.522424211932226, 36.83872170119219], [31.519625181972557, 36.83868687412742], [31.519451483687323, 36.84769541720405], [31.522250841776742, 36.847730255611204], [31.523488652064604, 36.845551959643174], [31.527900506438375, 36.84554691068871], [31.52913812108534, 36.84336855076606], [31.53776100802457, 36.84308895984957], [31.539110198542783, 36.84416949957123], [31.539031282955932, 36.8501911652795], [31.541332489094362, 36.8506169980687], [31.541791824862074, 36.85247852418029], [31.544591385390135, 36.85251284031039], [31.545245144926692, 36.850575847357746], [31.548938195158335, 36.84971073806295], [31.554957309712147, 36.85054707312403], [31.556494957185368, 36.853459603408425], [31.55534972678304, 36.856658244836375], [31.552918021197694, 36.85715617979324], [31.552878125803744, 36.85937440609104], [31.55606643167978, 36.86054277431725], [31.55539784922875, 36.86758578553877], [31.552708083516077, 36.86838926726483], [31.551920236064507, 36.87040370322146], [31.54986147576859, 36.87060801587999], [31.54920764411219, 36.87254502671967], [31.54701470344209, 36.87282669189452], [31.546360779594842, 36.87476368438404], [31.544167766519408, 36.875045295292104], [31.54351375046576, 36.87698226942422], [31.539406898114752, 36.87707911152173], [31.538555402267143, 36.87497639861517], [31.53604815235583, 36.87434308056665], [31.53579417253604, 36.872688957240875], [31.533383340458887, 36.87216334586303], [31.533033107396722, 36.87040145445946], [31.530232908726365, 36.870366851815916], [31.53004681811769, 36.87828848643704], [31.52725580564902, 36.879343769748424], [31.527532559011952, 36.88709673699196], [31.526165028996232, 36.88831533760623], [31.518880774111526, 36.88789630334381], [31.518795273398602, 36.88149203898795], [31.516083805422213, 36.88049707051074], [31.515567059534508, 36.87298187232508], [31.517501266116874, 36.87185699332175], [31.524577646062586, 36.872547104018665], [31.52482155663286, 36.86662600254987], [31.527511530464018, 36.865823157007505], [31.529073943708685, 36.86359712308451], [31.53504766451266, 36.86346296700625], [31.535927104278702, 36.865927139184976], [31.53858509531283, 36.86679606705199], [31.538645182344005, 36.87046749687299], [31.54424948088773, 36.87053628736832], [31.544420412189, 36.86152767878545], [31.53360784625875, 36.861260842411234], [31.533420689510347, 36.850125173530444], [31.527817908334946, 36.85005590514022], [31.52728773288487, 36.85190522307465], [31.524971299405813, 36.85227406319654], [31.524567541839794, 36.85842694953396], [31.519984218425737, 36.85874299326371], [31.5193171871942, 36.85445720540996], [31.514632517286877, 36.854598630221695], [31.513753884192738, 36.85213431398736], [31.5110435100544, 36.85113925032934], [31.51118107279932, 36.844046343891584], [31.513928399177985, 36.843119585461345]], [[31.54903521491495, 36.76246502849386], [31.55149864353017, 36.76259211235913], [31.551215731867927, 36.764765635067384], [31.54864072291781, 36.76435710979243], [31.54903521491495, 36.76246502849386]], [[31.534735549504088, 36.78128795560107], [31.53616293856682, 36.779972135523515], [31.539605094597203, 36.78057008750338], [31.539998970780964, 36.78425310913042], [31.535420123896394, 36.78456985085316], [31.534735549504088, 36.78128795560107]], [[31.521809423783317, 36.789434906030586], [31.520958089210286, 36.784856322706325], [31.52507223290105, 36.78472805808627], [31.526125768097952, 36.788230254470804], [31.521809423783317, 36.789434906030586]], [[31.51800475118704, 36.791943303660794], [31.52324828119997, 36.79201248682984], [31.523229334813163, 36.795178148030324], [31.52200547739778, 36.79619775979116], [31.517737107889268, 36.79488641034346], [31.51800475118704, 36.791943303660794]], [[31.507686725489368, 37.01652082778376], [31.507039340936146, 37.015220224809966], [31.50820022615149, 37.013970299557805], [31.511019438881792, 37.01466677687876], [31.510150246565555, 37.01692678860501], [31.507686725489368, 37.01652082778376]], [[31.509485748059756, 36.779933149241984], [31.510147052870135, 36.775503283896214], [31.514736438968672, 36.77592332497434], [31.514664764205754, 36.77963734775028], [31.51101604290741, 36.780591336500336], [31.509485748059756, 36.779933149241984]], [[31.491242188369178, 37.0070149138398], [31.492198297329455, 37.00294303440448], [31.498186967240606, 37.002588302817905], [31.49992875699912, 37.00631687114041], [31.495022016222265, 37.00797277563728], [31.491242188369178, 37.0070149138398]], [[31.482454096009953, 37.01622773183031], [31.482329474005066, 37.01460627946176], [31.48507534567379, 37.014291528586604], [31.48625120274005, 37.01193759421341], [31.490768639484376, 37.01255018052633], [31.49045269838622, 37.016171728054125], [31.482454096009953, 37.01622773183031]], [[31.48553171220151, 37.00274674402003], [31.485881483428223, 37.00074386866858], [31.48855079731168, 37.00116537268068], [31.487942922830662, 37.00312555190895], [31.48553171220151, 37.00274674402003]], [[31.479772534225578, 37.007152932313666], [31.47912570473865, 37.005852187543], [31.480286889756293, 37.00460254061618], [31.483105481376565, 37.005299668803794], [31.482235585762197, 37.00755946326856], [31.479772534225578, 37.007152932313666]], [[31.482074937369585, 36.82754808023459], [31.479898553116715, 36.82558876537942], [31.481179811141327, 36.82282217191278], [31.48578610512257, 36.82251829337049], [31.485726236408087, 36.82659504592339], [31.482074937369585, 36.82754808023459]], [[31.47458005070752, 36.844911391658535], [31.477045940481286, 36.84504007388112], [31.47676054445136, 36.84721333545876], [31.474183240119235, 36.84680314911243], [31.47458005070752, 36.844911391658535]], [[31.456851119379227, 37.03167111162394], [31.457201800292516, 37.02966835052812], [31.459871939426723, 37.03009051738435], [31.45926307625769, 37.03205051832582], [31.456851119379227, 37.03167111162394]], [[31.456794411185623, 36.84013963135679], [31.45520440601684, 36.839159398235054], [31.45538752454645, 36.83632918800296], [31.459916625329505, 36.835832900883], [31.460518434827804, 36.83983235967866], [31.456794411185623, 36.84013963135679]], [[31.448516341862526, 37.02705886448507], [31.449162711381316, 37.024926609063655], [31.455763047374422, 37.0246067089669], [31.456949670324175, 37.0256569186675], [31.456888291825738, 37.02869055068192], [31.455494048643494, 37.0297363144078], [31.44983532330059, 37.029308778483596], [31.448516341862526, 37.02705886448507]], [[31.460439381219487, 36.850494498981014], [31.455186381241035, 36.851145803185055], [31.455029810908748, 36.847836589538495], [31.459350430462276, 36.84663447397865], [31.4605344338739, 36.84768461583723], [31.460439381219487, 36.850494498981014]], [[31.43529248391184, 36.84148689141258], [31.435979659805724, 36.835493052612996], [31.440947002844993, 36.83570116644664], [31.442812970337933, 36.832853487900834], [31.446449124978155, 36.83373888361265], [31.44673938905525, 36.83666693745471], [31.445396638603775, 36.837711690462825], [31.441387081598407, 36.837409952003746], [31.441100407604555, 36.83993327982423], [31.446702225911558, 36.84000661807157], [31.447358318624076, 36.838070214131356], [31.45045488464342, 36.83746946951792], [31.452329250180245, 36.838698351206354], [31.452080247449288, 36.841617063110796], [31.449463388216042, 36.84229921194178], [31.44921603970816, 36.84419230077737], [31.44783842774346, 36.8448733751047], [31.43909621234615, 36.84425574265073], [31.438247823474246, 36.84215237162213], [31.43529248391184, 36.84148689141258]], [[31.430924121486246, 36.87134885569587], [31.42933382708445, 36.870368273906685], [31.429518014757182, 36.86753814209157], [31.43404909665289, 36.86704289073059], [31.434665613498243, 36.87068350549066], [31.430924121486246, 36.87134885569587]], [[31.411229809214348, 36.92842778723926], [31.412830087592578, 36.92710010892184], [31.42158145083246, 36.92771988458571], [31.422151309719794, 36.93361330203964], [31.418078680923674, 36.9342478285146], [31.41676751384687, 36.93200449571971], [31.4120504675432, 36.93178031086987], [31.411229809214348, 36.92842778723926]], [[31.39778569064541, 36.90020246490747], [31.39507402199452, 36.89920469389179], [31.395179734527492, 36.89224036173577], [31.396363263916655, 36.891226292644546], [31.399862663029683, 36.89124237808138], [31.40118067011489, 36.892495659918225], [31.400252834337916, 36.900043308864106], [31.40277470045257, 36.900574949386005], [31.403351431284104, 36.90252764843914], [31.40585839641701, 36.903163760464004], [31.40610963872071, 36.90481808992439], [31.408411642107257, 36.90524651493441], [31.40882121388479, 36.90936124140945], [31.411532207857714, 36.91035864521381], [31.411159296951293, 36.913406575338655], [31.408727539535395, 36.91386988817883], [31.407935430666697, 36.91588325466744], [31.405875150438405, 36.916085032504796], [31.40582831477553, 36.91833468926428], [31.411222968220834, 36.91876408986184], [31.41030706860578, 36.92280014728429], [31.40400065602678, 36.92307484944114], [31.40297173808563, 36.92055281183755], [31.400313552517375, 36.919680849112645], [31.40049539170302, 36.90474572950961], [31.397905889460503, 36.903994585351214], [31.39778569064541, 36.90020246490747]], [[31.399675950771943, 36.94404634547693], [31.401108730678512, 36.94273230897986], [31.40455695559282, 36.943334304966484], [31.405396548998628, 36.946999448899945], [31.40037843914734, 36.94769135170529], [31.399675950771943, 36.94404634547693]], [[31.399817310812022, 36.93728809949398], [31.401249957458262, 36.93597405676655], [31.404697880953677, 36.93657604206848], [31.405085792928023, 36.94025928370976], [31.40051975583584, 36.940933107557996], [31.399817310812022, 36.93728809949398]], [[31.39816120748959, 36.88438163053535], [31.40053165123275, 36.8841274382078], [31.4009536980412, 36.88620859954724], [31.39824039263391, 36.88636676647915], [31.39816120748959, 36.88438163053535]], [[31.378036752766644, 37.014458774832576], [31.373204972645993, 37.0145485194277], [31.37305188123154, 37.01123936287015], [31.377638457490793, 37.00977880984923], [31.37928962298157, 37.01182335026258], [31.378036752766644, 37.014458774832576]], [[31.37412512841272, 36.98540023971726], [31.373962546589613, 36.98118947159275], [31.371112510289755, 36.98035871337334], [31.37092101785449, 36.977538490408236], [31.3721062225667, 36.97652471702675], [31.37517079187768, 36.976534469116444], [31.37647184717066, 36.97761454622605], [31.376092719736523, 36.98083703096887], [31.379540587614716, 36.981941736621195], [31.379020232157014, 36.98509703954677], [31.37756315877782, 36.985898149889564], [31.37412512841272, 36.98540023971726]], [[31.37684665832221, 36.958539773309646], [31.379315961912152, 36.958670566233344], [31.37902725814042, 36.96084347615598], [31.376446752514436, 36.96043109715058], [31.37684665832221, 36.958539773309646]]], [[[31.540327530052114, 36.76935888358735], [31.540610612219314, 36.76683520895097], [31.537814174334507, 36.76680086730036], [31.537771446461345, 36.769050719264115], [31.540327530052114, 36.76935888358735]]], [[[31.543341033129494, 36.758128381466854], [31.543623962952296, 36.75560469195314], [31.54082792899132, 36.755570430058945], [31.54078530656792, 36.75782028930421], [31.543341033129494, 36.758128381466854]]], [[[31.337318710538266, 36.96048600902449], [31.33760939623881, 36.95796307623079], [31.33480625703276, 36.95792379026496], [31.33475725960676, 36.96017335153607], [31.337318710538266, 36.96048600902449]]], [[[31.42159336757903, 36.85075370148303], [31.421291459629565, 36.84868863087305], [31.418492198725186, 36.84865141432482], [31.418445847260372, 36.85090111043567], [31.42159336757903, 36.85075370148303]]], [[[31.70252815259076, 36.96473080232382], [31.70533340815574, 36.964793064627514], [31.70537151038708, 36.962543128153406], [31.702567736950098, 36.96251252098278], [31.70252815259076, 36.96473080232382]]], [[[31.684935192528634, 36.68063019959108], [31.684781771045404, 36.68963961854582], [31.68757558640939, 36.68967045050188], [31.687728682219575, 36.68066102149157], [31.684935192528634, 36.68063019959108]]], [[[31.6680721541639, 36.68491510623008], [31.670867164854176, 36.68497798093239], [31.672098058741163, 36.682797940113836], [31.67650076041166, 36.682787186735645], [31.676577916774164, 36.678284042890276], [31.673784525586726, 36.678252961131406], [31.67325914867428, 36.68010307783955], [31.67094851446687, 36.68047489210026], [31.670165814373004, 36.6824902759078], [31.66811234027093, 36.68269675139649], [31.6680721541639, 36.68491510623008]]], [[[31.656843072871265, 36.68704250040608], [31.661399629727626, 36.68722993782247], [31.662400528857976, 36.68939025697469], [31.664902931775206, 36.69002082734855], [31.66515921872965, 36.691674768899304], [31.668299962531645, 36.69152067961888], [31.6679919007948, 36.689456056457836], [31.665694700984, 36.689032748021965], [31.665233202278813, 36.6871716092625], [31.662730888064512, 36.686541047357956], [31.662474666891256, 36.68488710059068], [31.656883584480337, 36.684824156729], [31.656843072871265, 36.68704250040608]]], [[[31.670407749424808, 36.691925875623205], [31.670677087986046, 36.69624360827248], [31.673471126392094, 36.69627477595348], [31.673548497289563, 36.69177164785232], [31.670407749424808, 36.691925875623205]]], [[[31.668421700781007, 36.66463702135777], [31.671215978886316, 36.664699873240885], [31.671254661041548, 36.66244985374531], [31.668461848140673, 36.662418658623295], [31.668421700781007, 36.66463702135777]]], [[[31.65948415909987, 36.69608645416861], [31.662279560681533, 36.69614953848419], [31.662318547513387, 36.693899539086615], [31.659524607754044, 36.69386811142802], [31.65948415909987, 36.69608645416861]]], [[[31.651562661550606, 36.66895441487631], [31.65995086060388, 36.66908074804966], [31.65998987685624, 36.66683074054599], [31.65160329887793, 36.66673606933964], [31.651562661550606, 36.66895441487631]]], [[[31.651326682889465, 36.68247304298797], [31.6541215792528, 36.682536308819664], [31.654160784382412, 36.680286311791804], [31.651367346370712, 36.680254702724014], [31.651326682889465, 36.68247304298797]]], [[[31.634320742710184, 37.16677230320617], [31.636633424062445, 37.167228125769164], [31.637096758811627, 37.16908927381197], [31.639907993302003, 37.16912255944447], [31.639948395875436, 37.166871780377015], [31.637637077141477, 37.16644767421839], [31.63717374317136, 37.16458652753861], [31.634362602080145, 37.16455416034722], [31.634320742710184, 37.16677230320617]]], [[[31.640112914169315, 37.17110365298924], [31.639831180209672, 37.17362743506934], [31.645458035468433, 37.173691901090464], [31.64549820239008, 37.171442098537135], [31.640112914169315, 37.17110365298924]]], [[[31.642579431259346, 36.702690257118896], [31.642539856584886, 36.704940234901784], [31.64483738602212, 36.70536399624604], [31.645298485327395, 36.707225200693344], [31.64809289219402, 36.70725697203064], [31.648132308328762, 36.70500698995413], [31.6458347693478, 36.70458329204138], [31.64537367080822, 36.70272208892584], [31.642579431259346, 36.702690257118896]]], [[[31.628387456441384, 36.71376048477993], [31.645175942295367, 36.71398441379193], [31.645215453125573, 36.71173443697703], [31.628428824231786, 36.71154217773142], [31.628387456441384, 36.71376048477993]]], [[[31.634422996880907, 36.68904098705486], [31.637218104334213, 36.6891046543389], [31.637257811252166, 36.6868546755348], [31.634464155269804, 36.68682266506775], [31.634422996880907, 36.68904098705486]]], [[[31.625910796461167, 37.008937377466445], [31.628717555784064, 37.00900148194664], [31.628757977162774, 37.0067516324597], [31.62595266858925, 37.00671918330816], [31.625910796461167, 37.008937377466445]]], [[[31.6317451670533, 36.682249616745224], [31.634540024630653, 36.68231334183514], [31.634579799737573, 36.680063362970785], [31.631786392473444, 36.68003129474343], [31.6317451670533, 36.682249616745224]]], [[[31.605755397733375, 36.727018645506156], [31.60889901089169, 36.72689781154559], [31.60859243294948, 36.72483307686205], [31.6057974357759, 36.72480036499476], [31.605755397733375, 36.727018645506156]]], [[[31.611007412697045, 36.727304070953664], [31.6113140631958, 36.729368800149004], [31.622506350483345, 36.729498883651296], [31.622546544970884, 36.72724893400187], [31.611007412697045, 36.727304070953664]]], [[[31.597768213016572, 36.70438958648149], [31.60895817272876, 36.70455252193535], [31.609039330110384, 36.70004952070191], [31.60479710270178, 36.69997233879356], [31.60349731661993, 36.69889474541006], [31.603622576898207, 36.694183577255984], [31.606363457503207, 36.693254522612165], [31.606404069378208, 36.6910045746106], [31.603610299626432, 36.690971837118965], [31.6030831548961, 36.692821603157164], [31.600771844254197, 36.69319203932542], [31.60050300118379, 36.69697964967104], [31.59789230403859, 36.69766521567045], [31.597768213016572, 36.70438958648149]]], [[[31.575218401684666, 36.71317061857921], [31.57517684770292, 36.71542052797602], [31.57957910608904, 36.71553292483626], [31.58073236137833, 36.71774042350979], [31.58387426371554, 36.7175885890115], [31.583421178565338, 36.710738239426036], [31.57805832610568, 36.71095106468838], [31.57753042022685, 36.712800695408205], [31.575218401684666, 36.71317061857921]]], [[[31.58392632147079, 36.709041170939706], [31.586490779240773, 36.70879487932375], [31.586531993395084, 36.70654495638059], [31.584234786165524, 36.70612007556688], [31.583775173335056, 36.70425866567541], [31.58098095111914, 36.7042253869805], [31.580939578629412, 36.70647530539777], [31.583236776115715, 36.70690024963356], [31.58392632147079, 36.709041170939706]]], [[[31.58598226614946, 36.717995284219064], [31.58628821557677, 36.7200600659599], [31.591881684834885, 36.72012637869634], [31.592409304593367, 36.71827668022907], [31.594721405574568, 36.71790642485698], [31.595404387407186, 36.71560668865107], [31.600359480480545, 36.715719342673836], [31.601644089428707, 36.71318383927511], [31.605997242333526, 36.71353198579922], [31.606037894845755, 36.7112820458277], [31.603740427644276, 36.710857536607335], [31.60328031725269, 36.70899619288846], [31.60048590006623, 36.70896336836987], [31.599516965039665, 36.71140538485517], [31.594848328646954, 36.71115046954552], [31.59356353477837, 36.713685896386984], [31.58921044430262, 36.713337296033366], [31.588940931731027, 36.71712485417026], [31.58598226614946, 36.717995284219064]]], [[[31.599954270372454, 36.738252863246366], [31.599913400417726, 36.740502787159016], [31.605508385340286, 36.74056849078708], [31.605589850564595, 36.73606552346627], [31.602794449824746, 36.736032732536785], [31.602266942252392, 36.73788247440123], [31.599954270372454, 36.738252863246366]]], [[[31.5947845665893, 37.173070071217886], [31.597597333184407, 37.173135035701684], [31.59763891822936, 37.17088527828063], [31.59482759083874, 37.170851968490126], [31.5947845665893, 37.173070071217886]]], [[[31.597317624194513, 36.72917300530403], [31.600114125941694, 36.72923757374638], [31.600154973305767, 36.72698764537301], [31.597359908122517, 36.72695473373233], [31.597317624194513, 36.72917300530403]]], [[[31.586254748470434, 37.177475300436974], [31.589067664441703, 37.17754047066731], [31.589109509035495, 37.17529072316895], [31.586298028741826, 37.17525720765084], [31.586254748470434, 37.177475300436974]]], [[[31.5861216435855, 36.729040508339615], [31.591717116496035, 36.72913849685948], [31.59175820868022, 36.72688857655299], [31.586164249335155, 36.726822247585694], [31.5861216435855, 36.729040508339615]]], [[[31.589415096089784, 36.70203736611244], [31.592210602137897, 36.70210209943892], [31.592251639561393, 36.69985216841479], [31.589457566611113, 36.699819092055], [31.589415096089784, 36.70203736611244]]], [[[31.576176193077476, 37.114260471872385], [31.578986753359775, 37.11432583283408], [31.579028800525666, 37.112076071100354], [31.57621967119157, 37.112042365199365], [31.576176193077476, 37.114260471872385]]], [[[31.572770808535015, 37.145766650626264], [31.578396787982392, 37.14586591012173], [31.578438900669457, 37.14361616095988], [31.572814434305762, 37.14354855912955], [31.572770808535015, 37.145766650626264]]], [[[31.567567145998364, 37.12317023079561], [31.570378021407343, 37.123235802627], [31.570420336901147, 37.12098605271492], [31.56761088892268, 37.120952135940314], [31.567567145998364, 37.12317023079561]]], [[[31.56697224997488, 37.15471010386504], [31.569784291102508, 37.15477571412202], [31.569826672536724, 37.15252597678992], [31.567016058845283, 37.152492021441745], [31.56697224997488, 37.15471010386504]]], [[[31.571959841467407, 36.73788543447825], [31.57475661806136, 36.73795060522004], [31.574798218359458, 36.73570070476896], [31.57200286797147, 36.73566719090032], [31.571959841467407, 36.73788543447825]]], [[[31.552620004151642, 36.72416548255949], [31.552577774342325, 36.72641536548266], [31.554875387429412, 36.726840865427505], [31.555334415247717, 36.72870236780921], [31.563515832203183, 36.72915853917985], [31.563590897554057, 36.73235127460065], [31.560848129357257, 36.73327929685004], [31.560806125651535, 36.73552918448434], [31.566400654988396, 36.73559671886044], [31.565801072564962, 36.72763483623238], [31.56695027004655, 36.724528170897194], [31.564024804684077, 36.72358736441683], [31.56389516220637, 36.71979506261846], [31.561100401602573, 36.71976130514553], [31.559975131484524, 36.72225603090479], [31.555460976348783, 36.72194649504418], [31.554932447726806, 36.72379600871714], [31.552620004151642, 36.72416548255949]]], [[[31.56907252132657, 36.72417207831049], [31.572207692223618, 36.72439899536467], [31.572249346377372, 36.72214909227961], [31.569454490260124, 36.72211552911462], [31.56907252132657, 36.72417207831049]]], [[[31.52721611767445, 36.73512127903572], [31.52713007757143, 36.73962409248815], [31.537186811729185, 36.739159647173885], [31.540504783163094, 36.74009736806714], [31.541083976055578, 36.742049501079386], [31.54387951980774, 36.74208374621644], [31.544007146283228, 36.7353279229625], [31.538412691897665, 36.735259336375954], [31.538167961409176, 36.73715269979663], [31.536624627701507, 36.73783497585536], [31.533389498103432, 36.737142558599935], [31.532810534036244, 36.73519039170695], [31.52721611767445, 36.73512127903572]]], [[[31.532384072786165, 36.75768530409945], [31.535181502581704, 36.75775142022817], [31.535224288545074, 36.75550156658839], [31.53242826882071, 36.755467107402914], [31.532384072786165, 36.75768530409945]]], [[[31.523811476933396, 36.76659317198198], [31.52611142897067, 36.76705090197024], [31.526569964255085, 36.76891249303412], [31.529366464736636, 36.76894710066131], [31.529409437997156, 36.76669725713043], [31.52711080097691, 36.766271244803455], [31.52665226607725, 36.76440965508301], [31.523855933772076, 36.764374987308734], [31.523811476933396, 36.76659317198198]]], [[[31.51007170294435, 36.752900983969205], [31.51566868822078, 36.753002585544394], [31.516052245779772, 36.750946252440514], [31.510116533795582, 36.75068280820597], [31.51007170294435, 36.752900983969205]]], [[[31.51817543286191, 36.7505910908153], [31.529710591809533, 36.750923464966924], [31.52979651648635, 36.74642065485769], [31.527000833054565, 36.7463860754231], [31.526755778206343, 36.74827940490444], [31.525212122249144, 36.748961524448205], [31.521976642132273, 36.74826878993442], [31.521397895249066, 36.74631657562563], [31.51860222618339, 36.74628179896933], [31.51817543286191, 36.7505910908153]]], [[[31.496204900749515, 36.7459660698905], [31.498504058363974, 36.746424317606134], [31.498961817125693, 36.74828600349324], [31.504557117379207, 36.748356465775245], [31.504600782738706, 36.74610663973348], [31.499894745918823, 36.74588618945994], [31.499045668377743, 36.74378320551255], [31.496250119680997, 36.74374790582505], [31.496204900749515, 36.7459660698905]]], [[[31.48982250246146, 37.07037801598107], [31.492631298759058, 37.070445387393235], [31.4927204172767, 37.065942895889556], [31.489913098590293, 37.06590718300255], [31.48982250246146, 37.07037801598107]]], [[[31.48678727861075, 37.08160613426497], [31.49240826191829, 37.08170936928168], [31.49245281766487, 37.079459682281815], [31.486833310836406, 37.079388105749175], [31.48678727861075, 37.08160613426497]]], [[[31.48429887468501, 36.78190527791511], [31.484254559029324, 36.78415506938104], [31.486553460476753, 36.78458191562049], [31.487011123006425, 36.78644363453409], [31.48980820999084, 36.78647918642103], [31.48985236704138, 36.78422939006032], [31.487553455504276, 36.78380260740098], [31.487095793231834, 36.78194088983438], [31.48429887468501, 36.78190527791511]]], [[[31.48220752024319, 36.74578832605505], [31.487803906138595, 36.7458912262632], [31.487848056605625, 36.74364141660512], [31.48225314171004, 36.74357017648188], [31.48220752024319, 36.74578832605505]]], [[[31.47847332740584, 36.79306345402044], [31.48687432982082, 36.7932022835165], [31.486918583445373, 36.790952492752346], [31.478519132834673, 36.79084532604253], [31.47847332740584, 36.79306345402044]]], [[[31.468057076814794, 37.173787238667444], [31.468011645300837, 37.1760368643121], [31.473638253252204, 37.176109492899485], [31.473728840367517, 37.17160712144031], [31.470917642276856, 37.171570871472305], [31.47038358352712, 37.173419756331896], [31.468057076814794, 37.173787238667444]]], [[[31.470697893221185, 36.76144998219686], [31.47060846653857, 36.76595265896615], [31.47620497676888, 36.76602448379974], [31.47673570838493, 36.76417538232671], [31.479049671893225, 36.763807421677576], [31.47909410681891, 36.76155762793322], [31.470697893221185, 36.76144998219686]]], [[[31.458441683581214, 37.09250776136637], [31.464063385856193, 37.0926123576468], [31.46459696011071, 37.09076346753101], [31.46692092550813, 37.09039599100036], [31.46771347064395, 37.08838229365652], [31.469778298811306, 37.088179550892654], [31.46982353381437, 37.08592988997679], [31.46710556962513, 37.08493368535506], [31.467102375415212, 37.081388034723375], [31.464294520771077, 37.08135170268862], [31.464122913576762, 37.08769552631293], [31.458534194648575, 37.088037011031275], [31.458441683581214, 37.09250776136637]]], [[[31.456515997302787, 36.770245917592966], [31.459661472420482, 36.77012907402928], [31.45940385569409, 36.765811177524164], [31.45660755919513, 36.76577492809257], [31.456515997302787, 36.770245917592966]]], [[[31.461770169623318, 36.77053798474453], [31.462072937821187, 36.77260299691302], [31.467158552548035, 36.772703573571654], [31.46762892358364, 36.774928169376494], [31.476026594823697, 36.77503606534336], [31.47611573419195, 36.77053338408357], [31.473319244312407, 36.77049752349573], [31.473072775693534, 36.7723907029435], [31.471696674355474, 36.77307209630601], [31.467517271740505, 36.77204975577179], [31.467759529424853, 36.76817256888583], [31.464963136201018, 36.76813651385845], [31.4644320929503, 36.76998555441878], [31.461770169623318, 36.77053798474453]]], [[[31.455748642329183, 36.80857942043848], [31.45570344835001, 36.81082917176756], [31.46275325205164, 36.8109480642656], [31.46406384165344, 36.81319091675242], [31.469663771485006, 36.813263128346875], [31.46970856097077, 36.81101336318877], [31.46740897949733, 36.810586176991755], [31.46695167138451, 36.80872439755768], [31.455748642329183, 36.80857942043848]]], [[[31.452679973506804, 37.0991927420496], [31.45548976863474, 37.0992610166545], [31.45553544425183, 37.09701137504897], [31.452727028485256, 37.0969747560612], [31.452679973506804, 37.0991927420496]]], [[[31.455837905403676, 36.80403893804646], [31.458636889725636, 36.80410689176774], [31.458727141280594, 36.799604269222804], [31.455929617682962, 36.79956797545804], [31.455837905403676, 36.80403893804646]]], [[[31.431129668234313, 36.778927589080716], [31.433927696596268, 36.778996102729046], [31.43505790116304, 36.77650270668292], [31.439574598923496, 36.77681687209629], [31.44065734719041, 36.77468209315012], [31.445221188906334, 36.77463736500104], [31.44526662978259, 36.7723876111197], [31.4340690050379, 36.77224071523929], [31.434311682243735, 36.77588244715366], [31.431176814863946, 36.77670950615888], [31.431129668234313, 36.778927589080716]]], [[[31.439942408463068, 36.75876240585251], [31.442739719916478, 36.758830695277574], [31.44278520716159, 36.756580938061134], [31.439989267735353, 36.75654430589883], [31.439942408463068, 36.75876240585251]]], [[[31.42740789503895, 36.823947257928374], [31.430207554404372, 36.82401589738872], [31.430253516349953, 36.82176617834547], [31.427455224219848, 36.82172919587927], [31.42740789503895, 36.823947257928374]]], [[[31.41616644234747, 37.096457225849264], [31.421788305557175, 37.096563832486176], [31.42183497301689, 37.09431422602079], [31.416214557008196, 37.09423927816778], [31.41616644234747, 37.096457225849264]]], [[[31.41358403604107, 36.81478460745539], [31.41353759791678, 36.817034311062955], [31.415837033362042, 36.81746253648816], [31.41629314010102, 36.81932448181972], [31.42469545463153, 36.819436116019205], [31.42474157025366, 36.81718640119774], [31.42003153518821, 36.81696269574071], [31.419183947446363, 36.81485919884119], [31.41358403604107, 36.81478460745539]]], [[[31.409005629352972, 36.76514775934164], [31.408912583583213, 36.7696503008872], [31.413619678187185, 36.76987437852553], [31.41446666204674, 36.7719779149453], [31.425664143405267, 36.77212665491092], [31.425802279525755, 36.76537123552738], [31.409005629352972, 36.76514775934164]]], [[[31.416849840307904, 36.79229376959901], [31.416803535607453, 36.794543485289296], [31.419102323475233, 36.79497163348855], [31.4195583964145, 36.796833571783516], [31.422355772064755, 36.79687071867508], [31.422401918318045, 36.794620997835366], [31.420103120137597, 36.794192913225245], [31.419647047236555, 36.79233097628191], [31.416849840307904, 36.79229376959901]]], [[[31.41330372946895, 36.828266699497185], [31.421708292631276, 36.82841022200931], [31.421754510740556, 36.8261605138276], [31.41335147297832, 36.82604865439306], [31.41330372946895, 36.828266699497185]]], [[[31.41274498873024, 36.85530030898769], [31.415545764829456, 36.855369320454884], [31.415592208801773, 36.85311962919398], [31.412792794058817, 36.85308227461623], [31.41274498873024, 36.85530030898769]]], [[[31.404756275874007, 36.83491257260468], [31.40790442975745, 36.834797164791], [31.407602938206217, 36.832732064359966], [31.404804277377828, 36.83269453934345], [31.404756275874007, 36.83491257260468]]], [[[31.41001457973964, 36.835207024979916], [31.41031614363289, 36.83727212024886], [31.41311497872834, 36.83730951948251], [31.41316146343923, 36.83505982402268], [31.41001457973964, 36.835207024979916]]], [[[31.40541086250741, 36.80337336293213], [31.411011199337928, 36.803479973504466], [31.411057688498627, 36.80123026751613], [31.40545879159518, 36.80115531714569], [31.40541086250741, 36.80337336293213]]], [[[31.39382973638134, 36.82127964580549], [31.393782709057888, 36.8235293252749], [31.399383203621937, 36.82360486437631], [31.399430067143346, 36.8213551787632], [31.39382973638134, 36.82127964580549]]], [[[31.394299164702346, 36.79871696392217], [31.397097847340895, 36.79878636066195], [31.39714473546465, 36.796536668157316], [31.394347406268984, 36.79649892862293], [31.394299164702346, 36.79871696392217]]], [[[31.37692090049077, 36.82552208129692], [31.379221622994944, 36.825982669784395], [31.37967687977944, 36.82784473273982], [31.38263116501104, 36.82851157317724], [31.38238431704603, 36.832388440485346], [31.385182935963698, 36.832426492960266], [31.38532493381508, 36.82567127542541], [31.380614552804097, 36.825445998410586], [31.379728662088002, 36.823340157265065], [31.37696968938661, 36.823304075326845], [31.37692090049077, 36.82552208129692]]], [[[31.382809835092512, 36.812081814538956], [31.38560898339315, 36.81215149321041], [31.385656230436123, 36.80990181847492], [31.382858430908296, 36.809863796975975], [31.382809835092512, 36.812081814538956]]], [[[31.374690393939886, 36.79845055466068], [31.37979155434389, 36.798949370724515], [31.380199234484063, 36.80306421578655], [31.385798201062187, 36.80314035860908], [31.385845427106723, 36.80089068024805], [31.383546672816166, 36.80046188957764], [31.38240784578562, 36.79778895932122], [31.383186179108495, 36.79409426468904], [31.380388957946877, 36.79405619902575], [31.379148028876347, 36.79623294578582], [31.374739200408715, 36.79623254104815], [31.374690393939886, 36.79845055466068]]], [[[31.370790817198383, 36.85022574209916], [31.37359133328802, 36.85029573717133], [31.37363899793533, 36.84804609028236], [31.370839825845202, 36.84800775223401], [31.370790817198383, 36.85022574209916]]], [[[31.36556825971897, 36.832126770083896], [31.368368106787624, 36.83219687213382], [31.368756059042322, 36.83014114527296], [31.365617387738297, 36.82990877930194], [31.36556825971897, 36.832126770083896]]], [[[31.370882029122964, 36.82978868762026], [31.374020716734243, 36.830020914820416], [31.374068333728076, 36.82777125976408], [31.37126989978317, 36.82773294980325], [31.370882029122964, 36.82978868762026]]], [[[31.363390802396268, 36.80283715462141], [31.363199027108877, 36.811845081876385], [31.365996871420574, 36.81188356763969], [31.36712977789149, 36.8093908962484], [31.371648027919754, 36.809707680938324], [31.371791097527183, 36.80295248283979], [31.363390802396268, 36.80283715462141]], [[31.366032512529102, 36.80734335121803], [31.36538919655848, 36.80604203184605], [31.36655000400056, 36.80479287901849], [31.369358545928186, 36.805492308800524], [31.36848849418512, 36.80775208542766], [31.366032512529102, 36.80734335121803]]], [[[31.346339167167987, 36.81383354660637], [31.351940077592975, 36.813942956886876], [31.352474149911764, 36.81209450563653], [31.354790067179923, 36.81172901593282], [31.354838215192142, 36.80947937556177], [31.352040474020164, 36.80944062943243], [31.350798488486166, 36.81161704880774], [31.34638881809109, 36.81161557071224], [31.346339167167987, 36.81383354660637]]], [[[31.343197428752546, 36.82956365741456], [31.345997141789383, 36.8296342837294], [31.346045578552598, 36.82738466011568], [31.343247198026035, 36.827345690984565], [31.343197428752546, 36.82956365741456]]], [[[31.334762083457136, 37.088581829579624], [31.33757127557325, 37.08865288742633], [31.337620418556753, 37.08640337174026], [31.334812556607766, 37.08636396988522], [31.334762083457136, 37.088581829579624]]], [[[31.331449762939492, 36.85418669962823], [31.3342503517922, 36.85425762466758], [31.3342991760984, 36.85200802379183], [31.331499915011666, 36.85196875584606], [31.331449762939492, 36.85418669962823]]], [[[31.32352769655902, 36.95998366138094], [31.326332138860014, 36.96005486886345], [31.326381383901964, 36.95780531721466], [31.32357826653685, 36.95776576634831], [31.32352769655902, 36.95998366138094]]], [[[31.325597589085575, 36.865371330665646], [31.328398575128805, 36.86544240365071], [31.328447590807848, 36.86319281372808], [31.325647930159583, 36.863153397796324], [31.325597589085575, 36.865371330665646]]], [[[31.32333658411847, 36.84058690190123], [31.323287458950674, 36.84283649451459], [31.326032241472973, 36.843965006621005], [31.32594287623919, 36.84963410631108], [31.32874204427236, 36.84967350298878], [31.328889095917603, 36.84291849647511], [31.326589453269335, 36.84248858359344], [31.326135418662197, 36.84062635169862], [31.32333658411847, 36.84058690190123]]], [[[31.31207514512076, 36.842646150325336], [31.31487527748811, 36.842717521082534], [31.31492464883663, 36.84046793814313], [31.312125836185082, 36.84042822457122], [31.31207514512076, 36.842646150325336]]], [[[31.309669066114687, 36.82458481591492], [31.312468536084477, 36.82465622679582], [31.31251794550547, 36.8224066397987], [31.309719794187064, 36.822366886191595], [31.309669066114687, 36.82458481591492]]], [[[31.303318368818573, 36.858295155429204], [31.311725710831226, 36.85844653370563], [31.3117752026895, 36.85619696038173], [31.309067482674553, 36.85519735139081], [31.309071222619373, 36.85165174544146], [31.306272010777466, 36.851611883759674], [31.306119428650398, 36.85515536670657], [31.303369341004558, 36.85607724572025], [31.303318368818573, 36.858295155429204]]], [[[31.287138371064916, 36.95499224651694], [31.287087976804838, 36.957241753560666], [31.289390789719413, 36.95767250571683], [31.289844507134514, 36.95953483782152], [31.298261586193917, 36.95965677651165], [31.298361871654212, 36.95515365011971], [31.287138371064916, 36.95499224651694]]], [[[31.29845723843767, 36.96163830040015], [31.29816524529882, 36.96416110277658], [31.300726648573445, 36.96447454942526], [31.3010185590095, 36.961951738759616], [31.29845723843767, 36.96163830040015]]], [[[31.301164208160113, 36.966183759148095], [31.300872280849035, 36.96870656816101], [31.303675766542025, 36.96874666510526], [31.303725693757283, 36.96649714299464], [31.301164208160113, 36.966183759148095]]], [[[31.292155286688136, 36.85588186667327], [31.294955864453193, 36.855953718625535], [31.295005843253385, 36.853704163912774], [31.29220657702628, 36.85366396911946], [31.292155286688136, 36.85588186667327]]], [[[31.27854347026046, 36.83765844334227], [31.281101795045362, 36.838003862904436], [31.281393702582342, 36.83548105326247], [31.27859512048141, 36.835440555002116], [31.27854347026046, 36.83765844334227]]], [[[31.281538304163607, 36.83971315000927], [31.281246379705447, 36.842235957994326], [31.284396284002092, 36.84327862120516], [31.283948376895953, 36.84678176218115], [31.292353136086625, 36.84690282421322], [31.29240317470848, 36.84465326912112], [31.29010371279883, 36.84422265410732], [31.28942133895106, 36.84208024940137], [31.28511947666543, 36.84254982691999], [31.284095486850664, 36.84002685312968], [31.281538304163607, 36.83971315000927]]], [[[31.28993389106611, 36.840384648662486], [31.2925034425959, 36.84014483403018], [31.29260355001264, 36.83564261006395], [31.289804945587573, 36.83560237551559], [31.28993389106611, 36.840384648662486]]], [[[31.287101805134466, 36.831021936134455], [31.289901467415586, 36.83109388404986], [31.289722365016537, 36.828564270512935], [31.28715319617526, 36.828804035211164], [31.287101805134466, 36.831021936134455]]], [[[31.290234808430014, 36.82686866229212], [31.292803905316287, 36.8266288289835], [31.29285389391363, 36.82437926567615], [31.290055699341796, 36.82433904750722], [31.290234808430014, 36.82686866229212]]], [[[31.28344330234697, 36.86927658427222], [31.291851752295504, 36.86942939872922], [31.291901846561125, 36.86717985276779], [31.28349486884886, 36.867058701985314], [31.28344330234697, 36.86927658427222]]], [[[31.269990489238346, 36.968228861359464], [31.27560243577475, 36.96834215611473], [31.275653150362313, 36.96609168547088], [31.27004262701924, 36.966011032083145], [31.269990489238346, 36.968228861359464]]], [[[31.275937464599217, 36.96411710372364], [31.281318366030295, 36.963918381330735], [31.28141958266611, 36.95941627769626], [31.27861647164145, 36.95937566399022], [31.27807946272532, 36.961223667258274], [31.275758688671527, 36.96158752722747], [31.275937464599217, 36.96411710372364]]], [[[31.27793708174199, 36.86469016827945], [31.28073795408236, 36.86476236326823], [31.28078836563932, 36.862512828627565], [31.27798879899273, 36.86247229077968], [31.27793708174199, 36.86469016827945]]], [[[31.274982754974424, 36.87144216696057], [31.274780118948097, 36.88044958103164], [31.277580336957516, 36.88049021131625], [31.277782644480364, 36.871482784023264], [31.274982754974424, 36.87144216696057]]], [[[31.270237396576107, 36.833031094420626], [31.27583945471505, 36.833144124098084], [31.275889951850246, 36.830894583265845], [31.270289278092772, 36.83081321419596], [31.270237396576107, 36.833031094420626]]], [[[31.268713993729605, 36.90064467709484], [31.268663157909987, 36.902894182953624], [31.27146418682631, 36.90293497849265], [31.27151494050153, 36.90068546931888], [31.268713993729605, 36.90064467709484]]], [[[31.26769021261453, 36.82176184046288], [31.26763949221842, 36.8240113750165], [31.270437641909144, 36.82405212038366], [31.270488280480098, 36.82180258251638], [31.26769021261453, 36.82176184046288]]], [[[31.249823603862353, 36.99046644464426], [31.25262902574206, 36.99053942081257], [31.252680495600405, 36.988289967385946], [31.249876368183873, 36.98824864781505], [31.249823603862353, 36.99046644464426]]], [[[31.23666138306456, 36.83028435768558], [31.242264347830268, 36.83039893359838], [31.24231460206687, 36.828149462035356], [31.236714228641127, 36.828066516718174], [31.23666138306456, 36.83028435768558]]], [[[31.244720644088012, 36.83062763714819], [31.244966257213495, 36.83494564852186], [31.247764771355072, 36.834986937873694], [31.24820733172023, 36.830679074694814], [31.244720644088012, 36.83062763714819]]], [[[31.250333783489637, 36.83032878837394], [31.25347200097488, 36.830564190518174], [31.253294101328294, 36.8280345532943], [31.250724868472997, 36.82827352792908], [31.250333783489637, 36.83032878837394]]], [[[31.253807338653647, 36.82633912296741], [31.25637649966652, 36.82610007966194], [31.256478672369138, 36.821597930792066], [31.25368063277602, 36.82155685927712], [31.253807338653647, 36.82633912296741]]], [[[31.247614351815056, 36.84174793842989], [31.247563006540673, 36.84399744136323], [31.250361854393567, 36.84403867822158], [31.250413117765564, 36.84178917193537], [31.247614351815056, 36.84174793842989]]], [[[31.23567918695488, 36.994763627162705], [31.23848473945378, 36.994836941540996], [31.23887716268122, 36.99278180503726], [31.23573237000059, 36.9925458490185], [31.23567918695488, 36.994763627162705]]], [[[31.24100818770827, 36.992431814670944], [31.24415299770455, 36.99266763114628], [31.244204721143344, 36.99041818873177], [31.241400528337184, 36.990376666920454], [31.24100818770827, 36.992431814670944]]], [[[31.228306782044115, 36.82790675676334], [31.231106219121287, 36.82798008544463], [31.231158016278247, 36.82573059635441], [31.22835986428154, 36.82568892504855], [31.228306782044115, 36.82790675676334]]], [[[31.21505503400747, 36.91558904562596], [31.217857645308744, 36.91566277084165], [31.217909996671192, 36.91341333117103], [31.215108665202113, 36.91337126293887], [31.21505503400747, 36.91558904562596]]], [[[31.216784652782735, 36.84125462480571], [31.219584553826508, 36.841328237519875], [31.21963671353579, 36.8390787675435], [31.216838092849997, 36.83903681215453], [31.216784652782735, 36.84125462480571]]], [[[31.213510266542336, 36.86148563441732], [31.21631089879266, 36.86155934377194], [31.216363192779635, 36.85930988547587], [31.21356383958541, 36.8592678333561], [31.213510266542336, 36.86148563441732]]], [[[31.210969565371908, 36.850180652042], [31.216572671697126, 36.85029650682393], [31.216624936633732, 36.84804704393648], [31.211023190321615, 36.847962849866356], [31.210969565371908, 36.850180652042]]], [[[31.208324419712362, 36.843380741149424], [31.21112438182088, 36.843454555077805], [31.211176793349722, 36.84120509628503], [31.208378108110256, 36.84116293967965], [31.208324419712362, 36.843380741149424]]], [[[31.208587190822424, 36.83211791882127], [31.21138674311787, 36.83219171564122], [31.211439125532145, 36.82994225225623], [31.20864085018716, 36.829900112811], [31.208587190822424, 36.83211791882127]]], [[[31.201187447174238, 36.908619822446326], [31.203989776651916, 36.9086938678823], [31.204042521917778, 36.9064444426204], [31.201241466513153, 36.90640205421243], [31.201187447174238, 36.908619822446326]]], [[[31.19996937102156, 36.841001138030215], [31.202769230151286, 36.84107514632408], [31.202927313123805, 36.83432058088779], [31.200128891369644, 36.83427823683116], [31.19996937102156, 36.841001138030215]]], [[[31.19080296270072, 36.99186937592434], [31.190749663822224, 36.99411875236186], [31.19355391667364, 36.99416147431927], [31.193607133050985, 36.99191209441364], [31.19080296270072, 36.99186937592434]]], [[[31.190818451917053, 36.87240900594107], [31.193619438459255, 36.872483260395946], [31.193672418502345, 36.87023383423798], [31.19087270166126, 36.87019123698593], [31.190818451917053, 36.87240900594107]]], [[[31.183208710657006, 36.83852750318317], [31.18315548512503, 36.84077692833357], [31.188756621478756, 36.840862421366005], [31.188862812198984, 36.83636044902447], [31.186064337855523, 36.83631777192168], [31.185526099082274, 36.83816535641606], [31.183208710657006, 36.83852750318317]]], [[[31.184464320067523, 36.90385871311826], [31.18726644274435, 36.90393314814382], [31.18731966978276, 36.9016837418155], [31.184518814245354, 36.90164096385216], [31.184464320067523, 36.90385871311826]]], [[[31.171354076621387, 36.86535101955747], [31.174154767340426, 36.86542572553133], [31.173979454702152, 36.862896052608605], [31.171408875281436, 36.863133272266936], [31.171354076621387, 36.86535101955747]]], [[[31.174494695298957, 36.861201028376485], [31.177065202993305, 36.860963739829636], [31.17735574703456, 36.85717774738498], [31.179975292045913, 36.85650167036765], [31.18013546899213, 36.849747207571916], [31.174533711406013, 36.849661290710166], [31.174494695298957, 36.861201028376485]]], [[[31.177709696197436, 36.83390187952281], [31.18050925307096, 36.83397640478568], [31.180562542937277, 36.83172698036425], [31.17776425026933, 36.831684112489725], [31.177709696197436, 36.83390187952281]]], [[[31.172923864688624, 36.917236407005454], [31.172762658771262, 36.92399076579656], [31.178369843802876, 36.92407691369961], [31.178476966377143, 36.91957503047152], [31.17617600559872, 36.91914217160564], [31.17572527237398, 36.91727947378354], [31.172923864688624, 36.917236407005454]]], [[[31.17254635500315, 36.93296905402098], [31.175349518936624, 36.93304379876067], [31.175403152397713, 36.93079441837271], [31.172601250726352, 36.93075133056833], [31.17254635500315, 36.93296905402098]]], [[[31.165477963655036, 36.87652709013067], [31.168036966069504, 36.87687496376055], [31.16833278161043, 36.874352552680044], [31.16553295393096, 36.87430935441509], [31.165477963655036, 36.87652709013067]]], [[[31.168471123210303, 36.878584593227984], [31.16817528994329, 36.881107002620965], [31.170975369907918, 36.88115014540708], [31.17102903074589, 36.87890075082575], [31.168471123210303, 36.878584593227984]]], [[[31.161106462652402, 36.941805659065004], [31.16390992742137, 36.94188068244303], [31.16396391432745, 36.939631319799396], [31.161161707095637, 36.93958795332168], [31.161106462652402, 36.941805659065004]]], [[[31.15663338170121, 36.89441676385688], [31.159435104315374, 36.89449184552349], [31.159489129769238, 36.89224247055527], [31.156688662757926, 36.89219904600865], [31.15663338170121, 36.89441676385688]]], [[[31.157120805261783, 36.874144423328886], [31.159921788622388, 36.87421947329279], [31.15997576006495, 36.87197009002066], [31.157176032475004, 36.87192669726972], [31.157120805261783, 36.874144423328886]]], [[[31.146657185400265, 37.0745243101979], [31.152276523816187, 37.07464364580704], [31.15233111478842, 37.07239434830325], [31.146713111069474, 37.07230667254527], [31.146657185400265, 37.0745243101979]]], [[[31.152327226572975, 36.84027001847391], [31.15792940366348, 36.840388616728866], [31.15798336719667, 36.83813922315101], [31.15238252582519, 36.83805228580059], [31.152327226572975, 36.84027001847391]]], [[[31.14715045701623, 37.05425270000607], [31.149958023016836, 37.054328165215644], [31.150012642245564, 37.05207886293942], [31.147206328177532, 37.052035054118384], [31.14715045701623, 37.05425270000607]]], [[[31.149772919982762, 36.946136178403854], [31.152576520764995, 36.94621147350907], [31.152630849330077, 36.943962126855], [31.149828501393852, 36.94391848863461], [31.149772919982762, 36.946136178403854]]], [[[31.14729504033429, 36.932612476816544], [31.147186033046093, 36.937114271339574], [31.14998812764123, 36.93715796506297], [31.150528014384978, 36.93531061382131], [31.15284847833945, 36.93494919548716], [31.152902776719902, 36.93269984421421], [31.14729504033429, 36.932612476816544]]], [[[31.147894561017637, 36.907835451763056], [31.14778568692039, 36.912337266627645], [31.15008626069446, 36.912770666128274], [31.150536343973997, 36.9146334446823], [31.15333762126871, 36.91467703677512], [31.15339186536082, 36.91242767718994], [31.150684407015504, 36.91142446859926], [31.150695585563994, 36.90787909930681], [31.147894561017637, 36.907835451763056]]]]}}