{"type": "Feature", "properties": {"fire_id": "AKD_2021_03", "fire_date": "2021-07-29", "province": "Mersin", "region": "Akdeniz", "modis_area_ha": 9751}, "geometry": {"type": "Polygon", "coordinates": [[[33.19478319078903, 36.24824102913851], [33.194788776761655, 36.25049179903031], [33.197081498302936, 36.250885687375835], [33.19757710556867, 36.25274111340422], [33.20313873408151, 36.25273179826242], [33.20401779014544, 36.25063765166475], [33.21148085614742, 36.250463454768244], [33.211759696689995, 36.248811645543555], [33.2142573538865, 36.24820462691181], [33.21486434358863, 36.24625817019011], [33.21863340178115, 36.246002607012954], [33.219819273764266, 36.24923019739869], [33.21705000386353, 36.25045658888118], [33.21706246323274, 36.25496122889692], [33.21935542509756, 36.255354689238686], [33.219851587319155, 36.257210019736554], [33.23242020134175, 36.25721379820284], [33.23381181326098, 36.25943898448953], [33.23933482697644, 36.25942650662002], [33.2406739375721, 36.257197476293044], [33.25173823934341, 36.25715523020962], [33.25325347378307, 36.25939784738676], [33.25565710816394, 36.25988870920507], [33.25604378869193, 36.26164578807433], [33.25882298801452, 36.26163980659217], [33.2588006940775, 36.25488131883774], [33.256507552733346, 36.25448861528754], [33.25601054230762, 36.252633439269616], [33.2535091792784, 36.25203619587625], [33.253220550375595, 36.25038549314163], [33.248144940854765, 36.24999848610184], [33.247215701259954, 36.24489776483793], [33.24854492066268, 36.243659207879894], [33.2559811277103, 36.24361485050739], [33.256718375310996, 36.241588846747796], [33.26003459979615, 36.24136028756616], [33.26147165330557, 36.242310414845264], [33.26155727272972, 36.24585667608045], [33.265812151439796, 36.24524538983498], [33.26902083998584, 36.24600136153985], [33.26991245209647, 36.24809200243458], [33.272413811869214, 36.24868890323634], [33.27270283770303, 36.25033955846656], [33.2751063134187, 36.250830030871874], [33.27549338312852, 36.252587047880574], [33.27827225718783, 36.25258061586991], [33.278260924421474, 36.237217551379125], [33.28378063840393, 36.23679047756127], [33.28380228011622, 36.233372709000065], [33.284951137829275, 36.23233970286809], [33.3004562812768, 36.23224198665018], [33.300430429040844, 36.22548348964613], [33.29777447902267, 36.22465375507431], [33.29763763529134, 36.21994701958276], [33.29880964715784, 36.21878254567497], [33.303186068184736, 36.21871175207385], [33.30353390229798, 36.210191266215155], [33.307570991962464, 36.20909636655079], [33.31088789186437, 36.20998493158579], [33.31150761439542, 36.21192869541641], [33.31706630346827, 36.211914097569654], [33.31705722377464, 36.20966333465066], [33.31434596882125, 36.208709157013644], [33.314258019139224, 36.205162922573315], [33.312219583781115, 36.204938792740755], [33.311468065191434, 36.20291631665417], [33.30881276474673, 36.20208682081025], [33.30866057554477, 36.196161887177276], [33.305909604097806, 36.19507888210831], [33.30585357193156, 36.18940738190162], [33.30381556819749, 36.189183106274136], [33.30306441886807, 36.18716057034138], [33.30035410917742, 36.18620606764774], [33.30054355289322, 36.181004671767994], [33.30303836121794, 36.18039580578954], [33.30391395426144, 36.178300915252684], [33.30724922407017, 36.17815870385642], [33.308602496317725, 36.18038159219895], [33.311004049025264, 36.18087135838476], [33.31139156483894, 36.18262827767247], [33.316341459648854, 36.18292382266091], [33.31696109850943, 36.18486756743768], [33.31967156063675, 36.1858216935839], [33.319778053061626, 36.19387569163327], [33.3253354613902, 36.19386071608151], [33.3258090078122, 36.189749269078206], [33.330877737168294, 36.189337719645835], [33.33090813052044, 36.17902944313238], [33.33361040616874, 36.1780606095086], [33.33397392465567, 36.17404776092897], [33.33637119808003, 36.17354506875211], [33.336313433638395, 36.16002487236994], [33.33356335349269, 36.15894249163727], [33.33349583156393, 36.151017089787246], [33.3284262663182, 36.15063345118098], [33.32791885335932, 36.14652465326631], [33.32334584576849, 36.14709948546327], [33.320070665748815, 36.14614823569944], [33.319572860447266, 36.14429329389483], [33.31431217314527, 36.14406803545967], [33.31398816955423, 36.137546297769426], [33.31169818332441, 36.13715462904932], [33.31120063325061, 36.13529964840767], [33.30638546572239, 36.13508259465835], [33.30563477655008, 36.133060054402186], [33.30081975959303, 36.132842776094456], [33.30006923472944, 36.130820199421095], [33.29729466458686, 36.13082711784072], [33.297179694144866, 36.13449887025305], [33.294533104865124, 36.135341793487854], [33.2937978094346, 36.1373680573454], [33.2878708613769, 36.137610361946535], [33.28619357867887, 36.135362010030825], [33.27846822145416, 36.13507169436467], [33.27784198677217, 36.13087381844499], [33.266732173957095, 36.13089907276177], [33.26539593052567, 36.13312842996259], [33.25434907931316, 36.133171870024555], [33.252836265543436, 36.13092920985728], [33.24858745691648, 36.13154002250057], [33.24538363371059, 36.130783469489806], [33.24449401973882, 36.12869259710493], [33.24171951174092, 36.12869822795136], [33.240057449643125, 36.130953946792125], [33.23457219775793, 36.13090658201714], [33.233380653083394, 36.12871476478623], [33.23060614207221, 36.12872013822872], [33.230645705245244, 36.14224052922449], [33.233045617936845, 36.14273186853211], [33.23417678195822, 36.14555212262349], [33.23347796566326, 36.16026642795285], [33.235768244701674, 36.16065958973186], [33.23626418420448, 36.16251488235032], [33.241891786344354, 36.16301986629347], [33.24183709869586, 36.16701159231671], [33.24400606544306, 36.16731571579455], [33.244623794681026, 36.16925984785378], [33.246792833896926, 36.16956392045625], [33.24741064984917, 36.17150803707217], [33.249448040742564, 36.17173327611589], [33.250197664217815, 36.173756159956], [33.252598658402604, 36.17424710061722], [33.25299208372904, 36.17825811374011], [33.2554910921618, 36.178855384698565], [33.25574932039336, 36.181673115688525], [33.253006587991, 36.18276901477446], [33.252638901055796, 36.18678162941464], [33.24925343297474, 36.18784831006103], [33.24675866495609, 36.18648812702621], [33.24744225787376, 36.18278064510978], [33.24466584436134, 36.18278635153685], [33.24418109824189, 36.184643604163874], [33.24189252466097, 36.1850458979048], [33.24192040959675, 36.19734794229828], [33.23915331135483, 36.19857484793275], [33.23990645671109, 36.20202159365797], [33.23842967762827, 36.20510853825917], [33.22892933966823, 36.20519531492693], [33.22803277258773, 36.20085045577477], [33.225255717253816, 36.20085571430686], [33.22407586746703, 36.20305204760612], [33.219700230504806, 36.20311994544553], [33.21970652065906, 36.205370728796986], [33.22514208451006, 36.20619700496084], [33.22600520971984, 36.20894264144767], [33.224403514131694, 36.21196559254641], [33.212297058522935, 36.212348841101374], [33.21137165327647, 36.20989665410677], [33.208661659888286, 36.20894007759708], [33.2085724973546, 36.20313985415084], [33.20301438099547, 36.20314941078507], [33.20282522003439, 36.206941133077144], [33.20024488587213, 36.20766188514331], [33.2002735943832, 36.21892823521527], [33.20285799684547, 36.21964028771449], [33.203066780432856, 36.22343132472168], [33.205105394704276, 36.22365731249844], [33.20585438089243, 36.22568045866222], [33.208354546046394, 36.22627870513438], [33.208648128215565, 36.23018341099863], [33.21317995793959, 36.23027991776138], [33.21421814010903, 36.23242746259065], [33.2167185831175, 36.23302553269444], [33.2170061258111, 36.238315281947564], [33.215625088281996, 36.23951599462052], [33.211454344077886, 36.239197165363336], [33.210273537314144, 36.24139335170993], [33.20311341689567, 36.241465507454855], [33.20263315079721, 36.24557645774907], [33.20034258686196, 36.24597795939341], [33.19931551779013, 36.24812906893125], [33.19478319078903, 36.24824102913851]], [[33.3028693617863, 36.154644960018565], [33.29767840916519, 36.15537759921027], [33.29744470964664, 36.15207028792101], [33.30174431366356, 36.15115797869227], [33.3028693617863, 36.154644960018565]], [[33.25202258508481, 36.22333978705767], [33.250422383379366, 36.22238337207668], [33.250538554767516, 36.219549961464445], [33.25502058181217, 36.21898532593845], [33.25571022773433, 36.22297632777708], [33.25202258508481, 36.22333978705767]], [[33.24565644070304, 36.14446616182122], [33.24725499521598, 36.145422659358154], [33.24713879916993, 36.14825610194766], [33.242660738473994, 36.14882043376964], [33.24196505810802, 36.1451885358233], [33.24565644070304, 36.14446616182122]], [[33.236553849492765, 36.23560060830876], [33.24175068122192, 36.234870606293086], [33.241982306486, 36.23817798890258], [33.237677241959155, 36.23908815978478], [33.236553849492765, 36.23560060830876]]]}}