{"type": "Feature", "properties": {"fire_id": "AKD_2020_01", "fire_date": "2020-09-05", "province": "Hatay", "region": "Akdeniz", "modis_area_ha": 4597}, "geometry": {"type": "MultiPolygon", "coordinates": [[[[36.03083948563896, 36.18901400334111], [36.030793484596906, 36.191264298655845], [36.03352756272529, 36.19133059176424], [36.03479461747417, 36.18916878103146], [36.03872351745444, 36.189374402779045], [36.039000275140744, 36.19371920659062], [36.04177338717098, 36.19378783302032], [36.04116146269524, 36.190325830486785], [36.04236137221682, 36.187235706210494], [36.0413522953403, 36.18569232601139], [36.04383234044953, 36.18457197615939], [36.04550993340352, 36.18818292378389], [36.04430488591464, 36.19140820739981], [36.047634085191795, 36.192423937049824], [36.047246543087184, 36.19617608885516], [36.050019762417506, 36.19624452822218], [36.05098089476686, 36.194176403265864], [36.05565824109418, 36.194130474687384], [36.05582679755521, 36.18963171967918], [36.05349632402019, 36.18940628758131], [36.05267836867489, 36.1881546653966], [36.053580389025505, 36.18556306198298], [36.05599554924453, 36.18512675060016], [36.05663912792672, 36.18103406014359], [36.06060072394736, 36.18014560731837], [36.06387507844497, 36.181122810626654], [36.064413518992474, 36.1830806403712], [36.06905696687158, 36.18299466932033], [36.06988288224416, 36.18546776647558], [36.07409239455748, 36.18559834466782], [36.07532696984893, 36.1865619660912], [36.075614997787845, 36.18924899871526], [36.072491810924845, 36.190040794065645], [36.07240807055595, 36.19228865305289], [36.07493770053737, 36.192627260355465], [36.076669086833256, 36.18981371385711], [36.08071331968556, 36.191199598934176], [36.08050218799915, 36.19442130994013], [36.07510124034851, 36.19460969217178], [36.074598348449335, 36.208113355630424], [36.07687107718477, 36.20856642441972], [36.077515106320305, 36.21071440351396], [36.08006591369047, 36.210500007226536], [36.08031043323798, 36.204836566410876], [36.08165918984653, 36.20380737833862], [36.08496549229981, 36.20366064607666], [36.08579208865622, 36.206133658642976], [36.08826450453551, 36.20679622595504], [36.08848614122719, 36.2084523044008], [36.09125989610191, 36.208519807893445], [36.090895792992725, 36.198304970650085], [36.09249392856969, 36.19526104001047], [36.09625727133446, 36.19486832169403], [36.09723487176988, 36.19739985702714], [36.09996921028002, 36.19746774723056], [36.10127364213638, 36.1953045474479], [36.104366091312315, 36.19471801704581], [36.10783217709887, 36.19551248402625], [36.10880158457, 36.19669100914632], [36.108000229133815, 36.199314467874615], [36.10270618977146, 36.199788671799844], [36.10236784113387, 36.20357040810985], [36.09976267399886, 36.20422338439592], [36.098945451952204, 36.2062272145057], [36.09690202048516, 36.20640699966835], [36.096818180547494, 36.20862325199136], [36.09981545850399, 36.209471905196594], [36.09943025874088, 36.21322432674173], [36.10392479671012, 36.21307849598785], [36.10490283516278, 36.215609983337785], [36.1076768830646, 36.21567711771848], [36.10775968624402, 36.21342919698928], [36.10465241927778, 36.2123570004613], [36.105747840632894, 36.20917974985471], [36.11625858840634, 36.20912528286354], [36.116601927848514, 36.20748286800339], [36.11911883944406, 36.20694118519354], [36.11993556456641, 36.20493719442004], [36.12475646987887, 36.204823824716975], [36.12565539415801, 36.2005687211111], [36.1332534450654, 36.200521717696496], [36.13349969901981, 36.19377059184399], [36.12844986816266, 36.19325293984209], [36.128137969061115, 36.18954769331782], [36.13263358093896, 36.18934605312781], [36.133808929008154, 36.19179953923598], [36.13635904673505, 36.19158390602324], [36.1369165408577, 36.189741693634765], [36.13921809896462, 36.189399267909565], [36.13970946155121, 36.17589576883293], [36.13699100323526, 36.175416781370764], [36.13709681934178, 36.17132714924618], [36.135071041431985, 36.17104927343999], [36.13417936147892, 36.16872751768659], [36.1323755333343, 36.168898708687664], [36.13126541784708, 36.16780500978128], [36.132716421474285, 36.166149623793565], [36.137260806942656, 36.16682184135807], [36.13734261758815, 36.16457384375397], [36.13464004571793, 36.16341948709189], [36.134894389938296, 36.155502986081316], [36.129346583413934, 36.15537001277292], [36.12853069572713, 36.15737411635791], [36.12521335453458, 36.15751577262273], [36.12379115526873, 36.15523659878231], [36.11886169369941, 36.15480959531067], [36.118322024846954, 36.15285195006138], [36.11405345215518, 36.1533507572749], [36.10746642942913, 36.15231330043806], [36.10666529750827, 36.15442619999609], [36.1031950116046, 36.15532884839425], [36.094475340348424, 36.15482531875686], [36.0933411589633, 36.15224771421664], [36.090812710246155, 36.151909550104676], [36.08946002071095, 36.154301951240406], [36.08334141269629, 36.15419764884193], [36.08163133855075, 36.148779929426105], [36.08268715116764, 36.1472255241205], [36.08692670880818, 36.147686992837016], [36.0878771935089, 36.14985871111199], [36.0904055599649, 36.1501969338226], [36.09057838278346, 36.143385544844044], [36.09239513026193, 36.14260777464025], [36.09620577615768, 36.14357870328322], [36.0967924243194, 36.14166552260505], [36.099307304927954, 36.141124162296805], [36.10026639311305, 36.13905553454997], [36.107715739537426, 36.1390746305266], [36.107798309947285, 36.136826680926454], [36.099476871081784, 36.13662528473652], [36.098517796624485, 36.13869390728752], [36.09384365942229, 36.13874166520729], [36.092521540799865, 36.141259611610074], [36.08265978471571, 36.14072258339372], [36.08170021998083, 36.14279104730565], [36.0770258747163, 36.14283813615384], [36.07694240816908, 36.14508602199753], [36.07931945538294, 36.14563985287521], [36.08032539091524, 36.1483534662042], [36.07898772335158, 36.16454474241482], [36.07772621327434, 36.16568255852051], [36.07306563223252, 36.165460829373046], [36.073329975521105, 36.16752799280572], [36.07599674944309, 36.168554161117484], [36.07560475541075, 36.1719004508285], [36.078268761048506, 36.17232280836821], [36.07908698912358, 36.17357426941528], [36.07794808940812, 36.17634768898139], [36.07395534741841, 36.177121412991006], [36.07229961676787, 36.17558616304984], [36.073492436005274, 36.17223034119986], [36.068823462912675, 36.1722238233539], [36.067648756170456, 36.17102641410432], [36.06751162882914, 36.16600069203636], [36.07098186977219, 36.165028283092745], [36.070717592423364, 36.16296111693604], [36.067581882670275, 36.161754930554935], [36.067748248527, 36.14817324480902], [36.06897411683408, 36.14538689573551], [36.071387963412946, 36.144950210112874], [36.071471588012415, 36.142702335387504], [36.06442816781713, 36.14313143269495], [36.060816853275796, 36.1422730655021], [36.06062289597737, 36.13567727198476], [36.05785178291686, 36.13560917615947], [36.05768554381678, 36.14184814076812], [36.052049104579694, 36.142225432121315], [36.05149006345132, 36.144067185698965], [36.04918648319046, 36.144439522709725], [36.04910531634748, 36.14665579707218], [36.05440868292142, 36.14706317980966], [36.05614907376189, 36.14622762110851], [36.05778839691424, 36.14745792743227], [36.05705828833412, 36.14886870566582], [36.05457168855885, 36.149045624628755], [36.05404171326359, 36.153043806443165], [36.05162754334855, 36.15348012540252], [36.05209693126973, 36.15945411013598], [36.05081527994003, 36.16207466811066], [36.048511163754284, 36.1624469665801], [36.04846883797991, 36.16466574696702], [36.05120203542067, 36.16473159384702], [36.05246813653536, 36.16256954508735], [36.05644108827208, 36.16274148119353], [36.057459636454084, 36.16594976021725], [36.056407498990275, 36.17078588833812], [36.05255849839999, 36.172116272421036], [36.04817638019434, 36.17141910958696], [36.04792298554492, 36.17816876707919], [36.05105899471633, 36.17937548262636], [36.05005543237174, 36.18233300792004], [36.043576406634855, 36.182896671780824], [36.0422815537361, 36.18028551416072], [36.03950891637702, 36.18021692145413], [36.03897795367507, 36.18421399482881], [36.036562751576206, 36.18464995927046], [36.036217887075864, 36.18629207710772], [36.03370119784428, 36.18683201960556], [36.03301683730441, 36.188759640490034], [36.03083948563896, 36.18901400334111]], [[36.12576783461467, 36.175524633975286], [36.125150244347275, 36.17421752706112], [36.12632023165839, 36.17298073810403], [36.129094130813044, 36.17370887037995], [36.12819702878416, 36.17595736027404], [36.12576783461467, 36.175524633975286]], [[36.125709669380996, 36.18001427117161], [36.1280612046178, 36.17978466788216], [36.12844619995687, 36.18186906834458], [36.125756642740285, 36.18199915934093], [36.125709669380996, 36.18001427117161]], [[36.12486136121193, 36.18866063127148], [36.1171538118689, 36.188393578756475], [36.11764259212312, 36.18477267846135], [36.12127756251564, 36.183860793889096], [36.124997102621414, 36.18494967827061], [36.12486136121193, 36.18866063127148]], [[36.12343101310816, 36.16513983486051], [36.1222015677875, 36.16640389077586], [36.11871560336496, 36.16621857344899], [36.11816473224594, 36.16257340614087], [36.12265996727712, 36.162126639281034], [36.12343101310816, 36.16513983486051]], [[36.10997356323689, 36.17727293775945], [36.10999558636087, 36.172987752013974], [36.11669536058572, 36.17324829481763], [36.117858585004534, 36.17944430349477], [36.11546553513414, 36.18001956645813], [36.11497228410708, 36.17774399928584], [36.10997356323689, 36.17727293775945]], [[36.10963988960468, 36.170427832322034], [36.110680829893774, 36.166242627656096], [36.11494621975113, 36.167246769791646], [36.11370785966094, 36.17070537269279], [36.10963988960468, 36.170427832322034]], [[36.087323459013106, 36.19255148106562], [36.08626925731442, 36.18874759789346], [36.08923298441409, 36.188193262376814], [36.09055609984245, 36.185675410381606], [36.09908342036935, 36.186207075845275], [36.100318329232174, 36.18717045339021], [36.09975226210256, 36.19067002139799], [36.09470724206626, 36.19058249956321], [36.09344176724781, 36.19274501946368], [36.09034933475603, 36.193331267154896], [36.087323459013106, 36.19255148106562]], [[36.09322216263335, 36.156699037461756], [36.09556933531159, 36.156467383815865], [36.09595726855518, 36.158554341180405], [36.093268508538976, 36.15868373539783], [36.09322216263335, 36.156699037461756]], [[36.086741641149565, 36.18047386711762], [36.08781628380922, 36.17925111894777], [36.091436910102956, 36.17903491051135], [36.0927002850416, 36.18334478189676], [36.090846441136826, 36.18433148955114], [36.08751142489524, 36.18348723183492], [36.086741641149565, 36.18047386711762]], [[36.08199355414321, 36.16394969545428], [36.08722537695105, 36.16384007866741], [36.08767849161712, 36.16661726207443], [36.08662426424764, 36.16774667713363], [36.08181406889208, 36.166902301937526], [36.08199355414321, 36.16394969545428]], [[36.08539526843071, 36.142990237060744], [36.0877457517859, 36.14276138050217], [36.088129555716826, 36.144845865200885], [36.08544126530646, 36.14497510445231], [36.08539526843071, 36.142990237060744]], [[36.08071267655684, 36.173540851027575], [36.08298471393494, 36.17166817623527], [36.08698549335898, 36.17278129679455], [36.08636812067811, 36.17682655609715], [36.08182478820827, 36.17635323564139], [36.08071267655684, 36.173540851027575]], [[36.07284578174956, 36.178818095714036], [36.075286602132635, 36.17897484240578], [36.074965777209606, 36.18114351168191], [36.07241950663468, 36.180704161055075], [36.07284578174956, 36.178818095714036]], [[36.05696975274167, 36.160318658161266], [36.05932080126643, 36.160090388695046], [36.05970389772094, 36.162174928604976], [36.05701501080652, 36.16230349890115], [36.05696975274167, 36.160318658161266]], [[36.04762824183566, 36.187124751041885], [36.04997640149807, 36.18689404180997], [36.050363207030756, 36.1889810890544], [36.04767339888741, 36.18910940561119], [36.04762824183566, 36.187124751041885]]], [[[36.10705891104543, 36.15060072439715], [36.10738479584182, 36.14808194465629], [36.104856398908055, 36.147744080686365], [36.10453043575356, 36.15026285004569], [36.10705891104543, 36.15060072439715]]], [[[36.10444895478258, 36.14603149826346], [36.10477489363695, 36.143512726893114], [36.102003395808495, 36.14344564009507], [36.101586730152846, 36.14549626654657], [36.10444895478258, 36.14603149826346]]], [[[36.099475205025264, 36.14582665457851], [36.096613029840334, 36.14529130565942], [36.09628681983362, 36.14781004188956], [36.0990584571549, 36.14787726793352], [36.099475205025264, 36.14582665457851]]], [[[36.07698139463478, 36.2124040554343], [36.07443052115371, 36.212618382592794], [36.07434676707989, 36.21486623699095], [36.077120713349814, 36.21493407847614], [36.07698139463478, 36.2124040554343]]], [[[36.1312830833722, 36.25455058597823], [36.131200829556605, 36.2567985378114], [36.13397639722666, 36.2568651273925], [36.134058571727365, 36.25461717011458], [36.1312830833722, 36.25455058597823]]], [[[36.113236387972336, 36.215814576570054], [36.112905375477254, 36.22481560876551], [36.11517885295844, 36.225267979584224], [36.11560087519191, 36.227133701974], [36.11807423502769, 36.227795691600235], [36.11829653374155, 36.22945174074736], [36.121072314389565, 36.229518567521026], [36.12089026085827, 36.22587636784574], [36.124014497815665, 36.22508335383168], [36.124096861979254, 36.222835404255214], [36.12182339098853, 36.22238320385098], [36.12140123704531, 36.220517496640234], [36.11857516287599, 36.21993340587356], [36.118826947501454, 36.21690727234786], [36.120130987656765, 36.21600525296666], [36.124344354640115, 36.2160791287783], [36.12490234024098, 36.214236999534386], [36.127204660597954, 36.21389484103776], [36.1274079181886, 36.21035460197248], [36.13014707215312, 36.209459405231634], [36.13022921390342, 36.20721143767079], [36.12745540964949, 36.20714483941907], [36.12711229719666, 36.20878729582401], [36.124595369165895, 36.209329146687736], [36.1235879898271, 36.21175780832469], [36.118957402900506, 36.21144648340271], [36.1183993039541, 36.21328858024608], [36.11609697480122, 36.21363056816652], [36.115280047718834, 36.21563452165695], [36.113236387972336, 36.215814576570054]]], [[[36.12350506242167, 36.22976950193795], [36.12377084185395, 36.231836604216404], [36.126545508967006, 36.231903326825], [36.12696214237097, 36.229852630520604], [36.12350506242167, 36.22976950193795]]], [[[36.12907586990173, 36.22952185748956], [36.13218480317152, 36.22978569509833], [36.132266947661485, 36.22753773116393], [36.129492420827646, 36.22747114811213], [36.12907586990173, 36.22952185748956]]], [[[36.12360568999822, 36.23634180978707], [36.123523271099515, 36.23858975331246], [36.131855680085486, 36.23878996149424], [36.13193786103731, 36.236542001595396], [36.12360568999822, 36.23634180978707]]], [[[36.12404177831679, 36.14848344597308], [36.12395963623355, 36.150731423392884], [36.126731444074444, 36.15079801360508], [36.1268135072583, 36.148550030733944], [36.12404177831679, 36.14848344597308]]], [[[36.09345794368472, 36.22434751937798], [36.09320794946264, 36.23109739087377], [36.10466598563327, 36.231186218667695], [36.10448376599345, 36.226868082240514], [36.10193066664272, 36.226090093839645], [36.10187173391332, 36.22229874257525], [36.09909746648721, 36.22223146308505], [36.09793429322681, 36.22471103121696], [36.09345794368472, 36.22434751937798]]], [[[36.10675170605583, 36.2316182615252], [36.10701704415501, 36.233685380885575], [36.10929073363132, 36.23413787325413], [36.10971264757031, 36.23600360986161], [36.11218622400334, 36.23666573091843], [36.112408409886754, 36.23832178440556], [36.11518327839647, 36.238388780777704], [36.11526593545165, 36.2361408536882], [36.11299214637913, 36.23568847101853], [36.11257015477828, 36.23382274246812], [36.1100966626081, 36.233160632984955], [36.10987453299057, 36.231504576809755], [36.10675170605583, 36.2316182615252]]], [[[36.09834840200549, 36.242490474053525], [36.09826524132048, 36.2447383651137], [36.101040301922666, 36.24480569972091], [36.1011233833491, 36.2425578031545], [36.09834840200549, 36.242490474053525]]], [[[36.09859817327249, 36.23573747952353], [36.09851504026083, 36.23798537362195], [36.10128986278521, 36.238052691688516], [36.10137291656461, 36.235804792084764], [36.09859817327249, 36.23573747952353]]], [[[35.96923238315959, 36.20098638570746], [35.96897193640906, 36.20773552244298], [35.97124390082011, 36.20819057135598], [35.97166240058535, 36.2100566423905], [35.973688399729035, 36.21033730655239], [35.974353023380445, 36.21237770849781], [35.97673120456571, 36.212933636049925], [35.97704380481407, 36.21469872074937], [35.98958714837406, 36.21504272977991], [35.99084526405224, 36.21729983191114], [35.993117658205506, 36.21775448319391], [35.993364291365204, 36.22412208421404], [35.99841482165003, 36.224646475186546], [35.99874795574759, 36.22876328111849], [36.004078073828516, 36.22961308581981], [36.00413225525385, 36.233404262076725], [36.00690667995283, 36.23347376151925], [36.00725242948354, 36.231831777831424], [36.00977072689458, 36.23129247183957], [36.010883424478386, 36.22917178372167], [36.01563471844058, 36.229930309529074], [36.01481709137612, 36.24493640268907], [36.01743519351008, 36.24583779222719], [36.018035603211246, 36.25297260327088], [36.01691034157187, 36.257793457232076], [36.01430276013359, 36.2584444482322], [36.013702530498236, 36.27419706093838], [36.01632157257469, 36.275098515981135], [36.01627453015749, 36.279669967937934], [36.013444977402266, 36.28095260078621], [36.01310100409986, 36.28992108025621], [36.01537634835602, 36.290407055539546], [36.0157962104336, 36.29227301937362], [36.021353129482996, 36.29241170123353], [36.02169892693274, 36.29076968773209], [36.02421907117407, 36.29023016502732], [36.025488168419805, 36.288068570141355], [36.032645365324875, 36.28818679064792], [36.033206109322116, 36.28634523186371], [36.03551084815349, 36.286004960306315], [36.035941501839126, 36.28211203399641], [36.03846128597444, 36.28157219253132], [36.038545040313274, 36.2775843289876], [36.04141137703334, 36.277139333592224], [36.04175666763049, 36.27549723584239], [36.044276204106396, 36.2749572594705], [36.04523859617459, 36.272889255861394], [36.04992063200255, 36.27284376911455], [36.051246598608536, 36.270326507158416], [36.06565208188302, 36.27108258206685], [36.06651894313189, 36.27550539285192], [36.06929501367226, 36.27557351333758], [36.07040685168736, 36.27345223908275], [36.073907286335846, 36.2735380077162], [36.07485868683344, 36.27570984294085], [36.07733314951233, 36.276372725681135], [36.07755464857207, 36.27802880605279], [36.07993566679544, 36.278582798203], [36.08025076952311, 36.28034771476354], [36.08580716597042, 36.280483362917195], [36.08636660839894, 36.27864149289416], [36.08867095807963, 36.27830017376763], [36.08892177442779, 36.27155038282701], [36.08664715831092, 36.27109746123968], [36.08622566801508, 36.26923166904571], [36.081555765034146, 36.26895653769261], [36.08075008712901, 36.26684503099137], [36.07271670608075, 36.266046184473446], [36.07261738573566, 36.263097929732794], [36.07535896354511, 36.262204108553235], [36.07544357157066, 36.25998791887312], [36.07316864542049, 36.25950310968308], [36.07274752278195, 36.25763728422368], [36.06266569832106, 36.257285470144936], [36.06171483098156, 36.25511355762921], [36.059241182236086, 36.25445038593432], [36.059020104767285, 36.25279428666493], [36.05664003489436, 36.252239918000434], [36.05632553755696, 36.25047496142737], [36.053945559819525, 36.24992054298158], [36.05363112933087, 36.24815558193215], [36.04896268115572, 36.2478792379056], [36.04815807426289, 36.24576755506458], [36.04012732545623, 36.244966628206676], [36.04028398713196, 36.23526575278588], [36.04302488584067, 36.23437264243407], [36.04355616305555, 36.23037558631789], [36.045972761935545, 36.229939546645], [36.0460573741852, 36.227691755243356], [36.04335418015426, 36.22653530666537], [36.04353359183299, 36.22087039995029], [36.0388668248482, 36.22059373677511], [36.038023782592695, 36.21847948444134], [36.035288748992045, 36.21841325045932], [36.0341768685847, 36.220534206922], [36.03083123591982, 36.22049585830185], [36.02972933399209, 36.21827526713926], [36.02725714277899, 36.217611495727475], [36.027036794195155, 36.21595536445928], [36.024658095247695, 36.21540041775057], [36.0236426413231, 36.21255386792536], [36.024600278930656, 36.20688282956075], [36.02257412458562, 36.206603024348496], [36.021908266075414, 36.20456283268741], [36.01957749648411, 36.20433672346653], [36.01875749507083, 36.203220350593284], [36.01966328796234, 36.2004936080105], [36.022079053372664, 36.20005801319392], [36.02233486908272, 36.193308538534055], [36.018063712328086, 36.19380378483387], [36.011732427665315, 36.19264660341302], [36.01156979913693, 36.18402810402494], [36.0087971073461, 36.18395879390424], [36.00736963518059, 36.18614853564726], [36.00038170144184, 36.18600101025892], [36.00021750423589, 36.1894132200657], [35.99902783246779, 36.1904132301613], [35.99568698386299, 36.190284661810516], [35.994738689378174, 36.18811231948038], [35.99196589642451, 36.18804261278851], [35.991405064618384, 36.18988399173761], [35.98910304935562, 36.19022354014212], [35.98904143588243, 36.19685745384197], [35.98697324118717, 36.1971286303688], [35.98648367872521, 36.19485270738557], [35.98337687978034, 36.194585164512354], [35.98241399952535, 36.19665266171551], [35.97773666502934, 36.19669571414209], [35.9771754278542, 36.198537005320304], [35.97487311431354, 36.19887626424667], [35.97400911643116, 36.20124013834691], [35.96923238315959, 36.20098638570746]]], [[[36.08234539403448, 36.22407684870706], [36.08217814397856, 36.22857568471153], [36.08495259374181, 36.22864336661293], [36.085511601541675, 36.22680147077501], [36.08781441388632, 36.22646009653815], [36.087981328237966, 36.221961236343034], [36.08520710698003, 36.2218936353594], [36.08464813510205, 36.22373553235675], [36.08234539403448, 36.22407684870706]]], [[[36.07695682078781, 36.21943920414117], [36.07687311810607, 36.221687061052044], [36.07964731144848, 36.22175485491591], [36.07973093496767, 36.21950699245988], [36.07695682078781, 36.21943920414117]]], [[[36.065508529887374, 36.228170785239854], [36.06534029034346, 36.232669550392615], [36.068114842958174, 36.23273762930461], [36.068282923997174, 36.22823885300904], [36.065508529887374, 36.228170785239854]]], [[[36.06399298048138, 36.19433848697736], [36.06390898401739, 36.19658632722349], [36.06668225939006, 36.19665438120068], [36.06676617679304, 36.194406535386584], [36.06399298048138, 36.19433848697736]]], [[[36.0527160971786, 36.19856711910373], [36.052547307641156, 36.203065854783794], [36.055320783237825, 36.20313418248214], [36.055880253463215, 36.201292442033086], [36.058182398485684, 36.20095160925124], [36.05826657206926, 36.198703782213094], [36.0527160971786, 36.19856711910373]]], [[[36.04952701622585, 36.13540422156119], [36.04944278803778, 36.13765205469206], [36.052213951950925, 36.13772034837529], [36.05229810131137, 36.13547250965316], [36.04952701622585, 36.13540422156119]]], [[[36.03701677795333, 36.31983988369664], [36.036931620763745, 36.32208762204441], [36.03970926840737, 36.322156504963864], [36.03979434605313, 36.31990876098844], [36.03701677795333, 36.31983988369664]]], [[[36.04135327336943, 36.20504552457021], [36.04126859662829, 36.207293314929224], [36.044042193147895, 36.20736191084707], [36.04412679079274, 36.20511411487654], [36.04135327336943, 36.20504552457021]]], [[[36.035313576878, 36.14406498104085], [36.03522891646819, 36.14631278202477], [36.03800034938863, 36.146381418668845], [36.038084930941224, 36.14413361206621], [36.035313576878, 36.14406498104085]]], [[[35.996547891679676, 36.14084525251884], [35.99646213536827, 36.143092975204446], [35.9992333570628, 36.143162503629476], [35.99931903454063, 36.14091477525215], [35.996547891679676, 36.14084525251884]]], [[[35.987635615195025, 36.228486890965186], [35.98754932852845, 36.230734562285434], [35.99032361668123, 36.23080444184321], [35.99040982417559, 36.22855676480826], [35.987635615195025, 36.228486890965186]]], [[[35.97799637393821, 36.18994340542653], [35.97790993331439, 36.19219107124858], [35.98068283660461, 36.19226111039917], [35.98124393724541, 36.190419795076096], [35.983545981441374, 36.19008039996624], [35.9836322543464, 36.187832721655994], [35.98085949961695, 36.187762758170145], [35.98029841355836, 36.18960407286413], [35.97799637393821, 36.18994340542653]]], [[[35.97720978218692, 36.13810533602678], [35.97712348288108, 36.140353019693634], [35.979393585820006, 36.14080782806033], [35.97981203760837, 36.142673880831936], [35.98258320209619, 36.14274379381824], [35.98266935321265, 36.14049609971705], [35.98039923571884, 36.140041353060084], [35.97998077935751, 36.13817530163983], [35.97720978218692, 36.13810533602678]]], [[[35.952919643638864, 36.19156006007094], [35.95283248124171, 36.19380767298494], [35.958382112809694, 36.19394895182712], [35.95855623183632, 36.189450597133366], [35.955783484512395, 36.18938005012258], [35.955221804586195, 36.19122121812678], [35.952919643638864, 36.19156006007094]]], [[[35.92316956019295, 36.17048727739286], [35.925891299241954, 36.1719421981624], [35.92551087110722, 36.174485760233466], [35.9229939743842, 36.17502335401624], [35.92264169364861, 36.18402288629661], [35.92563517441489, 36.18484413013588], [35.925241894570966, 36.188595614320505], [35.92801453506909, 36.18866686743567], [35.92912869912536, 36.18654700428893], [35.93327840234127, 36.18621403430901], [35.93435944021199, 36.18764079927179], [35.933395670093034, 36.19331083083924], [35.93616849803104, 36.19338190303146], [35.93608397219482, 36.18748911061419], [35.939208173925095, 36.18670094036525], [35.939567289129705, 36.18078734260601], [35.94259561861502, 36.179839561062956], [35.942597262778044, 36.171019184217606], [35.937049351305035, 36.1708782319243], [35.93648740249988, 36.17271930206956], [35.93418573515494, 36.1730578060891], [35.93382629373438, 36.17897137648573], [35.93079790889549, 36.179918932435534], [35.9304962004872, 36.18383036361879], [35.92712518069636, 36.18448530612052], [35.92556697545865, 36.18362222971016], [35.92553926813331, 36.18094486423514], [35.928714731473484, 36.1794839258093], [35.92889373948946, 36.16616325262866], [35.92634458080126, 36.165381681895255], [35.92629396701331, 36.16159061488166], [35.92352228475491, 36.161519367662414], [35.92316956019295, 36.17048727739286]]], [[[35.94291111693975, 36.169048840672986], [35.94679507753306, 36.168269435212096], [35.953788230581765, 36.169049625011986], [35.954049610764855, 36.16230053982598], [35.94429067241587, 36.16202413596212], [35.94303470069784, 36.15976663163588], [35.94026303912522, 36.159695774983476], [35.93970126359146, 36.16153687063773], [35.93739993663309, 36.161875453477485], [35.93722478431378, 36.166373740091146], [35.941867026121884, 36.16629266999717], [35.94291111693975, 36.169048840672986]]], [[[35.94467889984278, 36.180274329809016], [35.94493986646135, 36.182341615042425], [35.95048864833437, 36.18248322135911], [35.95066314562295, 36.17798489110623], [35.94789082274892, 36.17791418048521], [35.94732906199686, 36.17975530950275], [35.94467889984278, 36.180274329809016]]], [[[35.92118716920014, 36.15019463674303], [35.921099233099426, 36.15244219839965], [35.92336927816934, 36.15289807105905], [35.92378642950557, 36.15476425589782], [35.92625565154834, 36.1554300378058], [35.926473784070616, 36.15708625986353], [35.93083843969436, 36.15725807296372], [35.93193674798545, 36.159479421600516], [35.934708380334925, 36.15955047061212], [35.93488363267768, 36.155052189472755], [35.92995577026949, 36.15461744614081], [35.92950868748539, 36.15040848757899], [35.92689483630773, 36.1495053589628], [35.926997202458395, 36.14358519518802], [35.92422615189758, 36.14351399467036], [35.92392618610146, 36.14930417024062], [35.92118716920014, 36.15019463674303]]], [[[35.92497754776884, 36.19535069712286], [35.92480147023789, 36.199848906119996], [35.92757450636099, 36.19992018842777], [35.92775042572485, 36.195421967760645], [35.92497754776884, 36.19535069712286]]]]}}