{"type": "Feature", "properties": {"fire_id": "AKD_2021_09", "fire_date": "2021-08-02", "province": "Isparta", "region": "Akdeniz", "modis_area_ha": 516}, "geometry": {"type": "MultiPolygon", "coordinates": [[[[30.87766745733347, 37.441774941176725], [30.882006282574007, 37.44128275609732], [30.88537973969041, 37.44217424277377], [30.886014484932176, 37.44646229441182], [30.888684474974017, 37.44734609710955], [30.88845895065856, 37.4600242055935], [30.89118197707896, 37.46103381090836], [30.891094071677927, 37.46683037133549], [30.893409684918915, 37.46726918528531], [30.893856073091868, 37.469132683151685], [30.901570232939537, 37.469499363583985], [30.902269028154908, 37.47153543190675], [30.905389702720363, 37.47245902260695], [30.904968665078258, 37.47608941224453], [30.907790346405026, 37.47613943116438], [30.908089677467224, 37.46809356035975], [30.910866759232942, 37.46718174959903], [30.911678370450563, 37.46517244203713], [30.91375461823851, 37.46497975452829], [30.913797428126806, 37.460990451636405], [30.91670481409277, 37.46052574507191], [30.91802561745961, 37.45799897314038], [30.92524212354463, 37.458422961151236], [30.925304276104534, 37.45617411571799], [30.922518798640606, 37.454771780812706], [30.92287504839488, 37.45222457420731], [30.925428817996373, 37.45166710278208], [30.925615364337297, 37.44491434228996], [30.922794824038967, 37.44486478405517], [30.922234998738166, 37.45111828898837], [30.91660640891565, 37.451704170294605], [30.915940207675366, 37.455848107406254], [30.910831741315285, 37.45610826858793], [30.91107834134622, 37.462166507025444], [30.90687296669528, 37.46260001671753], [30.90540680723409, 37.46149244205998], [30.905534623509464, 37.456911787195075], [30.908707520741913, 37.45568913125333], [30.908603996625068, 37.45184946215964], [30.91448227464335, 37.45128513933822], [30.91398027523866, 37.44345032517359], [30.91720461256238, 37.44251020789103], [30.917329406558945, 37.43800942050506], [30.914549227707077, 37.436739499777985], [30.91486608322921, 37.42765858657852], [30.9161827288585, 37.426748373702004], [30.920465317817357, 37.426796292432215], [30.920772121594716, 37.423011720463265], [30.923413516210342, 37.4223420312835], [30.923256897327835, 37.416448324306124], [30.926423469928817, 37.41563571398056], [30.926485491234835, 37.41338685055297], [30.921087642016012, 37.41301529900071], [30.919329553422937, 37.4138628922648], [30.913271129166173, 37.41299307547686], [30.91249867577012, 37.40972104869368], [30.916903407624446, 37.408412092760486], [30.918311529465473, 37.411263699639505], [30.92065659474629, 37.41130498439437], [30.921058180645087, 37.40694316992148], [30.92667185636848, 37.40662782885105], [30.926733850079337, 37.40437896163654], [30.923975487413443, 37.403240880155245], [30.924097383608935, 37.39757349253094], [30.918455971827218, 37.39747427419952], [30.91790665487023, 37.39932016256613], [30.915570933589056, 37.39967649027944], [30.91523783275635, 37.40132132508819], [30.912685726647375, 37.401878630021976], [30.91201060361367, 37.40381135646498], [30.909800350985076, 37.40408069341055], [30.909545751694093, 37.41199875427739], [30.90672392775552, 37.413070092676705], [30.906664143891977, 37.41528734639088], [30.90938584195108, 37.41629649730344], [30.908989404742666, 37.419341933177684], [30.904917210191314, 37.41970583356635], [30.90377408408712, 37.4174922743272], [30.900954611771358, 37.41744222596039], [30.90082893039407, 37.42194298194731], [30.903252146854495, 37.42248179655591], [30.903526838898628, 37.42649697418795], [30.90589837664061, 37.42670707178166], [30.9067427819008, 37.42795352532382], [30.905891501721367, 37.432698807693214], [30.903338258993063, 37.433255873457234], [30.90252681303873, 37.43526513754406], [30.900451371288224, 37.43545765260844], [30.899763855201904, 37.44621484737619], [30.89596132723466, 37.44724490005719], [30.889596479994008, 37.44630006837106], [30.889024818922245, 37.439760123806764], [30.877732050853535, 37.439557808306546], [30.87766745733347, 37.441774941176725]], [[30.911310637719573, 37.448562093796355], [30.90602320839709, 37.44847244483403], [30.905892678725536, 37.445524250705475], [30.91029091059, 37.44470092816546], [30.911310637719573, 37.448562093796355]]], [[[30.898559248899726, 37.50298020418564], [30.901382994554154, 37.50306205674136], [30.901445962891067, 37.500813262541925], [30.898623364809648, 37.50076306413804], [30.898559248899726, 37.50298020418564]]], [[[30.857513483923814, 37.454964042992664], [30.85744930425341, 37.45721279065862], [30.860270189494745, 37.457263922539276], [30.86033428482339, 37.45501517074254], [30.857513483923814, 37.454964042992664]]]]}}