{"type": "Feature", "properties": {"fire_id": "AKD_2021_08", "fire_date": "2021-08-11", "province": "Burdur", "region": "Akdeniz", "modis_area_ha": 615}, "geometry": {"type": "Polygon", "coordinates": [[[30.77059941001361, 37.33619939540717], [30.770532913893273, 37.33844805776566], [30.773286453024404, 37.339589582662065], [30.773020447662315, 37.349760044237144], [30.780277443752805, 37.34995626680187], [30.78145550557495, 37.35217319214521], [30.78705346347161, 37.352276543666925], [30.78801140371407, 37.3502026170358], [30.79276085662025, 37.350130198536206], [30.793312794856043, 37.34828496346827], [30.79564736842083, 37.34793101717933], [30.796048618605514, 37.344034776551936], [30.79859948138307, 37.34347995073806], [30.799000544122453, 37.339583691711596], [30.80155123603146, 37.33902879627751], [30.80111606215747, 37.328682435561255], [30.802316643844456, 37.32602058324781], [30.804767712524804, 37.32553868295859], [30.80496134198055, 37.31881788802067], [30.80236439965515, 37.31805352993381], [30.80227304109579, 37.31426187881614], [30.7994576164367, 37.31420953263121], [30.799145443475098, 37.317993675874376], [30.79650678627559, 37.31866067938262], [30.797159141176184, 37.322119761730036], [30.79582358423295, 37.32500957281068], [30.791870533522776, 37.325273563330455], [30.79073208102791, 37.323059028695205], [30.787916350117353, 37.32300639741014], [30.787298437020436, 37.32710341476484], [30.784964482676333, 37.32745721684817], [30.783855019655512, 37.32958500899461], [30.77925863633704, 37.329603241458], [30.7781489803064, 37.3317309730989], [30.773552476002717, 37.33174897939283], [30.773238888890265, 37.33553299933995], [30.77059941001361, 37.33619939540717]], [[30.795867839392926, 37.337965144832175], [30.7905765883384, 37.33858574212742], [30.790448978577018, 37.33527676712934], [30.79484175886772, 37.33445756354219], [30.795867839392926, 37.337965144832175]]]}}