{"type": "Feature", "properties": {"fire_id": "AKD_2021_10", "fire_date": "2021-08-02", "province": "Muğla", "region": "Ege", "modis_area_ha": 473}, "geometry": {"type": "MultiPolygon", "coordinates": [[[[29.345691061053824, 36.53184493901147], [29.345759011594264, 36.534093723586764], [29.348545608958645, 36.534038852014845], [29.348981796188383, 36.53217455594926], [29.35126784217591, 36.53173195754819], [29.35119973800796, 36.52948318097311], [29.348413309377722, 36.52953810870704], [29.34797711969407, 36.53140240340586], [29.345691061053824, 36.53184493901147]]], [[[29.348685825190323, 36.53854565242626], [29.348753879046853, 36.540794429639355], [29.351540710860906, 36.54073947947953], [29.351472576438763, 36.538490706747176], [29.348685825190323, 36.53854565242626]]], [[[29.33277140342886, 36.47351409298564], [29.33283883641132, 36.475762920356466], [29.33562336979183, 36.47570842516867], [29.335555856498022, 36.473459602244695], [29.33277140342886, 36.47351409298564]]], [[[29.32024095334262, 36.52107682114838], [29.320308140674793, 36.52332565060107], [29.323094402420576, 36.52327138736779], [29.323027134585622, 36.52102256234076], [29.32024095334262, 36.52107682114838]]], [[[29.280386528500028, 36.49480660559354], [29.280915137301413, 36.512819543354205], [29.285755650370966, 36.51295624297959], [29.286561033230683, 36.51496466345079], [29.289084619558498, 36.515518642239755], [29.28941727988922, 36.51716311228242], [29.294993324006377, 36.517055905376324], [29.29516207677326, 36.513148541684174], [29.297650042658947, 36.51249821818175], [29.29833604388286, 36.510461136919155], [29.30037313121875, 36.51019245205516], [29.300327221225768, 36.50189650121508], [29.30289584937001, 36.50113071853891], [29.303581627147512, 36.49909361191442], [29.305618395498, 36.49882484810257], [29.305705566799983, 36.49503284482702], [29.308273912393673, 36.49426695534341], [29.308073445257563, 36.48751416091909], [29.29971069822911, 36.48767571622072], [29.298886064365128, 36.48978368921227], [29.293063265216784, 36.49064616282931], [29.28304343113073, 36.49024922497368], [29.282955145719335, 36.49404125316404], [29.280386528500028, 36.49480660559354]]], [[[29.272677516271223, 36.51748649723905], [29.272743318421416, 36.51973540312605], [29.275052790729298, 36.520088888320984], [29.27559937432479, 36.52193418908343], [29.2781231241296, 36.522488394234216], [29.2784555916978, 36.524132900185585], [29.281241964412843, 36.52407961361285], [29.281043628329634, 36.51732672497013], [29.272677516271223, 36.51748649723905]]]]}}