{"type": "Feature", "properties": {"fire_id": "AKD_2021_11", "fire_date": "2021-07-29", "province": "Mersin", "region": "Akdeniz", "modis_area_ha": 374}, "geometry": {"type": "Polygon", "coordinates": [[[33.77658197053109, 36.27292486918584], [33.776671238580214, 36.28193645552978], [33.7821992821424, 36.28231451874695], [33.782283278574106, 36.286407504181675], [33.78696746553272, 36.28653799811879], [33.78787330026396, 36.28862461520507], [33.792831361040015, 36.28890035229512], [33.79346363453846, 36.29084146016169], [33.79771649996034, 36.29021127421062], [33.80093193256018, 36.29095289709987], [33.80186125422994, 36.295293055353426], [33.80464140044833, 36.29527437746865], [33.80383943517731, 36.28957785682816], [33.80481528501565, 36.28460671009724], [33.81009287232108, 36.28396852139224], [33.81035919248533, 36.28231545669133], [33.81285307999454, 36.28169597914016], [33.81386366572799, 36.2795397850423], [33.818396541062924, 36.279404357555805], [33.81834952466281, 36.274900164377684], [33.81074148151847, 36.27472252871864], [33.80997647564707, 36.272703354189815], [33.807313718194834, 36.27188501403082], [33.80728633884388, 36.26868998994959], [33.80870467876539, 36.26785922176303], [33.815495925001606, 36.26815510524534], [33.816358730696045, 36.26605663401751], [33.82103835685448, 36.26586336921074], [33.820967627266555, 36.2591055129096], [33.811182374147556, 36.259144738335216], [33.80981358391708, 36.25692773156161], [33.79590428777856, 36.25702109402542], [33.79563773803619, 36.25867413619847], [33.79314443634115, 36.259293249684205], [33.792281077333016, 36.26139156259312], [33.784818823644606, 36.26160199221385], [33.78488651456694, 36.26836088620133], [33.790159632631905, 36.268566887767605], [33.790716407295115, 36.274959585502465], [33.78824461753772, 36.275067451913976], [33.78805468430055, 36.273039105619695], [33.78541479725633, 36.27246955422183], [33.78466868348187, 36.27034145277832], [33.78212590800712, 36.2706349203247], [33.78111455453388, 36.27279085870525], [33.77658197053109, 36.27292486918584]], [[33.794211049190984, 36.27503423336048], [33.79374955677349, 36.270952860917745], [33.796037633471116, 36.270540021580935], [33.79601478939474, 36.268289464047044], [33.7932958536921, 36.26734623322609], [33.793801644002514, 36.26410193530575], [33.80300707926205, 36.26313008358369], [33.80672849703286, 36.26420289171509], [33.80750735611516, 36.26721507334426], [33.80436771577346, 36.268233576700986], [33.80382143974361, 36.27469018889896], [33.794211049190984, 36.27503423336048]]]}}