{"type": "Feature", "properties": {"fire_id": "AKD_2023_01", "fire_date": "2023-07-16", "province": "Mersin", "region": "Akdeniz", "modis_area_ha": 1098}, "geometry": {"type": "MultiPolygon", "coordinates": [[[[33.50130733560817, 36.31721869727047], [33.501321748166745, 36.31946936778768], [33.50963385111713, 36.31943577290126], [33.511005338263004, 36.31720206290076], [33.5207979707268, 36.31713226120622], [33.521276943734925, 36.31527396975207], [33.52356782019993, 36.31486632304266], [33.5242987851002, 36.31283873883225], [33.52633750936455, 36.312600321149795], [33.52647484381014, 36.3084134821266], [33.534661001012154, 36.308055705123444], [33.53464563641168, 36.30580504217303], [33.53188774273245, 36.30472730598347], [33.5320721347843, 36.295146756998676], [33.53735282356887, 36.29452058121983], [33.53852522045967, 36.29232124562715], [33.54290542635551, 36.29224165315769], [33.54288983385007, 36.289990987295205], [33.54017310521104, 36.28904198287774], [33.54007482265395, 36.28549604050339], [33.53172728745795, 36.28553345066282], [33.53039601089146, 36.28776567299464], [33.52645035920238, 36.28720808715576], [33.525359681908675, 36.27773555826757], [33.52604999019877, 36.26978159291369], [33.5232705910047, 36.26979378564836], [33.52323546386492, 36.275594191922565], [33.520532231979885, 36.276567299762846], [33.520737027360205, 36.282701236750164], [33.51222595763172, 36.2833647250239], [33.51206631091816, 36.28941057097837], [33.50948618139073, 36.290137982297544], [33.5087550366116, 36.29216548499388], [33.506716786238286, 36.29240359985226], [33.50673134111698, 36.2946542778575], [33.50939182916906, 36.295479330059436], [33.50950369590814, 36.2980632594359], [33.508198045458975, 36.29913131777255], [33.503976225612114, 36.29917672691127], [33.50399070535508, 36.30142740331353], [33.50670743711239, 36.30237722798855], [33.50680097616539, 36.30695885482079], [33.504034234259635, 36.30819186312422], [33.503957770116486, 36.316371198463884], [33.50130733560817, 36.31721869727047]], [[33.518382408631794, 36.298717497695286], [33.51844175029811, 36.29245918386397], [33.52338064624914, 36.292742812623146], [33.52297235160399, 36.298697509017444], [33.518382408631794, 36.298717497695286]]], [[[33.53446497947378, 36.278759695748036], [33.53448032371653, 36.281010368967486], [33.53726011547605, 36.28099791243063], [33.53724469143839, 36.27874724023064], [33.53446497947378, 36.278759695748036]]]]}}