{"type": "Feature", "properties": {"fire_id": "DAN_2021_01", "fire_date": "2021-08-27", "province": "Tunceli", "region": "Dogu Anadolu", "modis_area_ha": 552}, "geometry": {"type": "MultiPolygon", "coordinates": [[[[39.05793740555087, 39.23629091968264], [39.05794110897718, 39.24079330359428], [39.06032730647586, 39.24118953424163], [39.06156513236426, 39.24384552438025], [39.06084390157957, 39.24755005668885], [39.063534520359205, 39.2482646581501], [39.063745212284815, 39.252053989338854], [39.06686264896627, 39.25274162335915], [39.06664902747107, 39.258810583814466], [39.06953755790998, 39.26002960754592], [39.068515277948016, 39.26354691784043], [39.060857535184084, 39.263322337423105], [39.06086142901003, 39.26782470013809], [39.063755497797004, 39.26782315167153], [39.064528433287315, 39.265799336723994], [39.06820022357387, 39.26525717081762], [39.06952010487593, 39.266315700295344], [39.069557854645865, 39.27007256521183], [39.077016275706406, 39.27012762631583], [39.07825483503369, 39.2723197794425], [39.092742086671876, 39.27230914281443], [39.092739121329124, 39.27005951905654], [39.08948509442078, 39.26913547977227], [39.08983521239067, 39.26555632553943], [39.08265904081044, 39.26589522623704], [39.081174469479436, 39.26481410154649], [39.08036087250342, 39.25986093744581], [39.08133901890626, 39.25726454844379], [39.08402850683864, 39.256546602075055], [39.08494699010395, 39.25445435012637], [39.08825474059602, 39.2542987986569], [39.08982770469215, 39.2565422735484], [39.092329321392995, 39.25703604088249], [39.092728272193405, 39.25879273907439], [39.097602843772904, 39.25894990988859], [39.09852680990762, 39.26104071573162], [39.118807295281954, 39.261021792209434], [39.1197248022208, 39.25892926902048], [39.123989732481945, 39.25874162974244], [39.124963861334095, 39.26234460679935], [39.12171297533645, 39.26327463586885], [39.12110375446654, 39.265550029498094], [39.1130229685012, 39.26553612976102], [39.11303381971667, 39.272291214335475], [39.17389289357096, 39.27221623761418], [39.17384281422591, 39.25194479909457], [39.17123892654364, 39.251346392151554], [39.17093447464837, 39.24744362286923], [39.168547450095595, 39.24704966028769], [39.16803188254838, 39.245195104728516], [39.16513875440155, 39.24519924265546], [39.163953007838906, 39.247729362283316], [39.15899494092544, 39.24764971177838], [39.15935343104504, 39.249709629257694], [39.163785894296524, 39.24910192639894], [39.16547611439091, 39.24992187931439], [39.16515988244516, 39.25420706777552], [39.16798281279889, 39.255163865962395], [39.168095331121215, 39.25823481484546], [39.16383895768503, 39.25870945482847], [39.16226358940917, 39.25646698504483], [39.159761507162514, 39.25597472074709], [39.159360900460875, 39.25421825449896], [39.15659587770604, 39.253386059408804], [39.15644338093996, 39.24521124672558], [39.15065312310916, 39.245218880179245], [39.15065793600095, 39.24746850871909], [39.15306431638999, 39.24762007191128], [39.153998242323844, 39.24890298167463], [39.15326869883469, 39.25137142703415], [39.150667583351414, 39.251977085640554], [39.14975108696047, 39.25406985321723], [39.1350239039048, 39.254247458742455], [39.133316747684574, 39.253161474213336], [39.133630336950986, 39.24993431707489], [39.130510338178105, 39.24891273038853], [39.130369220512726, 39.245243350549934], [39.12747608548689, 39.24524655295315], [39.12645277796057, 39.252234728252084], [39.11350780725998, 39.25162178822423], [39.11256289803739, 39.24869107102935], [39.1158872611031, 39.247508295512375], [39.11587740681964, 39.24075322969967], [39.10139539663789, 39.24076668882444], [39.099828780554645, 39.24301272464287], [39.08450334195888, 39.24287821300382], [39.0835683530553, 39.24172461254146], [39.08429050874897, 39.238794237106994], [39.08980072159723, 39.238520351829536], [39.090003112270956, 39.2347307409458], [39.09269165146445, 39.23401259283858], [39.09268869176801, 39.23176295424157], [39.089867718834, 39.23080432471084], [39.08978636973305, 39.22725972792902], [39.07530838317958, 39.2272699876226], [39.07563487968384, 39.23155820342594], [39.07394578725746, 39.232378208491454], [39.069520033605926, 39.23177908600193], [39.069522253492174, 39.234028725883555], [39.0719082865861, 39.234424719886384], [39.07242124452142, 39.236279707349276], [39.076852358426045, 39.23567526410204], [39.07874462008206, 39.236709657889094], [39.07714467128902, 39.240680833413386], [39.070716770312174, 39.24106505816091], [39.06952270719905, 39.23853732792213], [39.06464960952447, 39.23837897998281], [39.063726947226876, 39.2362878960584], [39.05793740555087, 39.23629091968264]], [[39.13040645739551, 39.264268968163066], [39.131754840666346, 39.262949873355964], [39.13542803736226, 39.26348573320074], [39.13673653436112, 39.26733363312578], [39.13484347506399, 39.26836748687261], [39.131185309299745, 39.26754047499333], [39.13040645739551, 39.264268968163066]], [[39.115919194281624, 39.27003243184093], [39.116268052878915, 39.2680027784705], [39.11895413742068, 39.26835928547141], [39.118411861483516, 39.27037360973703], [39.115919194281624, 39.27003243184093]], [[39.08111727389217, 39.25203687446224], [39.081470328755486, 39.250010414078126], [39.08415555187276, 39.25036772576689], [39.08361144241056, 39.25238245806447], [39.08111727389217, 39.25203687446224]], [[39.06320606829499, 39.24486612207984], [39.06496668136254, 39.240849352063705], [39.06872854894094, 39.240844809916524], [39.069929553950004, 39.24183838415497], [39.06913631806687, 39.24480006881831], [39.06560620577937, 39.24586114682344], [39.06320606829499, 39.24486612207984]]], [[[39.118421712263846, 39.24055833658413], [39.12456698251431, 39.24074110495337], [39.124563004070076, 39.238491471341185], [39.118773290971276, 39.23849751905762], [39.118421712263846, 39.24055833658413]]], [[[39.13582072087509, 39.24955031964205], [39.144864132581375, 39.24972860058726], [39.14485950440501, 39.247478972334854], [39.136171834443836, 39.247489453584976], [39.13582072087509, 39.24955031964205]]], [[[39.11048001559114, 39.26798048264414], [39.10773715010323, 39.267396434772934], [39.10722303354379, 39.26554161430543], [39.09853312210212, 39.265549291057944], [39.09853627220319, 39.26779891618263], [39.101358846350266, 39.26875732759223], [39.10144083042747, 39.2723018901547], [39.10723332791632, 39.2722967001911], [39.10774181187818, 39.27044093744824], [39.11048295382097, 39.26985175158849], [39.11048001559114, 39.26798048264414]]], [[[39.153486441697666, 39.21592945279203], [39.15349133999908, 39.21817909238081], [39.16645429742034, 39.21782770275249], [39.167976779393676, 39.220411858298505], [39.173764993795395, 39.220403368141646], [39.17375944807291, 39.2181537316931], [39.17149996420919, 39.21784871541146], [39.17085797590555, 39.21590527014653], [39.168598576495434, 39.21560019728556], [39.167956688819075, 39.21365673506042], [39.16583451393287, 39.21343042697925], [39.165055586792874, 39.21140812645205], [39.16245327196245, 39.21080951556044], [39.162149489551354, 39.20690669468761], [39.159257932046664, 39.20691068327753], [39.158751259170735, 39.20876668769027], [39.15636737513853, 39.209167355743666], [39.156303418426525, 39.21496486506717], [39.153486441697666, 39.21592945279203]]], [[[39.17084559326334, 39.20914702355196], [39.17085104424045, 39.211396663833625], [39.17374278399965, 39.21139238709963], [39.17373724076313, 39.209142747158545], [39.17084559326334, 39.20914702355196]]], [[[39.170922068072024, 39.24068541299282], [39.17092752761049, 39.24293504105001], [39.1738205618734, 39.242930759538815], [39.17381500993063, 39.240681131822534], [39.170922068072024, 39.24068541299282]]], [[[39.16221568669129, 39.23393962723408], [39.16222086689098, 39.236189258900524], [39.164607488245046, 39.23658335273691], [39.16512290183522, 39.23843792653069], [39.16801575225811, 39.2384337895939], [39.168010386582495, 39.23618415945413], [39.1656237599702, 39.23579013532683], [39.165108352820496, 39.233935562890935], [39.16221568669129, 39.23393962723408]]], [[[39.14767100227009, 39.20467318816371], [39.14767571309366, 39.206922832713396], [39.15056727268665, 39.20691913158699], [39.150562469623786, 39.20466948733206], [39.14767100227009, 39.20467318816371]]], [[[39.14473394009225, 39.18440201171627], [39.144738553892616, 39.18665166441077], [39.14762928308539, 39.18664803775454], [39.147624577138664, 39.18439838534891], [39.14473394009225, 39.18440201171627]]], [[[39.13324051705339, 39.229470878636484], [39.133244771284886, 39.23172051497438], [39.13649763905357, 39.23264333950864], [39.1361500526499, 39.23622265009468], [39.14070816765695, 39.23627698829018], [39.14194811006894, 39.23846847450492], [39.14484096493094, 39.23846491313649], [39.14482707696043, 39.231709797672096], [39.141634649610346, 39.230908264455245], [39.141921428754245, 39.22720787614566], [39.13902903571257, 39.22721136417729], [39.13980936438194, 39.23065691565718], [39.13847667690443, 39.23197953373557], [39.13651788359637, 39.23155540732935], [39.13613426442215, 39.229467580872395], [39.13324051705339, 39.229470878636484]]], [[[39.07523867850143, 39.16193989099942], [39.07524107503091, 39.164189557641734], [39.08102469948682, 39.16418568003662], [39.08102337837151, 39.16193606100064], [39.07523867850143, 39.16193989099942]]], [[[39.083564940420054, 39.16174192955516], [39.08703347151703, 39.16261796449222], [39.08682184538801, 39.16868705391741], [39.08970703066184, 39.1699056000891], [39.090484865550074, 39.179024423623495], [39.08960062135798, 39.183621494216126], [39.08684124549232, 39.18445953955301], [39.086844013808175, 39.186709196830186], [39.088965134402926, 39.18693694614334], [39.08974160931567, 39.18895976714962], [39.09234250426806, 39.189560006289454], [39.092642347596666, 39.19346302614939], [39.09514174482471, 39.19395674110443], [39.09554345662559, 39.19796620898846], [39.09842999027337, 39.19918453138048], [39.098376226384204, 39.208269914016356], [39.09555872124357, 39.20923310287465], [39.09548976401474, 39.215030585594654], [39.092671949305675, 39.21599370389898], [39.092599789501264, 39.219538427611276], [39.08978175508738, 39.22050147552247], [39.08978462081263, 39.22275111866355], [39.09494013441763, 39.22305539547893], [39.095580095975244, 39.22499925957682], [39.0977023967106, 39.22522684687175], [39.09847954613834, 39.227249595470546], [39.10098018242611, 39.227743180726534], [39.10137918148903, 39.2294998580824], [39.10929462731858, 39.22972204797991], [39.110075678848204, 39.233997462034395], [39.118761693726974, 39.23398892983025], [39.119151418458856, 39.22997876070853], [39.121650583574294, 39.229480451610115], [39.12194261233976, 39.22782966376039], [39.12454308557522, 39.22722464518904], [39.12517699331904, 39.22527957942441], [39.127435402389445, 39.22496876637064], [39.127460538823726, 39.2192999935167], [39.13031920349885, 39.2182073191054], [39.130315044674056, 39.2159576772688], [39.12781462293833, 39.215464720383096], [39.12741097449928, 39.21145537890372], [39.124648006184565, 39.21062241580052], [39.124499321728024, 39.202447494744476], [39.121809837951304, 39.2017342941587], [39.12159618106306, 39.197945039464116], [39.11921110615859, 39.19755005929254], [39.118697201670734, 39.19569526685175], [39.11609585762062, 39.195095617297774], [39.11579840717496, 39.1934454209582], [39.11108251034476, 39.19334556982197], [39.11000488480629, 39.191198270894155], [39.107242915044395, 39.19036489067261], [39.107174529157376, 39.18314758453618], [39.10999083426229, 39.18218411213273], [39.10997884511854, 39.17320778020823], [39.107478035542485, 39.17268275507346], [39.10630453274615, 39.16972993436655], [39.10746925349481, 39.16691279964127], [39.10996626943485, 39.16641473882743], [39.11025479748154, 39.16251119060138], [39.11285296638799, 39.1619064295113], [39.11324263903846, 39.15789623049869], [39.11573929537887, 39.15739804574404], [39.116809472057916, 39.155248643533], [39.1215224728782, 39.15513938129688], [39.12151472915495, 39.15063693884541], [39.114068908985786, 39.15058470786099], [39.11283138225799, 39.14839288813522], [39.07811744762854, 39.148421324358395], [39.078122425399265, 39.15292377448243], [39.08024250330463, 39.153151684969565], [39.0810183552772, 39.1551745765207], [39.083836184119875, 39.15613343624221], [39.083564940420054, 39.16174192955516]], [[39.09078272004579, 39.1663299262647], [39.090194039607034, 39.162080871805735], [39.09442102196785, 39.16202726382315], [39.09574111368335, 39.1644506225449], [39.10077536411534, 39.16456772181769], [39.10158461910331, 39.167872760002396], [39.09657359004658, 39.16857804505304], [39.095253392344, 39.1661546976132], [39.09078272004579, 39.1663299262647]]], [[[39.121545850416936, 39.16640634436823], [39.12154972255278, 39.168656006151274], [39.124439717689555, 39.16865295595797], [39.12443575348946, 39.166403294417925], [39.121545850416936, 39.16640634436823]]], [[[39.12156912184557, 39.179922947165664], [39.1215768771133, 39.184425366915505], [39.12446751787935, 39.18442231501847], [39.124459578221675, 39.179919895755155], [39.12156912184557, 39.179922947165664]]], [[[39.057920738907264, 39.21601616506971], [39.0579336978438, 39.23178231726854], [39.060826285724715, 39.231780842705824], [39.06174513662991, 39.22968876449292], [39.066617322117864, 39.22952492512279], [39.06701213270454, 39.227767674432165], [39.06951159000819, 39.22727048348576], [39.06980483134851, 39.225619824488305], [39.072405672710204, 39.22501596923291], [39.07332409180283, 39.2229237976428], [39.081091993307574, 39.222757494144034], [39.081089405030866, 39.22050785049525], [39.07870379196664, 39.220112043182404], [39.07819078707601, 39.21825707826964], [39.07558895311439, 39.21765652712388], [39.075292354226285, 39.21600623286556], [39.057920738907264, 39.21601616506971]], [[39.061167097626345, 39.22480530262973], [39.06221725517221, 39.220543876426426], [39.065812652541695, 39.22057174760174], [39.067013270540535, 39.22156535570895], [39.065216279474626, 39.22499579823219], [39.061167097626345, 39.22480530262973]]], [[[39.06659790527782, 39.20474774033292], [39.06660428546482, 39.2115029042143], [39.07528753936429, 39.211497616297166], [39.075796429298755, 39.209641973170235], [39.07818079041557, 39.20924295325598], [39.07895267153502, 39.207219023214975], [39.08107385644472, 39.20698821767935], [39.08107127019809, 39.20473856792227], [39.07825153668064, 39.20377965131589], [39.07817080512557, 39.20023502929502], [39.06948893841656, 39.2002405308513], [39.06928554086784, 39.20403012953962], [39.06659790527782, 39.20474774033292]]], [[[39.06655116123483, 39.155186843168146], [39.066555403004564, 39.15968928920068], [39.07233866012191, 39.15968584298956], [39.07233174338921, 39.152930619683076], [39.069442387023344, 39.15293237705204], [39.06893373646706, 39.15478801032021], [39.06655116123483, 39.155186843168146]]], [[[39.05795223446853, 39.25431286435901], [39.0579540864602, 39.25656249601811], [39.06084769232858, 39.25656102016155], [39.06084574786843, 39.25431138861993], [39.05795223446853, 39.25431286435901]]]]}}