{"type": "Feature", "properties": {"fire_id": "EGE_2019_01", "fire_date": "2019-07-11", "province": "Muğla", "region": "Ege", "modis_area_ha": 1414}, "geometry": {"type": "MultiPolygon", "coordinates": [[[[28.979632905052423, 36.73903456105857], [28.979748561560083, 36.74353616784682], [28.98534207025419, 36.743442947068054], [28.98528411568173, 36.741193705209305], [28.982969034816968, 36.740834774775635], [28.982427569308697, 36.73898802325844], [28.979632905052423, 36.73903456105857]]], [[[28.962896182614408, 36.74153047561098], [28.96569370252545, 36.741515918398854], [28.966140122541525, 36.73965276001501], [28.968434802620063, 36.739217268893114], [28.968377350224362, 36.73696800246152], [28.965582735513916, 36.73701420816053], [28.965136314280656, 36.73887736517728], [28.962841622670847, 36.739312792928324], [28.962896182614408, 36.74153047561098]]], [[[28.88882510359731, 36.803604620017644], [28.888880368572053, 36.805853966666064], [28.89679928514726, 36.806125432067546], [28.897394856977233, 36.810225040761594], [28.908556666965037, 36.81004792377256], [28.90904409194556, 36.80818276346713], [28.91232356714569, 36.80716905574788], [28.919744564862214, 36.80761290861533], [28.92104368524439, 36.80536613505258], [28.936494440618294, 36.80508793459031], [28.9370618272336, 36.80313381760181], [28.942039533711117, 36.80274416951282], [28.943024609711014, 36.80057922859912], [28.950385089702273, 36.80035424094162], [28.95032803729738, 36.798104973358086], [28.947506421633346, 36.796930201391596], [28.947713521406484, 36.794240515151785], [28.950213715117577, 36.79359711442448], [28.950045209429145, 36.78687467704132], [28.947248799966342, 36.785799084859406], [28.94690018537176, 36.773374660556954], [28.9445842745236, 36.77301500786916], [28.944043460246974, 36.77116807045884], [28.936252511547586, 36.770986727547296], [28.935587527087286, 36.76905266827737], [28.932896644102705, 36.768260267750456], [28.932635391801888, 36.764592464930274], [28.927079514314073, 36.764684169534135], [28.926632024644054, 36.76654720578388], [28.924336263966723, 36.76698191902197], [28.92363834204675, 36.76901713466555], [28.921592850039318, 36.769279609132376], [28.92066373045274, 36.77369681335906], [28.917598043033852, 36.774452758408046], [28.907705804694036, 36.77400985033052], [28.907599422232597, 36.77780200179524], [28.905017394398964, 36.77855961868848], [28.905034181233727, 36.78448318756169], [28.902383221200967, 36.78539342998518], [28.902439995339027, 36.78761111189174], [28.905189924999554, 36.7885281723816], [28.90535199919295, 36.792071150343695], [28.907668338615878, 36.792431555006964], [28.9089280517524, 36.79506683187855], [28.908158089710767, 36.8003263501128], [28.89157070933575, 36.80130763557913], [28.89112217973151, 36.80317055807157], [28.88882510359731, 36.803604620017644]]]]}}