{"type": "Feature", "properties": {"fire_id": "EGE_2024_07", "fire_date": "2024-08-17", "province": "İzmir", "region": "Ege", "modis_area_ha": 414}, "geometry": {"type": "MultiPolygon", "coordinates": [[[[27.67325430848677, 38.13714973556578], [27.675609552361596, 38.1375653563252], [27.676850678688968, 38.14021530775811], [27.676192330024076, 38.14617702413827], [27.683534868535396, 38.146194289182475], [27.68477220334282, 38.148380446448705], [27.693327321034257, 38.148330257266466], [27.694323875738228, 38.145842367774044], [27.69901184392809, 38.14604343570825], [27.69868674887743, 38.142344706052924], [27.701821594734835, 38.14152042194502], [27.702151482153923, 38.13945763875054], [27.69858942676189, 38.13836291807809], [27.698904405985818, 38.13478152867698], [27.69605585632038, 38.13479844243738], [27.696850400760503, 38.13824080357624], [27.695724864850707, 38.14106398966346], [27.69326731702188, 38.14157433006592], [27.692992498093112, 38.143226713514295], [27.690435797596027, 38.1438441389459], [27.689548707311307, 38.14594129821529], [27.68550781309456, 38.145896747080826], [27.684705117795026, 38.14162455330878], [27.679947322471488, 38.14162572905052], [27.678596364031534, 38.14060816179536], [27.679561160225504, 38.13712302450719], [27.68466298112777, 38.137115425094265], [27.685148900447306, 38.13525696840729], [27.687494424677414, 38.13484575356468], [27.687473318214458, 38.132595850408634], [27.682673645074093, 38.13246265933937], [27.681747545378617, 38.13037608398566], [27.67889915665779, 38.13039258011357], [27.678413108838274, 38.13225101366877], [27.67606761374374, 38.132662047053095], [27.675323675363014, 38.13469007520286], [27.673235895482716, 38.13493144650412], [27.67325430848677, 38.13714973556578]]], [[[27.70430515931696, 38.13906321537326], [27.70785311822484, 38.13904188823382], [27.707483596741078, 38.136983302510906], [27.70463496672311, 38.13700042513535], [27.70430515931696, 38.13906321537326]]], [[[27.71001414471962, 38.1394103750938], [27.71115622095528, 38.14252841973213], [27.71047115270185, 38.15048093229738], [27.712824750195125, 38.15086418072322], [27.713346183356354, 38.1527166307982], [27.716195419170017, 38.15269929091314], [27.717502262252264, 38.15012740943043], [27.72758569769672, 38.15037615808633], [27.727563348024752, 38.148126280385775], [27.717498468908992, 38.148789900878654], [27.71350374258786, 38.147916286482754], [27.71248101824105, 38.142515439876185], [27.71356211604744, 38.13938887535827], [27.71001414471962, 38.1394103750938]]], [[[27.715715726451094, 38.13899424338022], [27.718915906582072, 38.13916391128294], [27.71887297166593, 38.13466107051065], [27.716023196872257, 38.13467842782476], [27.715715726451094, 38.13899424338022]]], [[[27.72137663411977, 38.13445335490454], [27.727429086325632, 38.134605240916905], [27.727406754102507, 38.132355357081735], [27.72462054128169, 38.13141157420205], [27.724509838379728, 38.127866996490226], [27.7216615732419, 38.1278845284741], [27.72137663411977, 38.13445335490454]]], [[[27.724446976038482, 38.12110798241912], [27.72446920842421, 38.123357872049475], [27.727317295923722, 38.12334027375532], [27.727294976155115, 38.1210903855388], [27.724446976038482, 38.12110798241912]]], [[[27.72462515038914, 38.13913193768656], [27.72464740262766, 38.141381820307245], [27.727496190507264, 38.14136421068363], [27.727473850807854, 38.13911432947747], [27.72462515038914, 38.13913193768656]]], [[[27.68707612153827, 38.08978845148208], [27.687097183429223, 38.09203837126076], [27.69279485141746, 38.092005898668624], [27.692773666610353, 38.089755000523894], [27.68707612153827, 38.08978845148208]]], [[[27.69305693612716, 38.093983480715394], [27.69284137467917, 38.096510941753785], [27.70139042745465, 38.09646022317189], [27.70112687602824, 38.093935607216885], [27.69718119850617, 38.09483718740879], [27.69305693612716, 38.093983480715394]]], [[[27.701593338303674, 38.092228864916684], [27.707048991952252, 38.09192001584693], [27.707378530941405, 38.08985720427373], [27.701329797371987, 38.089704247527656], [27.701593338303674, 38.092228864916684]]], [[[27.70953072646351, 38.08946269635469], [27.712728732328543, 38.08963255570336], [27.712706886668308, 38.087382647328525], [27.70986018565325, 38.08739987776022], [27.70953072646351, 38.08946269635469]]], [[[27.70742228322595, 38.13022427435769], [27.707444000273714, 38.13247416886339], [27.710292452629087, 38.13245697983918], [27.71027064815769, 38.130207086714336], [27.70742228322595, 38.13022427435769]]], [[[27.6442158861994, 38.078765442219], [27.64423562648167, 38.08101538583428], [27.647429802401657, 38.08080861917173], [27.64682049661432, 38.078474985302414], [27.6442158861994, 38.078765442219]]], [[[27.64728813167956, 38.076768443451016], [27.649892658238752, 38.076477919094984], [27.649872747867434, 38.07422797625345], [27.6470265196916, 38.07424368007076], [27.64728813167956, 38.076768443451016]]], [[[27.64958882221019, 38.08117823962158], [27.64997636416807, 38.08549009165828], [27.652066896874672, 38.085707899743824], [27.652846995414116, 38.087727335751985], [27.655630642578966, 38.08867285175039], [27.656078576716745, 38.09129199810452], [27.652887102952317, 38.09223653127347], [27.65290487085646, 38.094454845287416], [27.655560510408755, 38.09518786131089], [27.655798329328597, 38.098976670385404], [27.658150000161108, 38.099361035537086], [27.658669669574405, 38.10121376069301], [27.66587746220437, 38.100571423857275], [27.66931429071755, 38.10138299684792], [27.67011561502769, 38.10565533740763], [27.67290016224442, 38.10660043303561], [27.673008323063502, 38.11014509610237], [27.675855928813423, 38.11012875012198], [27.676341903413977, 38.10827032094818], [27.678686618760867, 38.107859287747104], [27.6786032828239, 38.09885028822134], [27.673958108579093, 38.098772562741466], [27.67288042160101, 38.09663004956863], [27.669997181383916, 38.09616980068522], [27.66998826650354, 38.09214027240412], [27.66742218401757, 38.09155250011051], [27.667141174292862, 38.08873676092676], [27.668641232431927, 38.08764659368379], [27.68134975987136, 38.08756553271997], [27.68183545422666, 38.08570707644883], [27.684179418193544, 38.085295939185144], [27.6841584508124, 38.083046015443706], [27.68131190065879, 38.083062552755905], [27.680568589955517, 38.08509062504129], [27.67717232469741, 38.085331569862596], [27.675694499483356, 38.0843871270838], [27.675586265604338, 38.08084245187994], [27.67273979582584, 38.08085878077058], [27.67104816530774, 38.08312005435623], [27.667815509264212, 38.08291063365577], [27.667035053587096, 38.08089129869795], [27.66418857693898, 38.08090742049643], [27.663857858829957, 38.08297012505005], [27.66677469410297, 38.08374520056981], [27.66705566782978, 38.086560943319405], [27.665883993662806, 38.0875975279082], [27.662939772709105, 38.08766587651351], [27.66146208051867, 38.08672125386037], [27.6613557697122, 38.083176601828285], [27.654181380523823, 38.08318917937898], [27.652782988022913, 38.080971327534144], [27.64958882221019, 38.08117823962158]]], [[[27.67908707392406, 38.15066969168862], [27.679107936451487, 38.152919591841396], [27.681957200963545, 38.15290308244033], [27.68193625092182, 38.150653183613585], [27.67908707392406, 38.15066969168862]]], [[[27.667674600065308, 38.15073512240915], [27.667695112049223, 38.152985027817735], [27.670544385814537, 38.15296879525026], [27.67052378631522, 38.15071889114548], [27.667674600065308, 38.15073512240915]]], [[[27.656080487287888, 38.13052223886892], [27.65610062848812, 38.13277215731321], [27.660747949037827, 38.13285056875661], [27.661825831256735, 38.13499317843072], [27.66439339634613, 38.13558105500555], [27.665470548895687, 38.138289869432526], [27.664760103650334, 38.14398914996676], [27.66760902921694, 38.143972991807765], [27.6675064252785, 38.132711007001525], [27.662706768775518, 38.13257699980776], [27.66178123372957, 38.13049026183881], [27.656080487287888, 38.13052223886892]]], [[[27.650515799879713, 38.14632514488107], [27.650555793114002, 38.1508280816382], [27.65625812599775, 38.15079635845948], [27.65756705083804, 38.148225123893454], [27.661944023162246, 38.14851131952706], [27.661923691110427, 38.14626140977311], [27.650515799879713, 38.14632514488107]]], [[[27.607609021535044, 38.133036095441625], [27.607739804226917, 38.14880429426347], [27.610588948731333, 38.14878951749328], [27.609798328038547, 38.14534654476712], [27.61082807399593, 38.142631230158884], [27.61472774812163, 38.141406562399375], [27.616565304173374, 38.142219662540924], [27.616336957462572, 38.153265767281034], [27.619186270931532, 38.15325078049774], [27.619320232411095, 38.14495369246663], [27.62457865818716, 38.144485833062745], [27.624987635942723, 38.14041739711684], [27.62797818041252, 38.139496071710155], [27.627591600533044, 38.13518417774842], [27.62549972162306, 38.134965947706434], [27.624719852656305, 38.13294634409935], [27.62157081107505, 38.13215744931187], [27.62218035124548, 38.1286427481239], [27.6162498070158, 38.12764870042149], [27.615334731114004, 38.12517229764599], [27.616029933160792, 38.11722021712212], [27.61318201854627, 38.11723511550659], [27.61359870684657, 38.12531877429734], [27.610405195278087, 38.126262165539735], [27.61037782124943, 38.13206073303771], [27.607609021535044, 38.133036095441625]], [[27.613285465956512, 38.1374759091164], [27.612907359376248, 38.13557819312994], [27.6155816012202, 38.13522259460246], [27.615827852445783, 38.13733512627201], [27.613285465956512, 38.1374759091164]]], [[[27.624334162685475, 38.12824978929715], [27.627533697372378, 38.128421953222734], [27.627514436100373, 38.12617202050941], [27.624666179946146, 38.126187200268355], [27.624334162685475, 38.12824978929715]]], [[[27.63013883967934, 38.13986603159042], [27.630506207128256, 38.141924878949375], [27.63583814182017, 38.14206059063637], [27.636492922350886, 38.146675011147536], [27.640442157213993, 38.14577544522162], [27.644805910287616, 38.146353521508786], [27.64478610615502, 38.144103603231805], [27.640102379184928, 38.1443580955085], [27.639060692150686, 38.14188175673846], [27.636074447747905, 38.14131842659353], [27.63616877081212, 38.13739117888031], [27.633320083376073, 38.137406572262506], [27.632832832922094, 38.13926482570795], [27.63013883967934, 38.13986603159042]]], [[[27.63602461261259, 38.148381495980686], [27.630216364897496, 38.14887816322233], [27.63060318271739, 38.15319003654627], [27.63915895613972, 38.15314378784405], [27.639139320654486, 38.15089386968387], [27.636786086433624, 38.15050914114162], [27.63602461261259, 38.148381495980686]]], [[[27.628055438792543, 38.14850820765268], [27.627688104515695, 38.14644935461576], [27.625076288189344, 38.146187135382014], [27.624858253338306, 38.14871447144077], [27.628055438792543, 38.14850820765268]]], [[[27.627034606924465, 38.069810970536345], [27.630243592224744, 38.070752202472626], [27.62994481427537, 38.076586533654414], [27.641341910376536, 38.07652489192367], [27.641302588526166, 38.07202188988745], [27.636947464206653, 38.072647287935744], [27.63253062596554, 38.071379915220035], [27.632694124644438, 38.065309050515864], [27.629848232482363, 38.06532433531634], [27.62936134678955, 38.06718259366077], [27.62701763702926, 38.06759263641808], [27.627034606924465, 38.069810970536345]]], [[[27.606956509296282, 38.05417891937154], [27.607030927566043, 38.06318811428663], [27.61705191886555, 38.0631634642834], [27.618448891714394, 38.06538176031913], [27.624144621910542, 38.06535165290214], [27.62412550797019, 38.06310169451962], [27.621343229737867, 38.062155416168004], [27.621237666071657, 38.05861065419611], [27.610895926021954, 38.05856039541596], [27.60980198219003, 38.05416419245747], [27.606956509296282, 38.05417891937154]]]]}}