{"type": "Feature", "properties": {"fire_id": "EGE_2021_08", "fire_date": "2021-08-14", "province": "İzmir", "region": "Ege", "modis_area_ha": 315}, "geometry": {"type": "MultiPolygon", "coordinates": [[[[26.550053313319214, 38.47170963670273], [26.55003933023705, 38.473959502272855], [26.558633150617407, 38.47399219662402], [26.558660600110407, 38.469489351553655], [26.555798805308086, 38.469478535211515], [26.55456301726035, 38.47166710847759], [26.550053313319214, 38.47170963670273]]], [[[26.484267946884557, 38.45341428059696], [26.484219846358286, 38.460170045935875], [26.486576857123893, 38.460577890721524], [26.487069240644455, 38.462435582554434], [26.491888206928653, 38.46261775676178], [26.492784344630262, 38.46471349172608], [26.497882702665127, 38.465043856353496], [26.498499810460103, 38.46699112366246], [26.507092740254127, 38.46702759341161], [26.507323522790355, 38.46323863866222], [26.509988861320547, 38.462533688389115], [26.510049799976358, 38.45352493158579], [26.50739453293733, 38.4527976678883], [26.50721535134984, 38.44900697971082], [26.50443300019196, 38.44803428336474], [26.50438125386949, 38.4444889581606], [26.50152046886714, 38.44447682250068], [26.500283481547896, 38.44666482449923], [26.49577532495058, 38.44670527372861], [26.494697266026115, 38.44884920698561], [26.4900298300497, 38.44893343996318], [26.489511314486833, 38.45078672085491], [26.487148977545868, 38.45117389674908], [26.486368682472023, 38.45319413253699], [26.484267946884557, 38.45341428059696]]], [[[26.443897486750085, 38.48702491810065], [26.443880195264118, 38.48927474108124], [26.44623791487876, 38.489683400875315], [26.446729450182033, 38.49154124684927], [26.44959207009336, 38.49155473402144], [26.44962632239655, 38.48705197683994], [26.443897486750085, 38.48702491810065]]]]}}