{"type": "Feature", "properties": {"fire_id": "EGE_2023_01", "fire_date": "2023-07-27", "province": "İzmir", "region": "Ege", "modis_area_ha": 1251}, "geometry": {"type": "MultiPolygon", "coordinates": [[[[27.361414085093447, 39.1028315181402], [27.3614370774983, 39.107333917975794], [27.36432451529303, 39.10732493054197], [27.364511841407094, 39.10353481967571], [27.367192564184375, 39.10281035456755], [27.367169209417202, 39.09830795411125], [27.364282140347296, 39.09831701026328], [27.364094813554072, 39.10210712414821], [27.361414085093447, 39.1028315181402]]], [[[27.32958935708406, 39.098420243339596], [27.329599831519005, 39.10066989919889], [27.332487007220077, 39.100661701432905], [27.332476441036953, 39.09841204622701], [27.32958935708406, 39.098420243339596]]], [[[27.24264834728224, 39.037807762789704], [27.24265604210158, 39.04005745918814], [27.245471456448534, 39.04101243818932], [27.245560353160887, 39.04455701825897], [27.24794096381232, 39.04494943681781], [27.248457141416072, 39.04680370082568], [27.256489484602085, 39.047094687105115], [27.25714043785197, 39.05129051170957], [27.25995649207445, 39.05224513708273], [27.260046129911323, 39.05578969678564], [27.26475304218849, 39.055883551714864], [27.265833277950325, 39.058029461848676], [27.26843083138446, 39.05862579588994], [27.2686595203288, 39.061570848692895], [27.265850186107812, 39.06253815272327], [27.265858624123485, 39.06478783550252], [27.282172924337452, 39.064187381906386], [27.2857948521713, 39.06534296602549], [27.28610480723581, 39.06924553823625], [27.29188060637322, 39.06923122503024], [27.291999467701324, 39.06556128411923], [27.29475175856511, 39.06471838914321], [27.295379546252732, 39.062772364537025], [27.302017815484355, 39.062474516156456], [27.303424860891244, 39.06469614590958], [27.311459432989068, 39.06498333673562], [27.312123731302453, 39.07143160668325], [27.315009720307824, 39.07142384653319], [27.31551132514473, 39.06956713813522], [27.317889588668145, 39.06916322676845], [27.318653093304963, 39.06713769086036], [27.320769273301618, 39.066902535774496], [27.32114666830637, 39.0628916220608], [27.32363848790994, 39.06238899488584], [27.323607650048153, 39.05563376113996], [27.321226271842065, 39.055242890882], [27.320708130741874, 39.05338895953391], [27.315701062364035, 39.053173266305826], [27.31491964693931, 39.05115192101772], [27.312321983501555, 39.05055662207606], [27.312020585433658, 39.04890689981119], [27.30138195310349, 39.04877371574461], [27.300454800611334, 39.04668445293527], [27.29785742038768, 39.046088830253225], [27.297556378201183, 39.04443906794899], [27.290121652556405, 39.04439804071101], [27.288880558838773, 39.04220806172082], [27.278557276741875, 39.042173415295885], [27.277316578646296, 39.03998331097021], [27.272173656908755, 39.039687051354186], [27.271530546986202, 39.03774410481385], [27.261207914168462, 39.03770792051165], [27.259967829494332, 39.035517627850425], [27.257371193454805, 39.034921099852944], [27.257071141060152, 39.033271226474355], [27.2541866899421, 39.03327754764092], [27.252962535694774, 39.03547327293213], [27.24841770336163, 39.03554279772609], [27.24735331862754, 39.037693435141065], [27.24264834728224, 39.037807762789704]]], [[[27.32094677626263, 39.105202732001835], [27.320956978500302, 39.10745238716771], [27.323844433378735, 39.10744440226902], [27.323834139361622, 39.105194747739525], [27.32094677626263, 39.105202732001835]]], [[[27.315043770265735, 39.07818527191343], [27.315053775231835, 39.08043493882314], [27.320830471031986, 39.080419188069456], [27.320820282626556, 39.07816952241535], [27.315043770265735, 39.07818527191343]]], [[[27.312213096897136, 39.091709681998985], [27.312223016745236, 39.09395934428565], [27.314605649636224, 39.09435039064203], [27.315123938164078, 39.09620433548793], [27.318010935888786, 39.096196496938795], [27.31798059774318, 39.089441298745186], [27.31509387542601, 39.08944913541836], [27.314592122353893, 39.091305836304855], [27.312213096897136, 39.091709681998985]]], [[[27.312262775784706, 39.10297352235625], [27.312272701190864, 39.10522318027358], [27.315160067560903, 39.10521541082622], [27.315150050385167, 39.10296575352812], [27.312262775784706, 39.10297352235625]]], [[[27.265960105705012, 39.09182435897717], [27.266009148692362, 39.094075491589145], [27.26885547955522, 39.09406740928793], [27.26992004786926, 39.09191659577922], [27.275821863446485, 39.09120928397694], [27.28585052196423, 39.09199440689096], [27.285930335689518, 39.09601291751996], [27.280432038209423, 39.096296045020566], [27.28044094975154, 39.09854571200221], [27.289110229939606, 39.09852453740119], [27.289397818507055, 39.096873307823245], [27.291992025607268, 39.09626456036969], [27.292182835745376, 39.094393210502886], [27.293661090715258, 39.0936634950886], [27.29790109705498, 39.094576267698805], [27.29778747695101, 39.09850269783691], [27.303565656258638, 39.098487796668536], [27.30355600991164, 39.09623813430307], [27.300261794711776, 39.09519497962045], [27.300636322028176, 39.08948730848186], [27.29838041934716, 39.08918473238506], [27.297736134157553, 39.087241951357605], [27.29513728741078, 39.08664627793615], [27.294836130180414, 39.084996520521734], [27.29245391892075, 39.084605067919384], [27.291692442753728, 39.08247551964309], [27.2890498534827, 39.08275820685645], [27.2887623120738, 39.084409439394435], [27.28616851041898, 39.08501811470627], [27.285104538952154, 39.087169076913504], [27.277505721107993, 39.08729185354411], [27.27648187865716, 39.08977592559569], [27.268842372200364, 39.089564949871956], [27.26833940439893, 39.091421456064445], [27.265960105705012, 39.09182435897717]]], [[[27.292174861267725, 39.0807706160464], [27.294817363520757, 39.08048785824802], [27.294808001166285, 39.07823818711976], [27.291921729189742, 39.07824544837359], [27.292174861267725, 39.0807706160464]]], [[[27.300697713189926, 39.10300392381068], [27.300707271009372, 39.105253584151264], [27.30359464176569, 39.10524610112379], [27.30358499217613, 39.102996441379624], [27.300697713189926, 39.10300392381068]]], [[[27.27458888645619, 39.0805403546404], [27.274597607422802, 39.08279002883251], [27.277484068928977, 39.08278319571086], [27.277475256293865, 39.08053352206346], [27.27458888645619, 39.0805403546404]]], [[[27.263119519399105, 39.10534758096897], [27.26312788348463, 39.10759724768028], [27.274689746591868, 39.10757057970152], [27.274663530626906, 39.10081536824385], [27.271776333284798, 39.10082213413671], [27.27076071457855, 39.10555892515167], [27.263119519399105, 39.10534758096897]]], [[[27.257222186062364, 39.07382154259802], [27.25723035351058, 39.07607122256218], [27.260116545367715, 39.076064820267426], [27.260108286281096, 39.07381514081366], [27.257222186062364, 39.07382154259802]]], [[[27.245646209755154, 39.06934088740389], [27.245654008395, 39.07159057110113], [27.251430017926847, 39.071578260704214], [27.251422035923923, 39.06932857798837], [27.245646209755154, 39.06934088740389]]], [[[27.24862307932058, 39.094115414627424], [27.248630979434004, 39.096365088233455], [27.251518000355627, 39.0963588960879], [27.251510008511037, 39.09410922297542], [27.24862307932058, 39.094115414627424]]], [[[27.24558945527267, 39.05353659265765], [27.24847683585003, 39.053562105238726], [27.248468952658943, 39.05131241504606], [27.245583765931823, 39.05131852584392], [27.24558945527267, 39.05353659265765]]], [[[27.236976484339415, 39.06935882731435], [27.23698400774401, 39.07160851244192], [27.23987002226862, 39.071602611814896], [27.23986240724539, 39.06935292715773], [27.236976484339415, 39.06935882731435]]], [[[27.23129227810371, 39.09865667807546], [27.231299628714385, 39.100906352781166], [27.234186838539962, 39.10090058921831], [27.23417939617693, 39.09865091497199], [27.23129227810371, 39.09865667807546]]], [[[27.222618954754537, 39.09867356128457], [27.22262602972733, 39.10092323733605], [27.225513241992605, 39.10091768855969], [27.22550607526716, 39.09866801295046], [27.222618954754537, 39.09867356128457]]], [[[27.20818327647, 39.10545862077901], [27.208189894268212, 39.10770829634098], [27.21392827565347, 39.107699461697635], [27.214881576404704, 39.1056045181085], [27.219744827831004, 39.1054342951163], [27.219737843299658, 39.10318462037271], [27.216920297474864, 39.102229036449366], [27.216832747121895, 39.0986844657303], [27.214073145946372, 39.097853597724075], [27.213684417029206, 39.0939085744436], [27.21104108137645, 39.09418949532054], [27.2110524149602, 39.09866033674556], [27.213740955565257, 39.099403122620465], [27.213822670888902, 39.102359651917574], [27.21106794675181, 39.103200638356974], [27.210300977847563, 39.10522546761108], [27.20818327647, 39.10545862077901]]], [[[27.214168791596308, 39.092203991135584], [27.21681204042531, 39.09192299949905], [27.216791359713707, 39.085167740522174], [27.213904787916352, 39.08517307153255], [27.214168791596308, 39.092203991135584]]], [[[27.20232967334819, 39.08068812247395], [27.20233609940096, 39.08293780844641], [27.205222582246382, 39.082932764062825], [27.205216064522492, 39.08068307849249], [27.20232967334819, 39.08068812247395]]]]}}