{"type": "Feature", "properties": {"fire_id": "EGE_2022_02", "fire_date": "2022-07-13", "province": "Muğla", "region": "Ege", "modis_area_ha": 695}, "geometry": {"type": "MultiPolygon", "coordinates": [[[[27.548626952798514, 36.70916544212058], [27.548658976389216, 36.71366956041686], [27.550967126508635, 36.71405650764647], [27.551474237025193, 36.715910237156606], [27.556325988668622, 36.716117103956456], [27.557088974454732, 36.71813777692566], [27.559607664233752, 36.718728479355356], [27.55990464208017, 36.720378249157875], [27.564614812617076, 36.72051722148134], [27.565519944621816, 36.72260538473606], [27.56831555249179, 36.722592069524666], [27.569535523882898, 36.720035455279536], [27.576697101498866, 36.72029807500453], [27.576869013412576, 36.71650621527451], [27.579464319951516, 36.71574563246321], [27.57944572563121, 36.7135267895592], [27.576770113006766, 36.712703487471515], [27.576748902869248, 36.70986570566649], [27.579411858664646, 36.70901647767791], [27.580144940401993, 36.70698866530807], [27.582193827668835, 36.706749219848355], [27.582795045603557, 36.704801084705565], [27.58497563324337, 36.70448189759265], [27.585576763894867, 36.702533748441034], [27.587757275406844, 36.702214510926886], [27.588490075035775, 36.700186647382345], [27.59333738945753, 36.699933145146986], [27.593320093465213, 36.69768265311167], [27.59051311603467, 36.696342841257994], [27.590776553381406, 36.6937873339513], [27.593285435584747, 36.693172340408076], [27.593268145358845, 36.69092184579022], [27.591216201361853, 36.69070260870005], [27.59045260610074, 36.688682150672385], [27.587934672535237, 36.68809209128597], [27.587620085043255, 36.68418877852168], [27.582027807631608, 36.68421624449233], [27.580644617078864, 36.68680293561738], [27.573650324832194, 36.686510592658166], [27.5737378296244, 36.70412562316612], [27.5685622600253, 36.70406859302576], [27.56739411160349, 36.69899831344157], [27.56811645897002, 36.69555189585769], [27.565808781782366, 36.69516527594107], [27.5653014706343, 36.69331160282322], [27.562506921722342, 36.69332483824793], [27.562474941556385, 36.69912482188125], [27.559757524720776, 36.7000988707656], [27.559524129171677, 36.70887303184094], [27.548626952798514, 36.70916544212058]]], [[[27.548562882775496, 36.70015097779819], [27.548594892131202, 36.70465510297871], [27.551389857815188, 36.704642190668245], [27.551357685399207, 36.70013806759286], [27.548562882775496, 36.70015097779819]]]]}}