{"type": "Feature", "properties": {"fire_id": "EGE_2024_09", "fire_date": "2024-08-16", "province": "Aydın", "region": "Ege", "modis_area_ha": 393}, "geometry": {"type": "Polygon", "coordinates": [[[27.259880443970406, 37.40424835366645], [27.259888216397886, 37.406498674830125], [27.262216054373408, 37.40689110084893], [27.26272090876354, 37.40874586016848], [27.271191731721697, 37.40872673391654], [27.27168341573256, 37.406869725413834], [27.274008429560045, 37.406466794460385], [27.27366756904478, 37.40057560976656], [27.276808379727495, 37.399699932136805], [27.277556055875852, 37.39767414999393], [27.279624571887016, 37.397439857468484], [27.27981253483129, 37.393648776540005], [27.28243213981994, 37.39292628582827], [27.282803673122768, 37.38891437601891], [27.285239372403584, 37.38841264546871], [27.285222311530514, 37.38390888952896], [27.27957826395579, 37.38392236733409], [27.27929688478088, 37.385574030474594], [27.276762573468723, 37.3861824440396], [27.275566087827208, 37.38837891703278], [27.268298425472775, 37.38845540334637], [27.268306445085337, 37.39070572900733], [27.27113360140617, 37.39205290572499], [27.270857204528916, 37.39460746987181], [27.268322520227866, 37.39521570309603], [27.268654891155116, 37.39885348020688], [27.265514019541573, 37.39972894161513], [27.265022228703668, 37.40158592711697], [27.262697316337626, 37.40198868130235], [27.261949197470663, 37.404014369714105], [27.259880443970406, 37.40424835366645]]]}}