{"type": "Feature", "properties": {"fire_id": "EGE_2024_11", "fire_date": "2024-08-18", "province": "İzmir", "region": "Ege", "modis_area_ha": 341}, "geometry": {"type": "MultiPolygon", "coordinates": [[[[27.128364943451984, 38.130031013639396], [27.128368884176385, 38.132281074508505], [27.131217540551997, 38.132277927147676], [27.131213512378896, 38.13002786653142], [27.128364943451984, 38.130031013639396]]], [[[27.0856062948237, 38.15485482000754], [27.085614194181026, 38.16161119699777], [27.0941714700576, 38.16160464729363], [27.09467254297737, 38.15974859757099], [27.09702222111564, 38.1593491643122], [27.09778243460057, 38.15732476040445], [27.09987279654691, 38.15709361150803], [27.099869727876687, 38.154843557934356], [27.097519151207205, 38.15444801704427], [27.097013269902128, 38.152592786862236], [27.091310434139576, 38.152597358735164], [27.090406062973805, 38.154690039035984], [27.0856062948237, 38.15485482000754]]], [[[27.088709979094755, 38.1635890185946], [27.08847337775261, 38.1661154007557], [27.09132335412019, 38.16611321917875], [27.091080548427062, 38.16358720409131], [27.088709979094755, 38.1635890185946]]], [[[27.079860047274764, 38.11880811697685], [27.07987231689489, 38.13007088394717], [27.082334922294336, 38.130565003281404], [27.083164131033552, 38.13326883025403], [27.082246117327188, 38.134423970976], [27.079877231402072, 38.134580335997], [27.079879683985215, 38.13683039858833], [27.08273201733884, 38.138181881397706], [27.082446417946574, 38.140735695691916], [27.07988460013778, 38.14133984543454], [27.079889510609277, 38.145843072642904], [27.08223971651431, 38.14623896736042], [27.08274517953989, 38.14809426367855], [27.091300876763516, 38.14808792496079], [27.091500252471306, 38.144297606776256], [27.09415022257095, 38.14354770583586], [27.094142509016137, 38.139076113413594], [27.091679538370947, 38.13858224277744], [27.090539755887058, 38.13589389766813], [27.09127561758011, 38.127812510747155], [27.088925954299636, 38.12741679490529], [27.08842047846584, 38.12556151865176], [27.082919047490538, 38.124849354521984], [27.082362701384508, 38.121983227142096], [27.08556288154715, 38.12105417244093], [27.085560255956835, 38.11880410411409], [27.079860047274764, 38.11880811697685]]], [[[27.07992640293381, 38.17964358489263], [27.079931322729667, 38.18414678264776], [27.0822827592827, 38.18454267254642], [27.0827884897409, 38.18639795624355], [27.088493961023264, 38.18639379497739], [27.0884912391176, 38.18414375192353], [27.086139782028656, 38.183747986348365], [27.085633985052528, 38.18189271632384], [27.083069385849978, 38.18129218313823], [27.08277690681065, 38.179641610131384], [27.07992640293381, 38.17964358489263]]]]}}