{"type": "Feature", "properties": {"fire_id": "EGE_2024_02", "fire_date": "2024-08-16", "province": "İzmir", "region": "Ege", "modis_area_ha": 3296}, "geometry": {"type": "MultiPolygon", "coordinates": [[[[27.229506332948304, 38.54444572152569], [27.229513483994747, 38.54669561053357], [27.23237839866244, 38.54668995927499], [27.23237115835461, 38.54444007071954], [27.229506332948304, 38.54444572152569]]], [[[27.080291202481796, 38.510847814126855], [27.080296203704815, 38.515350756815536], [27.082959530917098, 38.516065028465064], [27.083169036442502, 38.51985480225445], [27.088138262777715, 38.52008054336932], [27.088907460973516, 38.52210360998369], [27.091484162332474, 38.52270396562418], [27.091778237662602, 38.52435441815027], [27.103246297593095, 38.52434486836144], [27.104965807420395, 38.52209187084763], [27.108216475853236, 38.52231673365729], [27.108986259749482, 38.52433966677702], [27.114718307976485, 38.5243341915852], [27.115221338584295, 38.52247816615504], [27.117582643777897, 38.522078327933], [27.118305394739586, 38.51296408219563], [27.125110691769052, 38.51316288352136], [27.126218796961115, 38.515311819468465], [27.131909862618826, 38.51530399341536], [27.132817503957487, 38.51321111644784], [27.136733659636665, 38.51320660954929], [27.13764910071668, 38.515297388126044], [27.14022596106802, 38.51589667169518], [27.14128934809169, 38.518610170834016], [27.140136357450814, 38.52156083148321], [27.137661979218908, 38.52205955250986], [27.1376662651188, 38.52430946172892], [27.14002904503679, 38.52470415091254], [27.140538644902776, 38.52655907084297], [27.145321808123853, 38.52657969340208], [27.146672557588268, 38.52760333792484], [27.14599071799615, 38.53045920870365], [27.14341568184746, 38.53106473009402], [27.143424621457754, 38.535567647483525], [27.145787800866, 38.53596221893165], [27.146297628845236, 38.53781710977816], [27.148535564855447, 38.538122692751976], [27.149170815183698, 38.54006650035202], [27.151272998672923, 38.54029317807577], [27.15204418049301, 38.5423158191882], [27.154521273433467, 38.5428083604515], [27.154917724793055, 38.54456506626975], [27.160651367176126, 38.5445573392921], [27.161153356119588, 38.54270112510188], [27.16351506466674, 38.542300361139226], [27.164569554508343, 38.53789730800832], [27.16772678951894, 38.53718645425706], [27.17784750728459, 38.537773438221166], [27.178901057935786, 38.533370254835575], [27.18251294432181, 38.53336468059619], [27.183582791299354, 38.53551157041831], [27.186447270725147, 38.53550704418753], [27.186424022973004, 38.52649811748696], [27.184322133212017, 38.52627206960833], [27.183550221498358, 38.5242496372895], [27.181073569779638, 38.523757707533925], [27.180670902855265, 38.51974709138687], [27.178288963566988, 38.51959700272217], [27.17736193214778, 38.51844399302298], [27.17898219131697, 38.51690541996565], [27.183533048744227, 38.51748749065973], [27.183547972309842, 38.509565011185074], [27.186377534587592, 38.5084708987245], [27.186365928995713, 38.50396797018094], [27.180635513778586, 38.50397694858924], [27.17972937290293, 38.506070195986254], [27.175509349900977, 38.50625979639988], [27.174897185889115, 38.50398565843247], [27.172062438913617, 38.502900212546045], [27.172003208408256, 38.49272478994951], [27.16703561196964, 38.49250260282025], [27.166264547280857, 38.49048004293719], [27.163688379366263, 38.48988132817501], [27.163392806105975, 38.488231049526036], [27.16052828876498, 38.48826664170649], [27.16054018680143, 38.49273795453507], [27.16320346727647, 38.493450404236995], [27.163282312249677, 38.49640728248891], [27.157683271642682, 38.49725100845801], [27.157614949964636, 38.50079620209137], [27.154825994051865, 38.501760882076454], [27.155599079445878, 38.50520677150334], [27.1542801178098, 38.506529706823606], [27.15234105366805, 38.50610575354821], [27.151919414007782, 38.50401616402724], [27.14622924198913, 38.50402496072231], [27.14532210367524, 38.50611794394852], [27.141261390903882, 38.50605471081435], [27.140477772030515, 38.49727290825152], [27.1381158864381, 38.49687822459196], [27.137606560165395, 38.49502328418747], [27.12988366116812, 38.495202681162795], [27.128998012648456, 38.49052701351187], [27.126636409362717, 38.490132097411355], [27.12612742525169, 38.48827710435269], [27.121616829172346, 38.48822211152478], [27.120390534081043, 38.48603010489622], [27.117528005484935, 38.48603301200169], [27.117538979850288, 38.49278899977922], [27.120014142036933, 38.49328227839168], [27.120413230441674, 38.4972921468799], [27.122794381193714, 38.49744439540864], [27.123717960167863, 38.49872773002945], [27.122894542830704, 38.501302952765485], [27.120420737518675, 38.50180131026294], [27.12022193358394, 38.50559144515686], [27.117560954772852, 38.50631027554748], [27.116957971002623, 38.50858593344663], [27.11190048142719, 38.50760789019287], [27.111953160298352, 38.5048956864424], [27.114686134676834, 38.504056988571506], [27.114684594435094, 38.501838698906205], [27.112019453350513, 38.501093517282456], [27.111808492488922, 38.497303785033665], [27.103211655312045, 38.497311676166795], [27.103147090183505, 38.50536289748468], [27.10183775584695, 38.50629747425609], [27.09748993959065, 38.50632870291061], [27.097286324085463, 38.51053869769856], [27.090276430185387, 38.51081301392707], [27.08888688496829, 38.508588577348235], [27.083196335449713, 38.50859120414011], [27.082652322488883, 38.510448679654196], [27.080291202481796, 38.510847814126855]], [[27.177729698949452, 38.51520955599074], [27.17736091670787, 38.51331052430192], [27.180051248844325, 38.51296482189023], [27.18028620890315, 38.51507817320829], [27.177729698949452, 38.51520955599074]], [[27.151992174951136, 38.51853965403911], [27.153326176921123, 38.51722016953539], [27.156961307848768, 38.51775549613519], [27.157444042251708, 38.52143228623241], [27.152763805014054, 38.5218114497816], [27.151992174951136, 38.51853965403911]], [[27.14631695532459, 38.511741785808404], [27.151425757912612, 38.51036322117355], [27.152696396430095, 38.51223219075766], [27.151220168662512, 38.51505438233638], [27.147471051710774, 38.51522877671888], [27.14631695532459, 38.511741785808404]]], [[[27.028691023163912, 38.54692016472695], [27.02870177192276, 38.57395316435046], [27.03419688975483, 38.574227819435], [27.034788525648036, 38.57189081733698], [27.031959428010268, 38.57120664155215], [27.031140395838303, 38.56837317872799], [27.035475140941664, 38.56685017524691], [27.037235449261782, 38.5678142529135], [27.03695870813185, 38.57150864393253], [27.041826293336488, 38.57175596819763], [27.043040777881735, 38.572916622636484], [27.042140661470224, 38.57604403599417], [27.034442867689435, 38.57620674650595], [27.034446033326173, 38.58296362368032], [27.054534431620894, 38.58295598787787], [27.05452591732344, 38.571694087234825], [27.051860817408873, 38.57097917697571], [27.051652803041158, 38.56718937918378], [27.049289112676718, 38.566792910168], [27.0487815707313, 38.56493760401785], [27.041727694561892, 38.56493226770941], [27.040248293310317, 38.56397989861875], [27.040303700993192, 38.56126775130836], [27.043039641820087, 38.56043073161994], [27.043040298048993, 38.558212460751626], [27.040244524098675, 38.55722087275762], [27.040165187884078, 38.551422817571144], [27.038063026527084, 38.551194145300954], [27.037294941276407, 38.549170754045946], [27.03471774462029, 38.54856920892491], [27.034423799639825, 38.5446656047149], [27.031558942528267, 38.544666411981936], [27.031053608032344, 38.546522072389806], [27.028691023163912, 38.54692016472695]]]]}}