{"type": "Feature", "properties": {"fire_id": "EGE_2020_01", "fire_date": "2020-08-02", "province": "İzmir", "region": "Ege", "modis_area_ha": 512}, "geometry": {"type": "MultiPolygon", "coordinates": [[[[27.20522474218938, 38.073592326459824], [27.20523732661021, 38.07809558115478], [27.215629695201276, 38.077514757203154], [27.21920128646456, 38.07867275179144], [27.219503159520176, 38.082576183595634], [27.225200516865517, 38.082565404366825], [27.225193615895602, 38.08031533617208], [27.222844763851086, 38.07992229284533], [27.22233623655596, 38.07806758599992], [27.21977416397112, 38.077470019725965], [27.219479032133354, 38.07581976495978], [27.216410812576544, 38.07513593456098], [27.216615357490962, 38.0713186920158], [27.213769079623447, 38.07132390319187], [27.21327161757273, 38.07318047928241], [27.20991537332618, 38.07414700856449], [27.20522474218938, 38.073592326459824]]], [[[27.210867132385836, 38.05330356619408], [27.210886519422218, 38.06006002194943], [27.213732361476794, 38.06005488186408], [27.21371271282375, 38.053298427349446], [27.210867132385836, 38.05330356619408]]], [[[27.20513038338608, 38.039794494952936], [27.205136660391105, 38.04204458166653], [27.207981806104534, 38.042039582788234], [27.207975442042027, 38.039789496476565], [27.20513038338608, 38.039794494952936]]], [[[27.14234785693736, 37.98581003262635], [27.14236091267207, 37.99256659111446], [27.144582158176156, 37.992872310884394], [27.145212525291793, 37.99481633064004], [27.14729903401693, 37.995043132210334], [27.148064312112158, 37.99706599980502], [27.15062300572051, 37.99766514473547], [27.15167904041406, 38.000376446734364], [27.150930127844134, 38.00607524708103], [27.153016972984506, 38.00630194606431], [27.1537825261007, 38.00832477198515], [27.156556809517607, 38.00928215212592], [27.156348676194867, 38.012228541851755], [27.153791946998393, 38.01283430579923], [27.153799326506146, 38.017305988574705], [27.15644726031281, 38.01805031791566], [27.1566590772095, 38.02184027829266], [27.158881264957362, 38.02214572441956], [27.159512262804277, 38.02408965645236], [27.161599644864097, 38.02431620123889], [27.16236562285184, 38.026338964123106], [27.164825299135067, 38.02683136971566], [27.16522421804104, 38.030841405515], [27.167446712780364, 38.03114668858802], [27.168078014876926, 38.03309057096628], [27.17063812355629, 38.03368927344916], [27.170931986243048, 38.03533966587289], [27.173019722082206, 38.03556600664377], [27.173786132158725, 38.037588690218115], [27.176246260473278, 38.0380808548511], [27.176645865332482, 38.04209084254593], [27.181287050829052, 38.042188240488166], [27.182349617396415, 38.044335339718465], [27.18481002821094, 38.04482732386782], [27.185210138188665, 38.04883727655294], [27.18798635797752, 38.04979390363591], [27.188071010212, 38.053339139414135], [27.190917836228135, 38.053334502186786], [27.191388145593695, 38.04889425566971], [27.19660351539658, 38.04881975517397], [27.196591531334583, 38.044315494734164], [27.19374629557064, 38.04432021819775], [27.19258101258141, 38.046851096413135], [27.188551456568373, 38.04618434626379], [27.18802674610463, 38.03756988599617], [27.185938908260066, 38.03734381205181], [27.18517216685676, 38.035321208460815], [27.182611884286786, 38.03472282306031], [27.182312177482583, 38.030819258983094], [27.177519943888825, 38.03066540428484], [27.176609476329048, 38.0285747522206], [27.174521928195947, 38.02834847446648], [27.173755595160713, 38.026325792318175], [27.17110922779508, 38.02561348583224], [27.170969198264043, 38.0205281662061], [27.173739626260154, 38.019563066679986], [27.173734314264124, 38.0173129672529], [27.17108827155015, 38.016600658416344], [27.17087572780212, 38.01281072235611], [27.168101126258975, 38.01185368133726], [27.168017491800324, 38.008308403688716], [27.165930544545258, 38.00808197120759], [27.165164660496686, 38.006059225039145], [27.162519104894688, 38.00534672088604], [27.16230207074905, 37.99930354517675], [27.160215396012394, 37.99907701030698], [27.159449763366585, 37.99705422325175], [27.156675903796593, 37.996096908433856], [27.156588050254005, 37.99029839198624], [27.154242434553662, 37.98990396440721], [27.15373626652094, 37.98804892689752], [27.148802949934023, 37.98782587511776], [27.14803774839762, 37.98580300898691], [27.14234785693736, 37.98581003262635]]], [[[27.19342130786416, 38.05352278270493], [27.193775983036076, 38.05558307470496], [27.1994712566449, 38.055573548417925], [27.19945903566185, 38.05107027481756], [27.19685208533353, 38.05079851338927], [27.19611577788608, 38.05293157911152], [27.19342130786416, 38.05352278270493]]], [[[27.19380570345864, 38.066852125776], [27.19381163969274, 38.06910220365758], [27.19665783504424, 38.069097476009695], [27.19665181163571, 38.066847398508145], [27.19380570345864, 38.066852125776]]], [[[27.12818579554809, 38.02860277392161], [27.131032453640717, 38.02863126987699], [27.131028446086166, 38.02638116945711], [27.128183894813546, 38.02638430493409], [27.12818579554809, 38.02860277392161]]]]}}