{"type": "Feature", "properties": {"fire_id": "EGE_2017_02", "fire_date": "2017-07-27", "province": "İzmir", "region": "Ege", "modis_area_ha": 1167}, "geometry": {"type": "MultiPolygon", "coordinates": [[[[27.860312247320703, 38.275654701131444], [27.860338795672376, 38.27790445740788], [27.863192815901257, 38.27788349411609], [27.863166179506777, 38.275633739521524], [27.860312247320703, 38.275654701131444]]], [[[27.851607049536298, 38.26445289730311], [27.85165962713876, 38.26895553550482], [27.85401774316014, 38.26933589346644], [27.85454364511146, 38.27118762864564], [27.857397406791986, 38.27116680938877], [27.857344470796637, 38.26666417963058], [27.854986425343657, 38.26628388754894], [27.854460549902914, 38.26443215253666], [27.851607049536298, 38.26445289730311]]], [[[27.84985325256432, 38.35909359299795], [27.849879556689054, 38.36134332333187], [27.852736857776733, 38.36132257651353], [27.852710465243415, 38.35907284784293], [27.84985325256432, 38.35909359299795]]], [[[27.760284843555514, 38.27634552406526], [27.76030830593676, 38.27859533577058], [27.76480603598286, 38.278625866568106], [27.766048098514464, 38.28081106967696], [27.770857622806076, 38.280940745526756], [27.771788236412547, 38.28302651824037], [27.774361871757343, 38.283611911693455], [27.77467040733004, 38.28526059003654], [27.77714275030931, 38.285740034506745], [27.77762487691605, 38.29425330370608], [27.783145397398346, 38.294932718965086], [27.783414876686194, 38.300973963643074], [27.785887809067198, 38.30145321618025], [27.787055337161306, 38.30413238104016], [27.786346765494795, 38.30771352115533], [27.788705821997354, 38.30809517950621], [27.789230366654177, 38.3099472105466], [27.79432307732641, 38.31022123901123], [27.794973501378614, 38.312161481240395], [27.797548347743025, 38.31274634988204], [27.79785754201461, 38.31439495204463], [27.80033102144567, 38.31487389296345], [27.80074175956397, 38.316628349145006], [27.80321533303636, 38.317107228011565], [27.803626154045777, 38.31886167252465], [27.80609982156327, 38.3193404893281], [27.806510725479114, 38.321094922166665], [27.808984487045475, 38.32157367689614], [27.809420528362484, 38.3255809728882], [27.812215263578608, 38.32652261833857], [27.812330693657135, 38.330066944017425], [27.81506750562959, 38.330884013995885], [27.815241221472427, 38.334552835519624], [27.81797823456436, 38.3353698346968], [27.818152111917737, 38.33903864736009], [27.821008559872084, 38.33901868346203], [27.820928697072908, 38.32884368070267], [27.82226494524341, 38.32777219589862], [27.826601354780184, 38.32771418285424], [27.826524634017165, 38.320958694848485], [27.823861422259565, 38.32026129807707], [27.82358848914547, 38.31422020440721], [27.82149094249389, 38.31400553585537], [27.820703677608446, 38.31198737502047], [27.818128681333675, 38.311403016423604], [27.817793742880657, 38.307501595619755], [27.81543456368661, 38.307120523755174], [27.81490937634544, 38.30526861619645], [27.80938780107312, 38.30459070898283], [27.809116150135658, 38.29854955159395], [27.80664317252812, 38.298070789129596], [27.80547461188927, 38.29538972442979], [27.80615762459758, 38.28955768224796], [27.803799084840975, 38.289176368088576], [27.803274329829225, 38.287324398111345], [27.79805751369448, 38.28696250400527], [27.79750827029926, 38.28285760888592], [27.795149990175176, 38.28247611752846], [27.794625505499546, 38.28062410383087], [27.79239297393948, 38.28033079599959], [27.791742917317947, 38.278390525170096], [27.78916933409291, 38.27780551201236], [27.7888605057354, 38.27615687292047], [27.786388416078477, 38.275677671940656], [27.78597827073285, 38.27392314709887], [27.78350627495906, 38.27344388418542], [27.783096212291255, 38.27168934772215], [27.775904705162198, 38.27170959573216], [27.774498944415104, 38.26949334022797], [27.768787489750206, 38.2695309014687], [27.768302866265664, 38.27138964922476], [27.765953450904494, 38.27180250981569], [27.765492393564, 38.27591416382918], [27.760284843555514, 38.27634552406526]]], [[[27.77829921505159, 38.357337373130434], [27.778323303107133, 38.35958714416541], [27.78118058612409, 38.35956814182806], [27.781156409661374, 38.357318372316584], [27.77829921505159, 38.357337373130434]]], [[[27.75841219468975, 38.37098593065101], [27.758435678760346, 38.37323570693453], [27.761293511795916, 38.373217183687885], [27.761269939256664, 38.37096740888929], [27.75841219468975, 38.37098593065101]]], [[[27.75205963150152, 38.31019453600091], [27.752082868231014, 38.312444338964866], [27.757797709493385, 38.31240755611515], [27.757774296236317, 38.310157756101425], [27.75205963150152, 38.31019453600091]]]]}}