{"type": "Feature", "properties": {"fire_id": "EGE_2022_01", "fire_date": "2022-06-22", "province": "Muğla", "region": "Ege", "modis_area_ha": 4982}, "geometry": {"type": "MultiPolygon", "coordinates": [[[[28.05737121413137, 36.86348427046971], [28.05749539819668, 36.87249425338357], [28.06029611612319, 36.87246929758069], [28.0610179216348, 36.870438737122605], [28.064358251703354, 36.870187503293884], [28.06590914775466, 36.87241908392005], [28.07090544631219, 36.87268263739242], [28.071549773844797, 36.87462190047241], [28.079959849292393, 36.874545767472156], [28.08022213501863, 36.87289232030556], [28.082732683952322, 36.87226699375013], [28.083322371704494, 36.87031654969845], [28.087118380012, 36.870033188786145], [28.08834565941129, 36.872215720706265], [28.09614655091881, 36.87245249353447], [28.096791511124373, 36.874391609391154], [28.099319232251716, 36.87497073042792], [28.09962843498157, 36.876618929265], [28.10205634164411, 36.87709233641129], [28.10246552355631, 36.87884617785775], [28.104893517117812, 36.87931952539714], [28.10530277686607, 36.881073355153134], [28.107730857329837, 36.88154664307522], [28.10814019492831, 36.88330046113482], [28.116551119037688, 36.883221723078016], [28.11657389481446, 36.879675619496965], [28.118170317481052, 36.87870098792942], [28.12135239793997, 36.87889887506352], [28.122131858227064, 36.88091562059983], [28.132311902784373, 36.880923526652595], [28.133384476105892, 36.8830623508002], [28.136185508685873, 36.88303560015419], [28.137836970349014, 36.88076782465707], [28.141019173562487, 36.880965182675446], [28.14179917018006, 36.88298178931011], [28.161429456258443, 36.88279153381023], [28.16228927724094, 36.88069081487359], [28.167004889014926, 36.88048338510106], [28.16832746946001, 36.878244402048715], [28.175384665082976, 36.878147270134086], [28.176706959872696, 36.875908197960555], [28.18021692356704, 36.87607528023513], [28.180997890835393, 36.87809161390438], [28.18660336346061, 36.8780357698916], [28.18686335351299, 36.87638212822244], [28.18937308533236, 36.8757545620385], [28.1899600712612, 36.87380363690805], [28.194947134974935, 36.87344512346301], [28.195412999298963, 36.87158449885342], [28.197716441253768, 36.87116372680684], [28.197681311408395, 36.86891367174691], [28.195365548346057, 36.86853940971169], [28.194841895235577, 36.86668873523454], [28.1846638797489, 36.86668615338955], [28.183606398128653, 36.86338089759582], [28.184911911696947, 36.86230553930086], [28.189163508550703, 36.862235539275545], [28.189629453245207, 36.86037493260908], [28.19193259518065, 36.85995427736109], [28.192650786280772, 36.857922976071706], [28.19470151724965, 36.857672953014344], [28.194631424227328, 36.85316971872731], [28.19184501029172, 36.852107807566554], [28.192258461132162, 36.849080965364735], [28.20297198861615, 36.84857543904875], [28.203437523356552, 36.84671478158501], [28.20574017432972, 36.846293866561766], [28.20570484109723, 36.84404380869512], [28.200710101077654, 36.84378589653447], [28.2000275990098, 36.839594204412535], [28.19530960440543, 36.83948052873418], [28.194386052078, 36.83739749254635], [28.18878356221734, 36.8374536509419], [28.188065444626623, 36.839484934126055], [28.18472694651173, 36.83973961592201], [28.183173323269234, 36.83750962237958], [28.180746219647567, 36.83703785621228], [28.18033550474357, 36.835284299542934], [28.174733140539015, 36.835339793130885], [28.174590577075232, 36.83913198187253], [28.171998783575287, 36.839873852899075], [28.171480324398317, 36.846331092527755], [28.167653363482167, 36.84726573805868], [28.164299725231437, 36.84640164431855], [28.163653323007765, 36.844462911254986], [28.158050255914553, 36.84451763036779], [28.15758362812318, 36.846378129805935], [28.1552806852522, 36.846798116473856], [28.154957257977298, 36.85081243101926], [28.152544777564287, 36.85133174724788], [28.151684995259554, 36.85343240478264], [28.14821228937169, 36.853924296841534], [28.14693345217463, 36.85138602604174], [28.144247241517807, 36.85057567454323], [28.144062560193632, 36.84690661897567], [28.14127704368477, 36.84584350501446], [28.141486326245403, 36.843023677554], [28.14399537138145, 36.842397078747624], [28.143894731908368, 36.83564053216901], [28.136569546439276, 36.83570244099436], [28.135100956778427, 36.83472759853955], [28.135712848570922, 36.831811260904544], [28.13822158017289, 36.831184788279764], [28.1381548645842, 36.826681443252006], [28.121341626651958, 36.82684121075392], [28.121080360653053, 36.82849474383505], [28.118571567069456, 36.82912085585631], [28.117368314632373, 36.83168280544888], [28.113740500675267, 36.831190333292014], [28.112922423750327, 36.82917231826488], [28.107359747833765, 36.82922581546202], [28.106498952604042, 36.831326170418954], [28.101786131119624, 36.83153115301815], [28.10131820514007, 36.83339145708473], [28.09901531391179, 36.83381035310864], [28.098688978022142, 36.83782457141918], [28.096276493316388, 36.83834274616404], [28.096014653513723, 36.83999623060526], [28.093505268716, 36.84062182200017], [28.092916050016058, 36.84257231818689], [28.090733879689, 36.842900835068434], [28.09065874067489, 36.849340770290965], [28.088026186920928, 36.849686301410486], [28.086701710695586, 36.85192443196845], [28.076842857319836, 36.85204169418194], [28.07658055858544, 36.85369513962559], [28.07407056009328, 36.85432032911876], [28.07334924299917, 36.85635096628769], [28.06849410165415, 36.85662414177959], [28.06823160939122, 36.858277570687214], [28.065721389551545, 36.858902586871444], [28.06513133264941, 36.86085295304534], [28.060144341180873, 36.86120601533644], [28.05967523901268, 36.86306616545367], [28.05737121413137, 36.86348427046971]], [[28.097556882119967, 36.84959712491143], [28.099123007093517, 36.85041734447227], [28.09954364323874, 36.853342948345535], [28.094582890544626, 36.85397198586376], [28.093840496086425, 36.850346122828206], [28.097556882119967, 36.84959712491143]]], [[[28.079393266266607, 36.833990131072966], [28.07942488684549, 36.83624029196091], [28.082224262349577, 36.83621484074305], [28.082192559804987, 36.833964681925245], [28.079393266266607, 36.833990131072966]]], [[[28.060486966039953, 36.88599196942252], [28.06051809153939, 36.88824212448628], [28.06283386074672, 36.888619014692694], [28.06335450574633, 36.89047031407483], [28.06615587489643, 36.890445209775024], [28.066124581448374, 36.88819505966815], [28.06380881050707, 36.887818233632295], [28.06328817418098, 36.88596693531485], [28.060486966039953, 36.88599196942252]]]]}}