{"type": "Feature", "properties": {"fire_id": "EGE_2024_10", "fire_date": "2024-08-16", "province": "Muğla", "region": "Ege", "modis_area_ha": 345}, "geometry": {"type": "MultiPolygon", "coordinates": [[[[27.855981373842067, 37.16257162034882], [27.85600675070507, 37.16482180500315], [27.858818384247506, 37.16480146112707], [27.85879292405677, 37.16255127812199], [27.855981373842067, 37.16257162034882]]], [[[27.79451309907676, 37.20806924120629], [27.794678504185928, 37.22383928799861], [27.797499030534325, 37.22504143397474], [27.797614925417033, 37.235086852985106], [27.803247375087306, 37.235048781819486], [27.80331517820708, 37.22912415743262], [27.808811487159222, 37.22825053417972], [27.808761300911772, 37.22032688602703], [27.81153281121511, 37.21921807344807], [27.81138804959246, 37.20570138244571], [27.808574865543214, 37.20572061895655], [27.80841377474905, 37.209512385018826], [27.80580571235837, 37.2102464245864], [27.805831593782543, 37.215916789861744], [27.804514679283084, 37.21698806385825], [27.800360524984338, 37.216207527298685], [27.800143544398516, 37.208031340972575], [27.79451309907676, 37.20806924120629]]], [[[27.766341285865792, 37.20825485422552], [27.766386834048102, 37.2127583961455], [27.77201766573291, 37.21272182886381], [27.771971782977666, 37.20821829287392], [27.766341285865792, 37.20825485422552]]], [[[27.746954158573622, 37.24218074242685], [27.746998609051843, 37.24668427866868], [27.749813356391932, 37.24666648783709], [27.749852990812105, 37.24312045699911], [27.75258717283085, 37.2421419666382], [27.75256479921181, 37.239891754250834], [27.749750305577553, 37.2399096077315], [27.749271440995923, 37.24176853353465], [27.746954158573622, 37.24218074242685]]]]}}