{"type": "Feature", "properties": {"fire_id": "EGE_2021_07", "fire_date": "2021-08-04", "province": "Aydın", "region": "Ege", "modis_area_ha": 882}, "geometry": {"type": "MultiPolygon", "coordinates": [[[[28.592127918382978, 37.756538186339554], [28.59496364946667, 37.756531467083754], [28.594915349418898, 37.75428213056163], [28.592082338644087, 37.7543204434163], [28.592127918382978, 37.756538186339554]]], [[[28.503178299579222, 37.70817237951166], [28.503269261510393, 37.71267438947015], [28.507890105679508, 37.712719829852375], [28.50898585754533, 37.71485448419747], [28.511706914065332, 37.715655711417476], [28.51169561144641, 37.71861297829019], [28.50907731889608, 37.719362691473854], [28.509168674519252, 37.723864680647864], [28.51172807633365, 37.72443425108056], [28.512096158841175, 37.72833342230708], [28.51455408957092, 37.72879767207067], [28.51502400183563, 37.732802080379166], [28.51787498108344, 37.733986319877886], [28.51759099841512, 37.739397652258404], [28.509488863404943, 37.73963559661547], [28.509534552930557, 37.7418850298616], [28.51187875673476, 37.742252487863425], [28.512456813635083, 37.744102240250115], [28.51524968542788, 37.744064808194935], [28.516452910678417, 37.741499178568056], [28.523099432854973, 37.74201890646637], [28.523809683917552, 37.74620755272323], [28.52602849566453, 37.74648725507634], [28.526692674056186, 37.74842335697108], [28.52891156126213, 37.74870300325479], [28.52957583604267, 37.75063908612995], [28.53165900292033, 37.750841412324064], [28.532459169894917, 37.752854740183125], [28.535107967974383, 37.75353641854389], [28.535435804720557, 37.75957533313542], [28.53778068028315, 37.75994225975301], [28.5383196646726, 37.761790829130426], [28.540880584949416, 37.76235972940401], [28.54120369658241, 37.7640062499579], [28.544037145847977, 37.76396915205122], [28.544244850447008, 37.7600625738584], [28.54678066640919, 37.75942694824194], [28.54749702447296, 37.75739381633562], [28.549570850382025, 37.7571371770193], [28.549429956080253, 37.750382803979434], [28.54708533449657, 37.75001610330064], [28.546546228958917, 37.748167573370935], [28.544463105915177, 37.74796550957096], [28.543662673676863, 37.74595226759782], [28.541204010945368, 37.74548864272384], [28.540779290216204, 37.74373688667678], [28.53628525727009, 37.744383970444616], [28.534431228083996, 37.7431454776658], [28.53479106708836, 37.72687663724465], [28.537571145323806, 37.72571907857193], [28.53752333242909, 37.723501318139604], [28.53474289883468, 37.72257655476679], [28.534548068164277, 37.71678071077495], [28.529926991280988, 37.716736321498395], [28.528830615480864, 37.714601876169176], [28.526030575129802, 37.71422418947527], [28.525902708687997, 37.7101335502349], [28.52355946315459, 37.709766348867326], [28.52302126526577, 37.7079176800546], [28.520189923520473, 37.70795422682259], [28.520235884413008, 37.71020366104495], [28.52269325705843, 37.710667754284486], [28.52355073116045, 37.71313558256084], [28.52189617263926, 37.714690058029156], [28.518386570108568, 37.71457569058539], [28.5174426367144, 37.71249589419683], [28.514985232295054, 37.712031692211724], [28.514515491562616, 37.70802726722601], [28.503178299579222, 37.70817237951166]]], [[[28.495306413508494, 37.73981640213978], [28.495397002354334, 37.744318404109606], [28.497479918786333, 37.74452134063211], [28.498279093325266, 37.7465349239791], [28.50083920644306, 37.74710471393015], [28.5012068713635, 37.7510039144729], [28.503551328898077, 37.75137153234877], [28.504089397048126, 37.753220280546145], [28.50692248391831, 37.75318408371758], [28.506739809199733, 37.744177030082426], [28.504395566294676, 37.74380947070568], [28.503857566669968, 37.741960719755795], [28.49939306031885, 37.741957842173946], [28.498139000876833, 37.73978042722871], [28.495306413508494, 37.73981640213978]]], [[[28.487109794486244, 37.755657286639085], [28.489945587447306, 37.75565309591622], [28.48990046833639, 37.75340364774897], [28.487067351047894, 37.753439435584895], [28.487109794486244, 37.755657286639085]]], [[[28.467074543615556, 37.7469306448601], [28.46711896128178, 37.74918011869515], [28.469951941712605, 37.749144813741886], [28.47025959441043, 37.74708017867677], [28.467074543615556, 37.7469306448601]]], [[[28.472395931950675, 37.746671939120745], [28.47558097757016, 37.74682132909688], [28.476044608212273, 37.744959899902454], [28.478372952815203, 37.74453320295771], [28.478328201990962, 37.74228373873435], [28.472658867611887, 37.74235472125496], [28.472395931950675, 37.746671939120745]]], [[[28.47288212205256, 37.75361759824359], [28.472926726248524, 37.755867063653945], [28.475759954246147, 37.755831613802], [28.475715264328226, 37.75358215124847], [28.47288212205256, 37.75361759824359]]]]}}