{"type": "Feature", "properties": {"fire_id": "EGE_2024_05", "fire_date": "2024-06-30", "province": "İzmir", "region": "Ege", "modis_area_ha": 488}, "geometry": {"type": "MultiPolygon", "coordinates": [[[[27.330050700432437, 37.94262173630722], [27.330060764782697, 37.94487183732188], [27.332902130390288, 37.9448638325324], [27.332891979403808, 37.94261373216192], [27.330050700432437, 37.94262173630722]]], [[[27.30159860296121, 37.94269810496099], [27.301607799745376, 37.944948212121766], [27.303952754509396, 37.94533970686731], [27.30446239843133, 37.94719409810847], [27.307303860558054, 37.94718671109356], [27.30729448933443, 37.9449366059828], [27.304949530119515, 37.94454517783128], [27.30443989271894, 37.94269078783839], [27.30159860296121, 37.94269810496099]]], [[[27.278709247422928, 37.90895584494034], [27.278734739256443, 37.915712432671725], [27.280954220464142, 37.91601558797079], [27.281587509671567, 37.91795889201919], [27.28440121940173, 37.919041877720076], [27.28437867000963, 37.92375398150834], [27.28161329680383, 37.92472168405504], [27.281619795998218, 37.926940172737105], [27.28426575451783, 37.92768164338814], [27.284483856000545, 37.93147140902591], [27.286828293529375, 37.93186324803716], [27.287377358911236, 37.933719176382255], [27.295868101218367, 37.93369658026523], [27.296763937495356, 37.931602271181276], [27.3015486340497, 37.93142891730433], [27.302042934087048, 37.9295719356369], [27.30438412419218, 37.92916837315086], [27.30436556005652, 37.9246650388619], [27.30228057672579, 37.92444101444959], [27.301511840063203, 37.922419138208156], [27.29895455338843, 37.92182326202615], [27.298649182330458, 37.917919941333246], [27.296092074365003, 37.917324001743374], [27.295801930074337, 37.914638514051646], [27.297000159960938, 37.91347427490787], [27.301475037108183, 37.913403128919455], [27.301444229834253, 37.90335793653625], [27.30427272462301, 37.90212966644893], [27.304254185308512, 37.89762631137049], [27.29932649485904, 37.897409545702345], [27.298558125084572, 37.89538763934456], [27.296001798700498, 37.89479169223604], [27.2957057172204, 37.89314158122791], [27.287179710209326, 37.8931626901507], [27.286284060730573, 37.89525693919089], [27.28150166615244, 37.89542966430769], [27.28151023554463, 37.89767979361489], [27.284066547145805, 37.898276055212214], [27.284356197011405, 37.90096158128771], [27.281527412713004, 37.902189374170064], [27.281514267210007, 37.90785941586642], [27.278709247422928, 37.90895584494034]]], [[[27.27324655275857, 37.96980618757429], [27.27325489311757, 37.972056289940454], [27.276097321188022, 37.9720496529002], [27.276088894074345, 37.96979955106801], [27.27324655275857, 37.96980618757429]]]]}}