{"type": "Feature", "properties": {"fire_id": "EGE_2024_01", "fire_date": "2024-08-16", "province": "Manisa", "region": "Ege", "modis_area_ha": 6208}, "geometry": {"type": "MultiPolygon", "coordinates": [[[[28.213116767019585, 38.86279508184555], [28.213154995204476, 38.86504436059561], [28.21638189157674, 38.86482161093554], [28.215993697495787, 38.86276516005754], [28.213116767019585, 38.86279508184555]]], [[[28.21856716533865, 38.865180298401036], [28.218955448322806, 38.86723673848197], [28.221335030370646, 38.86760932293038], [28.222121766669442, 38.86973252770975], [28.22475227764895, 38.86942886332089], [28.224675029428138, 38.864927220736156], [28.21856716533865, 38.865180298401036]]], [[[28.22166304823517, 38.87144100678475], [28.21903244831477, 38.87174460287997], [28.21907087515223, 38.873993873231974], [28.22194825066371, 38.87396379754029], [28.22166304823517, 38.87144100678475]]], [[[28.21561418903156, 38.84024123541638], [28.215652465099755, 38.84249052079126], [28.224288727813555, 38.84240031165427], [28.224250179988708, 38.84015103348228], [28.21561418903156, 38.84024123541638]]], [[[28.19391230883346, 38.748099772861416], [28.194062367017604, 38.75710644431835], [28.20268839924479, 38.757017994570745], [28.203164767383402, 38.755157722467494], [28.205527162460328, 38.75473592241689], [28.205489323823226, 38.75248659475258], [28.20337801521957, 38.75227899681198], [28.20257504975327, 38.750263790320744], [28.199981415502428, 38.74968815995497], [28.19962325883603, 38.7457884673133], [28.196751011202835, 38.745817911657284], [28.196274531651998, 38.74767816219759], [28.19391230883346, 38.748099772861416]]], [[[28.201221156337386, 38.66917538101952], [28.201258749021942, 38.671424744345586], [28.204128016975982, 38.671395236749966], [28.204090334552195, 38.66914587578324], [28.201221156337386, 38.66917538101952]]], [[[28.197503957511266, 38.79086663109428], [28.197541597059523, 38.793115950539914], [28.203293850910114, 38.79305685127467], [28.20325603067068, 38.790807536549785], [28.197503957511266, 38.79086663109428]]], [[[28.20128991851477, 38.84489502937006], [28.201327749900194, 38.847144324840194], [28.20420406245958, 38.847114703417304], [28.20416614054859, 38.84486541031226], [28.20128991851477, 38.84489502937006]]], [[[28.192489607725253, 38.66250615786822], [28.192526918302388, 38.66475553094549], [28.19539592927048, 38.664726241781125], [28.195358528982666, 38.66247687104583], [28.192489607725253, 38.66250615786822]]], [[[28.18450206248714, 38.700885877016724], [28.18457634097357, 38.70538771284076], [28.18744698319244, 38.705358593088896], [28.187372524806257, 38.700856761923305], [28.18450206248714, 38.700885877016724]]], [[[28.0820051440639, 38.76721207295486], [28.082107192294675, 38.773966541707274], [28.08666937453854, 38.77333586958889], [28.091183626903582, 38.77506170725345], [28.09044109060713, 38.78015494578499], [28.085087100507586, 38.780700529915194], [28.085187024198465, 38.78742337046993], [28.087783637037287, 38.78803314431601], [28.08813597839485, 38.79193323885861], [28.090248175468297, 38.792142905435625], [28.091048496509405, 38.79415890949667], [28.093425032949497, 38.794534150461146], [28.094390330601108, 38.79706844246666], [28.093647622340107, 38.79842315077108], [28.09111723834685, 38.79866703385035], [28.090513458523215, 38.8006171241994], [28.088271547979588, 38.800978031482366], [28.08841009299526, 38.809953310414954], [28.090660183682065, 38.81024070034223], [28.09132336655166, 38.8121789567011], [28.093436170909335, 38.812388556118556], [28.09423682138321, 38.81440452686416], [28.097560333016734, 38.815552906219175], [28.097266817569047, 38.82918807668255], [28.09596480211509, 38.830133642572356], [28.09159853014456, 38.83020205368444], [28.09166730019879, 38.83470393501815], [28.094543222607232, 38.83467702114927], [28.09514715767496, 38.83272691858164], [28.10026831830357, 38.832370418895565], [28.101303847945953, 38.830212290419055], [28.10887273361794, 38.83003623899148], [28.109476239668684, 38.82808606711938], [28.11459698166107, 38.82772894482871], [28.115790951815473, 38.82552448901372], [28.123200348206122, 38.82539372276392], [28.123679202192776, 38.823533757970644], [28.126044353908874, 38.823113528705626], [28.126782264090682, 38.82108295370312], [28.128888178246513, 38.82083326723927], [28.12878154069844, 38.81407895947799], [28.121057014787024, 38.81399218143819], [28.120119357612168, 38.810402200849815], [28.121575937237985, 38.80930601721373], [28.131589233747334, 38.809543055386385], [28.13206777260736, 38.807683056108246], [28.134432348845003, 38.80726266449405], [28.135169867008393, 38.80523203713229], [28.137275282722364, 38.80498220626604], [28.1372037158692, 38.800480371850696], [28.128762897103844, 38.79984616219028], [28.12765360450204, 38.79023254083642], [28.12909260039393, 38.7850155165957], [28.139830974172387, 38.784681903754176], [28.140309147653202, 38.782821868695294], [28.142672853474775, 38.78240132170826], [28.143409897759412, 38.78037064127061], [28.145514551782515, 38.78012067242066], [28.145498142912686, 38.77432322458944], [28.14828382519711, 38.77333501081115], [28.14813943562733, 38.76432821696128], [28.142886646588742, 38.76398224693405], [28.142715220531738, 38.76036835076317], [28.153820841021883, 38.759763491618855], [28.153988270223444, 38.75789093640922], [28.155450568465117, 38.75715047526637], [28.15891394363836, 38.757768641481626], [28.15957844380587, 38.75970650676761], [28.162451286549253, 38.759677967221954], [28.16364268777384, 38.75747303715351], [28.17104488051366, 38.75733934472421], [28.1713107754961, 38.75568613837937], [28.173884683782596, 38.75505802535803], [28.174872521221154, 38.75256642485755], [28.179600821614155, 38.752747642267174], [28.179526729899802, 38.748245834920084], [28.177415609705392, 38.748037764620875], [28.17661342029439, 38.74602236606182], [28.173931204962912, 38.74533326926875], [28.17358967483961, 38.73704142318936], [28.17070414833578, 38.73584959203246], [28.170942792232967, 38.733161474440934], [28.17351590027097, 38.73253337974987], [28.17365961449518, 38.72874232625836], [28.176317719130456, 38.72799953937483], [28.176280832402888, 38.7257501774987], [28.173599383297827, 38.7250610587975], [28.173331713915275, 38.721274130325675], [28.167864113044008, 38.720726586786675], [28.16750788534257, 38.716826747162784], [28.16469346769082, 38.715893937935746], [28.16455968949289, 38.71235045770114], [28.162185551504077, 38.71197662207893], [28.161648320459356, 38.71012657250357], [28.158777461055102, 38.71015506184838], [28.15861023714401, 38.71202763528611], [28.157148880749467, 38.712768126869655], [28.153687702161374, 38.71214986996287], [28.15302383320098, 38.71021194646363], [28.148185350581883, 38.7100984019004], [28.147202152808276, 38.70576351010549], [28.144828315164258, 38.70538931682549], [28.144291583080765, 38.70353917781796], [28.141420969568134, 38.703567237028444], [28.141492553714393, 38.70806913967501], [28.143981705736028, 38.70854055959564], [28.145169796827417, 38.711217776698945], [28.14458907271525, 38.72259115429745], [28.14174344676837, 38.72383975290581], [28.14172372712451, 38.72796369029476], [28.137091808256635, 38.728619631885756], [28.13595302112298, 38.72164331323], [28.133095636095007, 38.720581484866415], [28.13282878813116, 38.70590365768965], [28.13001523244639, 38.70496999847812], [28.12984775296549, 38.69917392965136], [28.12483984360364, 38.69932362546408], [28.124063650212836, 38.696976818063135], [28.12169021330358, 38.696602148211966], [28.12115414613339, 38.694751890282205], [28.10966108735254, 38.69486152456426], [28.109639613029554, 38.69840656633375], [28.10685626042786, 38.699393836159665], [28.106890937712226, 38.701643262651004], [28.109264471957854, 38.702018231294865], [28.10980029282476, 38.70386854522967], [28.11516374539862, 38.704313263223774], [28.11552840605107, 38.70736197323859], [28.112744793565316, 38.7083493857356], [28.112779666462327, 38.71059880428294], [28.11776441829695, 38.71078061261814], [28.118564545367537, 38.71279645786096], [28.121156229376734, 38.713373928605606], [28.12224104747262, 38.71594582510317], [28.121243042384435, 38.718930176097516], [28.11866993337873, 38.719557121039614], [28.118067521314106, 38.72150735872517], [28.112952885981667, 38.721896169810194], [28.1132689716016, 38.7421340705682], [28.1159505173723, 38.74282457051748], [28.117000290768818, 38.747668169601496], [28.116425793780127, 38.76012669740739], [28.121551293747544, 38.76038599903785], [28.1221587844695, 38.76361969561965], [28.11937310107464, 38.76460728792928], [28.118339021691412, 38.766765578270345], [28.11077686130638, 38.766942145791155], [28.109083438705035, 38.76920951227989], [28.10308813695925, 38.769106649392135], [28.102141417850103, 38.76702390487883], [28.099547926283247, 38.76644604400805], [28.099229685302454, 38.76479848949328], [28.084848218532436, 38.764932873914], [28.08436870728346, 38.76679270684736], [28.0820051440639, 38.76721207295486]], [[28.158900803024807, 38.717916177559495], [28.160382541033233, 38.71656097746482], [28.164009040771006, 38.71716690594319], [28.16432917592386, 38.72119970752784], [28.159583107052985, 38.72110293544587], [28.158900803024807, 38.717916177559495]], [[28.139488848572338, 38.763059629704564], [28.13828430103287, 38.764364864578454], [28.134666250241008, 38.764298645257064], [28.13390012535081, 38.760674532081374], [28.138528804076174, 38.76007462540535], [28.139488848572338, 38.763059629704564]], [[28.121156389895486, 38.80316400045481], [28.12024562894984, 38.79860849549169], [28.12443151517542, 38.798407818408805], [28.12563772833744, 38.801884327163485], [28.121156389895486, 38.80316400045481]], [[28.11401163884126, 38.7871349897043], [28.116429682755587, 38.786823284022056], [28.116903165318902, 38.78893541895036], [28.114205900140547, 38.78914162101773], [28.11401163884126, 38.7871349897043]], [[28.108336990291658, 38.79534944252418], [28.10938372414413, 38.794090704121004], [28.11333259422997, 38.793847287951245], [28.113859108409724, 38.79818266197435], [28.109149861868048, 38.79826788373674], [28.108336990291658, 38.79534944252418]], [[28.105169094915745, 38.77370196163308], [28.107586729453637, 38.77339044437001], [28.108059853572488, 38.77550262507304], [28.10536306319176, 38.77570861637366], [28.105169094915745, 38.77370196163308]], [[28.098858191909397, 38.77341587759773], [28.090856079032857, 38.77338845243323], [28.09118066116945, 38.769773951377026], [28.09880121811458, 38.76970254759385], [28.098858191909397, 38.77341587759773]]], [[[28.17315154528175, 38.7100117114941], [28.173188313224472, 38.71226108196651], [28.176059242100415, 38.71223223749502], [28.17602238423273, 38.709982869328165], [28.17315154528175, 38.7100117114941]]], [[[28.154987726764393, 38.831845276804124], [28.15506049404339, 38.8363470589616], [28.157936419916282, 38.83631858345721], [28.157863471556315, 38.83181680585042], [28.154987726764393, 38.831845276804124]]], [[[28.147098145051476, 38.69900596594458], [28.147134082433034, 38.701255361427414], [28.150004597780683, 38.70122716337834], [28.149968570519956, 38.69897777014963], [28.147098145051476, 38.69900596594458]]], [[[28.100865650695678, 38.68368032456194], [28.100900120970486, 38.68592976165668], [28.103770069537497, 38.6859027075082], [28.10373550944616, 38.683653272576436], [28.100865650695678, 38.68368032456194]]], [[[28.067350671581625, 38.74932405449522], [28.067384170986184, 38.751573491230744], [28.073133349191753, 38.75152084636283], [28.07309966943582, 38.74927141383409], [28.067350671581625, 38.74932405449522]]], [[[28.070328075755963, 38.75605537421017], [28.070361676670046, 38.758304806161995], [28.073234550654238, 38.758278460233846], [28.07320085959671, 38.75602903038717], [28.070328075755963, 38.75605537421017]]], [[[28.072082737133147, 38.873186223585726], [28.072116534072972, 38.8754356090292], [28.07499411592641, 38.875409153301575], [28.074960228317455, 38.873159769970044], [28.072082737133147, 38.873186223585726]]], [[[28.06323697025014, 38.85975025542371], [28.06327047230503, 38.86199965254428], [28.0659097039816, 38.86225170081507], [28.066113928186958, 38.859724027338245], [28.06323697025014, 38.85975025542371]]], [[[28.066423006572386, 38.86395071554568], [28.06621878468715, 38.86647838777663], [28.068597617703972, 38.86685409700868], [28.06913372675626, 38.86870454344889], [28.072011040037577, 38.868678165035796], [28.071977254565923, 38.86642877690492], [28.069598419580103, 38.86605313654864], [28.06906232003663, 38.86420269130289], [28.066423006572386, 38.86395071554568]]], [[[28.06886394794907, 38.8506876463566], [28.068897616401795, 38.85293704285568], [28.071774294545666, 38.8529106792015], [28.071740535524704, 38.85066128480741], [28.06886394794907, 38.8506876463566]]], [[[28.064039604226178, 38.7200671067102], [28.064072964859054, 38.722316557157434], [28.066944403257494, 38.72229038614749], [28.06691095264134, 38.720040937792035], [28.064039604226178, 38.7200671067102]]], [[[28.057308317971664, 38.848540015222504], [28.057341619920308, 38.85078942099049], [28.059719885729727, 38.851165320055046], [28.06025563842252, 38.85301581704195], [28.063132327837415, 38.85298966618126], [28.063098840897858, 38.85074026548051], [28.060720573090208, 38.850364435252956], [28.060184829868177, 38.84851393946095], [28.057308317971664, 38.848540015222504]]], [[[28.05396261940415, 38.817030751624046], [28.05399577869102, 38.819280171984026], [28.056871116199353, 38.81925419416664], [28.056837866493765, 38.817004775881394], [28.05396261940415, 38.817030751624046]]], [[[28.04861034042638, 38.648114420992144], [28.048643132982907, 38.65036391038591], [28.051511711408846, 38.65033815845541], [28.05147882918804, 38.648088671121144], [28.04861034042638, 38.648114420992144]]], [[[28.049063990249493, 38.87564809567465], [28.049097064518485, 38.87789749693911], [28.051974767150956, 38.87787160704823], [28.051941602199044, 38.87562220785052], [28.049063990249493, 38.87564809567465]]], [[[28.037185459455372, 38.65272206668707], [28.037217900107017, 38.6549715624905], [28.040086672746483, 38.65494608817634], [28.04005414240875, 38.65269659441013], [28.037185459455372, 38.65272206668707]]]]}}