{"type": "Feature", "properties": {"fire_id": "EGE_2017_01", "fire_date": "2017-07-02", "province": "İzmir", "region": "Ege", "modis_area_ha": 1754}, "geometry": {"type": "MultiPolygon", "coordinates": [[[[27.105544898404666, 38.1300537322188], [27.105548138571308, 38.13230379491324], [27.11293143472901, 38.13170850415994], [27.11645587560901, 38.132691005708374], [27.117202111163905, 38.13482207080007], [27.119810796647158, 38.13454426781942], [27.119803494764504, 38.13004005658734], [27.11500490435084, 38.129883666984945], [27.1140949762499, 38.12779256503536], [27.108394073443666, 38.127797963374604], [27.107893564901488, 38.12965408092564], [27.105544898404666, 38.1300537322188]]], [[[27.118303828794506, 38.13740281125522], [27.11411294260108, 38.13680524003557], [27.114116446649998, 38.13905529949043], [27.12267102043148, 38.13904765828503], [27.1226673130696, 38.1367966187023], [27.118303828794506, 38.13740281125522]]], [[[27.122917910671386, 38.14102654566123], [27.122682560466462, 38.143553004445494], [27.12762627052759, 38.143777127520686], [27.12839651968171, 38.148053232926046], [27.131245789317415, 38.14805008379233], [27.13123368556887, 38.14129370136945], [27.122917910671386, 38.14102654566123]]], [[[27.025666703145045, 38.10756654750331], [27.02566749046271, 38.109816622434224], [27.028912977024078, 38.110867733884206], [27.028522719969608, 38.11882868813701], [27.0313404124265, 38.11991768773333], [27.03138154605139, 38.13460019307935], [27.033606631214685, 38.13490799969707], [27.034235287151663, 38.13685256884308], [27.03646045265693, 38.13716032124889], [27.037089203684026, 38.13910487432681], [27.039179483856692, 38.139333586503426], [27.039943295668024, 38.14135710951377], [27.04250614331966, 38.141958589735076], [27.042722640143396, 38.14490455981661], [27.03994575435671, 38.145866556170944], [27.039946981364476, 38.14811661607152], [27.04229704523624, 38.148513309923494], [27.042801512511133, 38.15036877810254], [27.0448921318708, 38.1505973879835], [27.04565621920728, 38.15262086978651], [27.048119352951687, 38.153115704142046], [27.048511101472467, 38.15487289110668], [27.065004318684895, 38.15517334195025], [27.065600161192446, 38.158284316359996], [27.06278235280954, 38.1593755663943], [27.062786214511473, 38.16387878141556], [27.067276713230267, 38.16393606119105], [27.06849597783172, 38.166128751370685], [27.073576103082438, 38.16643409898601], [27.07420609181866, 38.1683784425155], [27.0769286557291, 38.169212792371255], [27.077064838944807, 38.17288291928564], [27.079915079677118, 38.172881014273955], [27.081130008955565, 38.17068678895026], [27.08562079860534, 38.17062383448927], [27.086791731867226, 38.168094062018135], [27.09296689346152, 38.16842485590501], [27.09417545954256, 38.169585067458954], [27.09419280185356, 38.175123587704164], [27.104229471934225, 38.17514263869765], [27.10565318328607, 38.17736854653193], [27.111317870646584, 38.177361759310585], [27.112694907942146, 38.17513481993292], [27.121518128352676, 38.17515825706431], [27.12270237744493, 38.17618696592615], [27.12274298401296, 38.179603528324485], [27.125466516392823, 38.18043674975686], [27.1256051563235, 38.18410680940156], [27.1284558299376, 38.1841037255131], [27.12844792346063, 38.17960053467777], [27.125796454157094, 38.17888723599607], [27.125585753427707, 38.175097319423266], [27.123234388458446, 38.17470229589388], [27.122727714463018, 38.1728471841843], [27.117522279418345, 38.17245499408158], [27.117012163744974, 38.1683467015776], [27.114661061572743, 38.16795150550314], [27.114154651952596, 38.166096354243386], [27.106935416555718, 38.166704863657365], [27.103366586250985, 38.16579792452593], [27.10197193132375, 38.16279024508279], [27.10272952249946, 38.15934741900959], [27.099879810443287, 38.15934987701814], [27.099591531714516, 38.16100090690079], [27.09702914753765, 38.16160542924224], [27.095973000547442, 38.163754997709155], [27.091563793724355, 38.163586828329905], [27.089977374525272, 38.16446616334347], [27.08836887176684, 38.163770151169444], [27.08854915601212, 38.16199102363467], [27.0913176730989, 38.161607881627006], [27.091386192544643, 38.15580837431712], [27.09416277715316, 38.154845163805824], [27.094509843514835, 38.15278404164963], [27.091310434139576, 38.152597358735164], [27.090550090457175, 38.15462172255136], [27.08693483037077, 38.15516463035638], [27.085634996185348, 38.154106073596004], [27.08559445867539, 38.14809533000968], [27.082745183050875, 38.14809737176022], [27.08153067576387, 38.1502916217761], [27.077327045925788, 38.149751852128325], [27.07703245409224, 38.14584808915787], [27.07494187087077, 38.14562005111188], [27.07417704815615, 38.143596758097694], [27.07171405936044, 38.143102469236], [27.071319624503232, 38.139092187195565], [27.069229251704066, 38.138864047006116], [27.068464657493475, 38.136840714243334], [27.066114827123233, 38.13644454292502], [27.065175961816283, 38.13377224854671], [27.066240865926897, 38.13243280620028], [27.069771221531198, 38.13233855541423], [27.071319170875974, 38.13458273533861], [27.077020607486002, 38.134579135572125], [27.0770158752664, 38.1300758993961], [27.074197115276323, 38.128987998137696], [27.074156526588386, 38.12331821147504], [27.071807099222582, 38.12292215269598], [27.071302087653905, 38.12106680088347], [27.06873973523287, 38.12046594629106], [27.068447824014008, 38.11881531990631], [27.065599685376693, 38.118816944686245], [27.064385148280223, 38.12101102843265], [27.060396312087942, 38.12067539496651], [27.05988792448677, 38.11431363512931], [27.057663354635547, 38.11400632481034], [27.05703427402153, 38.1120618737578], [27.05494471606782, 38.11183347767667], [27.054180798772922, 38.109810042078784], [27.05171907948266, 38.1093153301563], [27.05132592226889, 38.10530495688333], [27.048977194748012, 38.10490843983481], [27.04847288514508, 38.10305298367565], [27.043532158099275, 38.1028255257838], [27.04276864955476, 38.10080201262217], [27.04020723823117, 38.10020053309217], [27.039916050096775, 38.09854982965652], [27.034217410449116, 38.09855162722582], [27.0349815738658, 38.10425174177924], [27.033831043497525, 38.107068658926536], [27.025666703145045, 38.10756654750331]]], [[[27.096667236950726, 38.1524007503431], [27.099866651072105, 38.15258728734055], [27.099863583086666, 38.15033723203549], [27.097014221378707, 38.15033962003619], [27.096667236950726, 38.1524007503431]]], [[[27.116940546525406, 38.12103023870807], [27.11694413536921, 38.123280303996644], [27.1226446851353, 38.12327449133907], [27.122640921351035, 38.121024426517515], [27.116940546525406, 38.12103023870807]]], [[[27.119720809028095, 38.07818217100668], [27.122569385313387, 38.078210868401534], [27.122565629918068, 38.07596078627202], [27.11971915844479, 38.075963720207724], [27.119720809028095, 38.07818217100668]]], [[[27.11400436098366, 38.06695661648272], [27.114007852934307, 38.06920670276441], [27.116355786303274, 38.06960192367141], [27.11686157930577, 38.0714570969739], [27.11970787642594, 38.07145423253306], [27.119704209593497, 38.06920414757178], [27.11735627110359, 38.0688089935348], [27.116850484020635, 38.066953821513856], [27.11400436098366, 38.06695661648272]]], [[[27.091293584796567, 38.13907836207536], [27.091299196117543, 38.143581589679066], [27.0941482954444, 38.14357934065573], [27.094142509016137, 38.139076113413594], [27.091293584796567, 38.13907836207536]]], [[[27.03989718068106, 38.060210789521015], [27.04274503144934, 38.060241422152906], [27.042743722630785, 38.05799132859208], [27.039897941723673, 38.05799232894025], [27.03989718068106, 38.060210789521015]]], [[[27.008558853208594, 38.141331955580085], [27.011409841437278, 38.14136334655034], [27.01140949105852, 38.139113283552405], [27.008560561736285, 38.13911352571642], [27.008558853208594, 38.141331955580085]]], [[[27.00285272831032, 38.0850374359444], [27.00285290331242, 38.089540710804826], [27.008550844569235, 38.08954043434466], [27.00855058247372, 38.087290351427754], [27.00620266229766, 38.086892978028146], [27.005699557975994, 38.08503733236005], [27.00285272831032, 38.0850374359444]]], [[[26.982896344068607, 38.08954260890662], [26.98289529466629, 38.094045880109945], [26.994295809514014, 38.09404698651024], [26.994295984383825, 38.09179690530951], [26.989500161216235, 38.091635388330765], [26.988594285361806, 38.089543300057066], [26.982896344068607, 38.08954260890662]]], [[[26.982894243580898, 38.09855536407519], [26.9828937190371, 38.10080544259179], [26.98574116027899, 38.10080582261501], [26.985741597509392, 38.098555744067866], [26.982894243580898, 38.09855536407519]]]]}}