{"type": "Feature", "properties": {"fire_id": "EGE_2019_02", "fire_date": "2019-08-19", "province": "Muğla", "region": "Ege", "modis_area_ha": 467}, "geometry": {"type": "MultiPolygon", "coordinates": [[[[27.872836305941913, 37.4035308613295], [27.875659137836866, 37.40354162422049], [27.87563295338386, 37.401291542221074], [27.872812520799997, 37.401312396849406], [27.872836305941913, 37.4035308613295]]], [[[27.835570853796003, 37.354260062535865], [27.835595797925606, 37.356510186032175], [27.837924901468043, 37.35689126821984], [27.838443540099497, 37.35874344101763], [27.849691049227285, 37.358664731018095], [27.85060426585458, 37.356564409743584], [27.858173237200855, 37.35634853508061], [27.858650086079958, 37.35448922825319], [27.861967739612492, 37.35350406333142], [27.87226040275164, 37.35399208713527], [27.87218223096185, 37.3472355594067], [27.864883178494548, 37.34787763688701], [27.863000397682626, 37.34650133146597], [27.864055639245027, 37.343281145911185], [27.866487378326816, 37.34273585169478], [27.866408172523258, 37.33601094897993], [27.86377995099846, 37.33531391712151], [27.863534693671646, 37.33152513435923], [27.85507340616946, 37.33158658998095], [27.855098911557008, 37.333836710790244], [27.859378122027557, 37.33383323771245], [27.860678651351673, 37.33475737305392], [27.861208066556674, 37.34709882806998], [27.85957078184558, 37.347929896552934], [27.851022133530368, 37.347715885954194], [27.849578320598837, 37.34514665138159], [27.84393772351669, 37.345187026854504], [27.844050370545496, 37.349176939391285], [27.838343328486648, 37.34973362723715], [27.838635531047675, 37.3534939578059], [27.835570853796003, 37.354260062535865]]], [[[27.857432035710534, 37.290973192724664], [27.868711278292416, 37.29092257922263], [27.868659503002274, 37.28641921196454], [27.865843358199747, 37.28643984641626], [27.864624634161657, 37.28899925278847], [27.857408804392403, 37.28875467719303], [27.857432035710534, 37.290973192724664]]], [[[27.83816800500658, 37.33396098014891], [27.83824309236801, 37.34071758311375], [27.843883363459916, 37.34067748323249], [27.84383297727773, 37.33617412468459], [27.84150448802964, 37.33579315002966], [27.840946308864215, 37.33393971003336], [27.83816800500658, 37.33396098014891]]], [[[27.801268595442956, 37.31393581948455], [27.801316401789702, 37.31843924316335], [27.80413378641417, 37.31842012997566], [27.805313709990735, 37.31621845181368], [27.809752157661467, 37.31612838827799], [27.809728020211363, 37.313878234774215], [27.80740038069202, 37.31349657723366], [27.806882833535106, 37.31164424155313], [27.80406570368239, 37.311663417242], [27.803587756153973, 37.31352253016806], [27.801268595442956, 37.31393581948455]]], [[[27.792568742300666, 37.29146006754443], [27.79259234913814, 37.293710239041346], [27.794919307478764, 37.294092197102486], [27.79543643396702, 37.29594459538386], [27.798252983485423, 37.29592563190222], [27.79931330135089, 37.29341021993506], [27.803869827503018, 37.29363515955373], [27.80384593473275, 37.29138401300217], [27.799139192307504, 37.291615768456154], [27.79818159375379, 37.289168910143744], [27.79536529606151, 37.28918786901536], [27.794887265828965, 37.29104695464792], [27.792568742300666, 37.29146006754443]]], [[[27.804131706986226, 37.29561217978305], [27.803945711350433, 37.300393967379954], [27.806762420908186, 37.30037479946447], [27.806714321092297, 37.295871368029516], [27.804131706986226, 37.29561217978305]]], [[[27.79285027854527, 37.31846463688587], [27.79566994930807, 37.318477346836865], [27.79564622958592, 37.31622718645912], [27.792828920981215, 37.316246096626145], [27.79285027854527, 37.31846463688587]]]]}}