{"type": "Feature", "properties": {"fire_id": "EGE_2021_05", "fire_date": "2021-08-07", "province": "Aydın", "region": "Ege", "modis_area_ha": 1942}, "geometry": {"type": "MultiPolygon", "coordinates": [[[[28.096119225777276, 37.412938312699055], [28.09894231472464, 37.412943738034095], [28.09887652973516, 37.40844077544004], [28.096056018685257, 37.408466959216106], [28.096119225777276, 37.412938312699055]]], [[[28.087615350713765, 37.41079825860469], [28.087680467169303, 37.41530123633444], [28.090501242367914, 37.41527524833608], [28.090435957121734, 37.410772274811976], [28.087615350713765, 37.41079825860469]]], [[[28.08358879675964, 37.523466663552924], [28.085926653127512, 37.52387436432089], [28.08645263061589, 37.525725287930825], [28.08927755944645, 37.525699264314554], [28.08924484401644, 37.523449373176646], [28.086909394471327, 37.523073351114135], [28.08638342598539, 37.52122242860578], [28.083558663236627, 37.52124838037876], [28.08358879675964, 37.523466663552924]]], [[[28.084690934454947, 37.40403034784292], [28.087513695028676, 37.40403605142641], [28.087481175681653, 37.40178611253783], [28.084660903355775, 37.401812020568265], [28.084690934454947, 37.40403034784292]]], [[[28.069479612917753, 37.525883330898694], [28.06951173758923, 37.52813323576966], [28.072336773011294, 37.52810761596898], [28.072304563524476, 37.52585771316743], [28.069479612917753, 37.525883330898694]]], [[[27.99202606472465, 37.44543937046339], [27.992145055760872, 37.45444865094382], [27.994691530422966, 37.45502966990453], [27.995030990323563, 37.45893107362666], [27.99736401700814, 37.4593089524484], [27.997887328128847, 37.46116032907613], [28.003347651056423, 37.46183031863324], [28.004369744805242, 37.466673970684724], [28.00372102095291, 37.47463094877041], [28.005930046778495, 37.47492060577941], [28.006578220228246, 37.47685997584997], [28.00865255640513, 37.477071692024445], [28.009435589196137, 37.4790889305213], [28.01198302958544, 37.479669560277465], [28.0123539316376, 37.48582395337915], [28.01468787698291, 37.486201474916356], [28.01521181658099, 37.48805275749273], [28.01997023791991, 37.48817296504965], [28.020897427390256, 37.49025708698599], [28.03100243911598, 37.490229096907335], [28.032238625546388, 37.492411855149136], [28.039824958875855, 37.49250651575715], [28.040752752868055, 37.49459047127068], [28.04923193674011, 37.49451546055121], [28.050898950042196, 37.49224887589648], [28.056481933686722, 37.492257292468985], [28.05771889021801, 37.49443977153096], [28.06054266687156, 37.494414453092446], [28.06051085029926, 37.49216452878255], [28.05780255891629, 37.49135265089228], [28.057708222707245, 37.48864099210333], [28.060447095954697, 37.48765535381494], [28.060777413716373, 37.483641597857435], [28.063210648978142, 37.483123872459025], [28.063937808900285, 37.481093410283705], [28.06600588214798, 37.48084536155932], [28.065927882912785, 37.472922559425164], [28.068704685641293, 37.47180768697209], [28.068672650379554, 37.469557760004875], [28.066225807723008, 37.46908401322602], [28.065781938451835, 37.46507721710992], [28.063448419737977, 37.464700697589], [28.062923472049643, 37.462849637360925], [28.060376237784215, 37.46227010170418], [28.060065175210518, 37.460621985022], [28.057242669337224, 37.46064727274755], [28.058046044840044, 37.46408745608219], [28.05671149986232, 37.46710357008798], [28.04925523398693, 37.46734456291879], [28.048791007050255, 37.46297592270602], [28.045983858474813, 37.46191101408264], [28.04583897641443, 37.45398875257349], [28.04155309252677, 37.45399907367916], [28.040248292369533, 37.45307700876832], [28.04006184358732, 37.445026387520166], [28.037239905603432, 37.44505118874294], [28.037006100382918, 37.448957495225734], [28.033149683577548, 37.450195703419766], [28.02943783972425, 37.449317645340365], [28.028789333020267, 37.447378396983765], [28.02596729666138, 37.44740293037082], [28.02463092971498, 37.44964033354488], [28.01356157433151, 37.449761769573804], [28.011833674605302, 37.447524787033814], [28.001734365605756, 37.44755105407801], [28.000499827535833, 37.44536793662946], [27.997866587005255, 37.44467396958696], [27.997614109122637, 37.4408856345435], [27.99479228943423, 37.44090942006269], [27.994640318176856, 37.44470116659767], [27.99202606472465, 37.44543937046339]], [[28.02627124006004, 37.46993055774656], [28.027110284890533, 37.46557779558989], [28.030529714038433, 37.46478506470572], [28.03495434563066, 37.46609254372874], [28.034675055963145, 37.473530868857225], [28.031990700369047, 37.474390511504104], [28.03165886957257, 37.47840421564493], [28.028064372621664, 37.47952059725322], [28.023560871139367, 37.47774947209013], [28.02353254075531, 37.47091540361824], [28.02627124006004, 37.46993055774656]], [[28.030416377949503, 37.45697958370158], [28.02815649377827, 37.45506785772806], [28.02935505384035, 37.45227458980692], [28.033988344634082, 37.451871519547865], [28.034065120669137, 37.45594815891173], [28.030416377949503, 37.45697958370158]], [[28.02894351387404, 37.46311344702805], [28.02824904595897, 37.46182706400187], [28.02937480698958, 37.46055276604359], [28.032233262553426, 37.46118888026207], [28.03143456770384, 37.463466721862424], [28.02894351387404, 37.46311344702805]], [[28.020442427527165, 37.45645662994582], [28.020876688891157, 37.45234813753402], [28.0255356337646, 37.45230779763538], [28.026449368673852, 37.45541496997669], [28.022919590441855, 37.45663195852409], [28.02302957825794, 37.4603460119774], [28.018873463377147, 37.460924574975564], [28.017695619712402, 37.457445801739105], [28.020442427527165, 37.45645662994582]]], [[[28.05778249613037, 37.498948945288014], [28.057814238627756, 37.501198868993995], [28.0601488718049, 37.50157548054945], [28.060674045472375, 37.503426538047485], [28.06632616770668, 37.50337564687013], [28.06629416730243, 37.50112573020816], [28.06395952025067, 37.50074924035923], [28.063434286166, 37.498898197600695], [28.05778249613037, 37.498948945288014]]], [[[28.03851576665345, 37.53739148977367], [28.047002194286655, 37.53734818106864], [28.047186703217328, 37.53545033691585], [28.04872331362862, 37.53473551237558], [28.054565247633455, 37.535188768413065], [28.055494005864446, 37.53727257902784], [28.061148691225657, 37.5372218969562], [28.06162154288325, 37.53536188472041], [28.063945966904303, 37.534943423482225], [28.063881995582832, 37.53044050202397], [28.061546442347115, 37.53006398013949], [28.06102104461114, 37.52821293793332], [28.05819599481995, 37.528238287117716], [28.05780893856512, 37.53258030171373], [28.04411399886631, 37.53287025180211], [28.04321355853835, 37.535331387033175], [28.03848695251322, 37.53517318017604], [28.03851576665345, 37.53739148977367]]], [[[27.984521166034096, 37.51982747818458], [27.98734833158208, 37.5198355114565], [27.987318683456795, 37.51758554534472], [27.984493969343877, 37.5176091258649], [27.984521166034096, 37.51982747818458]]], [[[27.976152475841072, 37.52891023463876], [27.981809035480794, 37.5288949763461], [27.981779544037185, 37.52664500994571], [27.97612551766056, 37.52669188031466], [27.976152475841072, 37.52891023463876]]]]}}