{"type": "Feature", "properties": {"fire_id": "EGE_2021_06", "fire_date": "2021-08-03", "province": "Denizli", "region": "Ege", "modis_area_ha": 1193}, "geometry": {"type": "MultiPolygon", "coordinates": [[[[28.854315124696676, 38.140246624589494], [28.854429084455965, 38.14474749261539], [28.85690289863745, 38.1452041538167], [28.857394906253255, 38.149206386644614], [28.86019541595351, 38.15012294996225], [28.860418326913877, 38.15591716804709], [28.86321913176423, 38.15683365063886], [28.863231561277274, 38.159545426736564], [28.860532883846837, 38.16042422132077], [28.860590053441157, 38.16267308689613], [28.86268561250081, 38.16286921907308], [28.863499666916898, 38.16487981742961], [28.86624108977269, 38.16567226761305], [28.866581804077697, 38.17384235344129], [28.869383375709422, 38.17475866656552], [28.869607169662793, 38.18055282337409], [28.871966958108185, 38.180912679077295], [28.872517779722486, 38.18275929853921], [28.87536687856502, 38.18271381467723], [28.87571236366479, 38.180951178857335], [28.878162074248866, 38.18041625710879], [28.8785074830713, 38.17865361443554], [28.880957094499276, 38.17811863667061], [28.882445243205588, 38.175849977394975], [28.885851856590115, 38.17601659693705], [28.88666670254713, 38.178027009948224], [28.8895155939443, 38.17798118756872], [28.89117107175796, 38.17570321783714], [28.894410086000907, 38.17587879748614], [28.895225163063344, 38.177889144999384], [28.90092683565248, 38.17779695246436], [28.900851912178975, 38.172000467263196], [28.90360382339262, 38.17099498684414], [28.903889984957353, 38.16698037052771], [28.906339001026947, 38.16644487709314], [28.90622176120275, 38.16194415994176], [28.903862449063165, 38.16158498028231], [28.903311024208236, 38.159738518196846], [28.898363387928807, 38.159589262888865], [28.897548450591092, 38.15757892814775], [28.890348642232073, 38.15829670862276], [28.886100179438404, 38.15728673309204], [28.886246672227173, 38.15396827012913], [28.888876078641236, 38.153209918856184], [28.88875996753179, 38.1487091459772], [28.880061644962378, 38.14826927271751], [28.8802428239651, 38.14517297716847], [28.882940691193756, 38.144293748035935], [28.882882873214932, 38.1420449041498], [28.880524301447434, 38.14168523447823], [28.879973631668424, 38.13983863755337], [28.87142347583451, 38.13997521376924], [28.870845668316623, 38.141928921711184], [28.867301138530802, 38.14289549392516], [28.86097344739737, 38.14223301335067], [28.860014000645943, 38.140156493298285], [28.854315124696676, 38.140246624589494]]], [[[28.842966095791557, 38.14267818386944], [28.843022689749453, 38.144927078604795], [28.848721966206163, 38.14483748590767], [28.848665197482397, 38.14258859836565], [28.842966095791557, 38.14267818386944]]], [[[28.828258748764487, 38.12488490505034], [28.828371045824277, 38.129385850848685], [28.831218139956682, 38.12934149038549], [28.831105668268716, 38.12484055171621], [28.828258748764487, 38.12488490505034]]], [[[28.819314877883574, 38.109253446866965], [28.81937067884175, 38.111502384183076], [28.822217092940353, 38.11145825927508], [28.822161204798974, 38.10920932550282], [28.819314877883574, 38.109253446866965]]], [[[28.81976207674901, 38.12726977147968], [28.819817927512304, 38.12951870132475], [28.82266504039006, 38.129474548019104], [28.822609102365842, 38.12722562171961], [28.81976207674901, 38.12726977147968]]]]}}