{"type": "Feature", "properties": {"fire_id": "EGE_2019_03", "fire_date": "2019-08-19", "province": "Muğla", "region": "Ege", "modis_area_ha": 420}, "geometry": {"type": "MultiPolygon", "coordinates": [[[[27.740150930716954, 37.12278866513426], [27.740194786453674, 37.12729229930163], [27.75144771453719, 37.12722150159166], [27.75235310416098, 37.12476236455953], [27.757053660165862, 37.12493232766108], [27.75703124903883, 37.122682072971415], [27.740150930716954, 37.12278866513426]]], [[[27.748260458018564, 37.08893504188883], [27.748282582451345, 37.09118531395367], [27.753904430522844, 37.09114970661487], [27.753882139907397, 37.08889943743889], [27.748260458018564, 37.08893504188883]]], [[[27.731749907644172, 37.127313090486126], [27.73456248472911, 37.12732733373046], [27.73454073748764, 37.12507706842228], [27.731730489178453, 37.12509444794777], [27.731749907644172, 37.127313090486126]]], [[[27.723221495934443, 37.11835138201397], [27.72603374320716, 37.11836583120765], [27.726012255425953, 37.11611555820873], [27.72320233302029, 37.116132732051405], [27.723221495934443, 37.11835138201397]]], [[[27.717678809983894, 37.12739911313204], [27.720491393179216, 37.12741369023668], [27.72047006243367, 37.12516341792484], [27.71765980216793, 37.12518046394552], [27.717678809983894, 37.12739911313204]]], [[[27.703005921774658, 37.06216956761583], [27.703234764917568, 37.0869539570874], [27.705554948443087, 37.08733775597618], [27.706068405733596, 37.089190646873945], [27.708877343724513, 37.089173889456426], [27.709043252450858, 37.085382131464065], [27.71164802164792, 37.08465024215749], [27.71086470124586, 37.081207263059376], [27.71187678955386, 37.07849075920483], [27.717209624542363, 37.07785615472772], [27.717061129847302, 37.06208543656134], [27.71431489048238, 37.0611408302588], [27.714185948844186, 37.05534217210263], [27.711378261588504, 37.055359042176676], [27.710899542692705, 37.057217868090284], [27.708587647924038, 37.057629282098254], [27.708316746854415, 37.059281959743814], [27.705796867992433, 37.05989945725005], [27.705196136844197, 37.061848095208106], [27.703005921774658, 37.06216956761583]]], [[[27.711968194576425, 37.118454243085885], [27.712010373883462, 37.12295790870545], [27.714820555460772, 37.122940997463395], [27.715299565436126, 37.12108217284806], [27.717613344422027, 37.12067061230386], [27.717592104066203, 37.11842033600402], [27.711968194576425, 37.118454243085885]]], [[[27.680894110546607, 37.10511565514118], [27.680914255003866, 37.10736595414178], [27.694977876800074, 37.10728435558734], [27.695054184360107, 37.10135957808514], [27.697729360908337, 37.10050763022161], [27.698462892918318, 37.098479214776596], [27.70052185378528, 37.098237642386074], [27.700501136127635, 37.0959873492223], [27.694878864327375, 37.09602042863788], [27.69400380545877, 37.09811786787647], [27.689273116140413, 37.09830667100394], [27.688814005469407, 37.102418808206295], [27.686500615335838, 37.102829803861205], [27.68547600804616, 37.10498477725377], [27.680894110546607, 37.10511565514118]]], [[[27.65797753892543, 37.05792079490492], [27.65799697216455, 37.060171122400504], [27.660316123373665, 37.0605558183603], [27.660828292207878, 37.0624089261744], [27.666448122520695, 37.06237748541127], [27.666428438123308, 37.06012716260154], [27.664109270964268, 37.059742586293154], [27.663597041462356, 37.057889492425126], [27.65797753892543, 37.05792079490492]]], [[[27.658289160173855, 37.09397566606219], [27.658308628029616, 37.09622597970496], [27.663930957751866, 37.09619463395754], [27.66441105648556, 37.09433599586249], [27.666724315074667, 37.09392543197322], [27.666704599999722, 37.09167512128782], [27.66108260732351, 37.091706595284926], [27.660602442692397, 37.09356522135838], [27.658289160173855, 37.09397566606219]]], [[[27.657647048437042, 37.019612251156985], [27.65766644496641, 37.0218625933656], [27.663283291056796, 37.02183133157597], [27.663263728899494, 37.01958099190551], [27.657647048437042, 37.019612251156985]]]]}}