{"type": "Feature", "properties": {"fire_id": "EGE_2021_04", "fire_date": "2021-08-04", "province": "Muğla", "region": "Ege", "modis_area_ha": 10045}, "geometry": {"type": "MultiPolygon", "coordinates": [[[[28.937441262375536, 37.06416704960073], [28.94025062357416, 37.06415274860487], [28.940193321684525, 37.061903567554296], [28.937386786167554, 37.06194945410539], [28.937441262375536, 37.06416704960073]]], [[[28.932391925084712, 37.08678169703647], [28.93520212742536, 37.08676749179769], [28.9351449277322, 37.08451831261616], [28.93233755031001, 37.084564103458526], [28.932391925084712, 37.08678169703647]]], [[[28.926943176876, 37.09366479517481], [28.92700015310459, 37.09591398176594], [28.92980795805183, 37.095868305381366], [28.929750898929495, 37.09361912249405], [28.926943176876, 37.09366479517481]]], [[[28.7219964492766, 36.98640677881522], [28.722097966364256, 36.99090885385735], [28.727227793530687, 36.991231847576955], [28.72781617082057, 36.99533238773528], [28.730138011511183, 36.995696102951754], [28.73067552129912, 36.99754404373474], [28.736288373574155, 36.99746205056192], [28.73699314908777, 36.99542782172408], [28.740500009181503, 36.99517456493848], [28.74190895092633, 36.997379678408215], [28.744344204360473, 36.997839756957525], [28.744768775185076, 36.9995909814274], [28.747204114586594, 37.00005099882295], [28.74767272806814, 37.00522151738214], [28.744923323909674, 37.006351764238225], [28.74497475687834, 37.008601213682084], [28.749703184560243, 37.00869277525332], [28.750643929150627, 37.01077101520962], [28.76688583295136, 37.01083869791349], [28.767948418101255, 37.014027027865225], [28.764792252799133, 37.015071135725734], [28.764844287683083, 37.01732055789294], [28.767166948873204, 37.01768352491529], [28.767705525331447, 37.01953126381369], [28.770242629411403, 37.02009584863547], [28.77056692866944, 37.02174189555747], [28.778383517881597, 37.02193341921662], [28.779099582881578, 37.026120837844395], [28.78944775823558, 37.02612638824981], [28.790442695050288, 37.0304567657916], [28.79324952819419, 37.03041431988821], [28.793599165442682, 37.028289689421605], [28.795588696528988, 37.027906945946384], [28.79678423836816, 37.02917181066089], [28.796114721999768, 37.032624308877246], [28.807349042755686, 37.03245367205399], [28.808052190345077, 37.03041907437038], [28.811831758801695, 37.03014035431902], [28.813351970747224, 37.03123827436319], [28.813025543303418, 37.034620329660704], [28.820843443967128, 37.034809016038075], [28.821561981299364, 37.03899610354052], [28.826536659410692, 37.038865329676916], [28.827235476474986, 37.0411621140602], [28.82955911470594, 37.04152383012307], [28.830821263767994, 37.044161614906145], [28.83108162133597, 37.05369852170517], [28.83002748332439, 37.0563992339381], [28.8276136833043, 37.05693229752038], [28.82766765168469, 37.059181626229204], [28.835058702988988, 37.059171952923016], [28.836153394769035, 37.06130380761878], [28.841163476429458, 37.061534561795014], [28.841828964016916, 37.06346905551628], [28.847446328027484, 37.06338167426311], [28.84789718319219, 37.06151892218098], [28.85020222056885, 37.06108544809013], [28.850153597395316, 37.05766944273214], [28.851292923899496, 37.05662167433485], [28.857330521043284, 37.05652726957517], [28.85858268429543, 37.0587011412458], [28.861389228557428, 37.05865712241628], [28.861497687626375, 37.05486510703091], [28.864089406325057, 37.05410819618424], [28.86407481974418, 37.0481847889568], [28.86673409052039, 37.047306824362046], [28.8666114842597, 37.03925677189081], [28.86932308769371, 37.03825300941801], [28.869267931564767, 37.03600372567875], [28.86683080511931, 37.035546268853494], [28.865645800154592, 37.03287557439649], [28.866225533384707, 37.02348999541633], [28.867486757928965, 37.02253661850121], [28.871745660333946, 37.02244196655239], [28.872735308366778, 37.020277548340886], [28.876423345777138, 37.02027599758633], [28.87736765662891, 37.02235312965547], [28.88294247940847, 37.02226632908503], [28.884125824470424, 37.02005249415099], [28.89084177588014, 37.019920797186195], [28.89141285207992, 37.022130027447645], [28.89347658108591, 37.022326505305244], [28.894277813735787, 37.02433757139688], [28.897521646706455, 37.02541521373496], [28.896802184542313, 37.02831101557941], [28.89438979189519, 37.02884540303283], [28.894557612819625, 37.03559937608474], [28.89736324873847, 37.035554529967094], [28.898506953964226, 37.033342746601775], [28.904381275165125, 37.03321634287278], [28.90579562113302, 37.035419344786824], [28.908232942219765, 37.035875994282755], [28.908700984203456, 37.03762742935157], [28.914276744801757, 37.03753601836914], [28.91472582931643, 37.03567305484836], [28.9170296538375, 37.03523831253075], [28.916859845281877, 37.028484427444035], [28.914233617519006, 37.027810638208905], [28.913937565515894, 37.024025116360136], [28.911738922132187, 37.02375213650622], [28.9110720677273, 37.021818063067144], [28.908270152651674, 37.020773414741946], [28.907868773346916, 37.00609683730296], [28.90511087647212, 37.005180094890186], [28.904891715121924, 36.999384891094984], [28.902569076350527, 36.99902462256876], [28.902027426371188, 36.99717757693083], [28.89140532050108, 36.997038932397636], [28.890683462273056, 36.99285233581713], [28.88836107854361, 36.992491781217765], [28.88781982285121, 36.99064465778784], [28.885756964539056, 36.990448056032115], [28.884956348838646, 36.98843690519794], [28.88252067408557, 36.98797972740959], [28.88209304021842, 36.986229078063815], [28.876481464683792, 36.98631794247189], [28.876494072782613, 36.989863229178155], [28.874905448643464, 36.99084784963961], [28.871861032805796, 36.99073627296619], [28.870917298518297, 36.9886590714806], [28.86848168820043, 36.9882016033156], [28.867999281321087, 36.984198482401546], [28.865195485060127, 36.98424258214067], [28.864745430873274, 36.98610539870217], [28.862442735733463, 36.986539095737406], [28.863318258702414, 36.992358173610434], [28.86226602946312, 36.99505914405154], [28.859854405906084, 36.99559280936606], [28.859964083951876, 37.00009453778903], [28.862400033389306, 37.00055217084976], [28.862882371946096, 37.00455628883654], [28.865395368223567, 37.0047549376639], [28.8661150949753, 37.006172514183596], [28.864598685613654, 37.00737391041678], [28.86012883604735, 37.006854891094925], [28.859733442529635, 37.010970102254916], [28.854909587847345, 37.01120150617288], [28.85439846701885, 37.002438035781985], [28.851773638138095, 37.001762820373465], [28.850704803488004, 36.99692492927885], [28.85176791041635, 36.99395873036911], [28.854179546434704, 36.99342522917642], [28.853960874044795, 36.98441862187686], [28.851638891069022, 36.9840573359631], [28.85109858523627, 36.98221001622874], [28.846093711059297, 36.98197953674492], [28.84542891528584, 36.980045025177674], [28.842892666621907, 36.97948202367818], [28.842117669478974, 36.97698646369511], [28.842961594922386, 36.97574173757711], [28.84532002304797, 36.975537030305894], [28.84589082910212, 36.97358330154673], [28.848072921947324, 36.97324090668714], [28.84877449521738, 36.97120609295503], [28.853632859224724, 36.9709009154784], [28.8535782992804, 36.96865158609215], [28.85074034788889, 36.96734234178817], [28.850962369341016, 36.96478512910843], [28.85346897152517, 36.96414360331322], [28.85341442977172, 36.96189427115336], [28.850979769093957, 36.96143641521696], [28.850498505632785, 36.95743317597536], [28.84817736170763, 36.957071797668426], [28.847637357673744, 36.95522444662571], [28.845440889839637, 36.954950173477606], [28.844776374850213, 36.95301564295628], [28.842241035996928, 36.952452600272686], [28.84191555714526, 36.95080676498344], [28.83948131127053, 36.95034866071239], [28.83905490454196, 36.94859781272352], [28.833814349062738, 36.9481830297005], [28.83333409457255, 36.944179685407946], [28.826083876299908, 36.94487988168132], [28.820190906078526, 36.9442207191244], [28.819249187191172, 36.94214303717866], [28.81083443312938, 36.94227167748746], [28.810641120403254, 36.94617883486649], [28.8068449769039, 36.94683102278486], [28.805271275426918, 36.944609712126386], [28.802837416403232, 36.94415084452137], [28.80241188377235, 36.94239983950942], [28.799609516844093, 36.94244234930075], [28.799266712558335, 36.9442050115976], [28.796856185168192, 36.94473736932305], [28.79555117592863, 36.94698289882067], [28.777264076785283, 36.94728559482822], [28.776812044901092, 36.949148140502], [28.77450988459634, 36.949580117168125], [28.77506854530374, 36.95997005818092], [28.771963129342485, 36.96091640666336], [28.772068697589965, 36.96538672764585], [28.774765085085452, 36.96618260399818], [28.775032767079782, 36.97210239288677], [28.777568328420266, 36.97266686555353], [28.77790657809167, 36.97534809379933], [28.77674617631813, 36.97652672462466], [28.772329964551307, 36.97665252268085], [28.772382148870843, 36.978901950273425], [28.774917920748265, 36.97946647350878], [28.77525611761981, 36.98214770804691], [28.772486751202532, 36.98341012433034], [28.771913989523338, 36.98536354888219], [28.756727386556175, 36.98579329232681], [28.755393883195694, 36.983387424160725], [28.750909182045103, 36.983569225864905], [28.749968795533576, 36.98149097036254], [28.747433118594138, 36.980925911033204], [28.74710952486402, 36.97927977252165], [28.744674853510457, 36.97881973440324], [28.744250419562576, 36.97706850068239], [28.741486075430096, 36.97710753895492], [28.740993636222143, 36.978972098641115], [28.7386903534013, 36.97940340706915], [28.73874163501032, 36.98165385382714], [28.743984067227775, 36.98207180692665], [28.74356386215704, 36.985930686580005], [28.739729144055755, 36.985986962137005], [28.73854691153236, 36.98363540836948], [28.731561689537507, 36.98395450781665], [28.730314406417754, 36.981779142264834], [28.72754987172769, 36.98181786041392], [28.727107999127174, 36.98593495705937], [28.7219964492766, 36.98640677881522]], [[28.863124895029145, 37.0145716811345], [28.86483469206689, 37.01319364387703], [28.86669036335907, 37.01470566694055], [28.86473762762784, 37.01613754870702], [28.863124895029145, 37.0145716811345]], [[28.860669269337784, 37.0316661264018], [28.863135788624707, 37.03125551765535], [28.86400754169055, 37.03351363907599], [28.861190895106027, 37.034212522783285], [28.860027304088277, 37.032965911632964], [28.860669269337784, 37.0316661264018]], [[28.854946005772824, 37.02496221979726], [28.852408187970816, 37.02439946892483], [28.852125188388825, 37.02145770522468], [28.85645262199876, 37.02048877146178], [28.857704124399856, 37.02266268196821], [28.86024191805989, 37.02322532018292], [28.86062320304069, 37.027124452269874], [28.86327328769705, 37.02740324004587], [28.86367614718207, 37.029119151157836], [28.86217535007, 37.029957477227114], [28.860431587456127, 37.029106109124456], [28.855840013768, 37.02958757549107], [28.854946005772824, 37.02496221979726]], [[28.846676627019, 37.034138059221085], [28.84915249053787, 37.03419654094806], [28.84896248886741, 37.03637625619568], [28.846362593683924, 37.03603965590483], [28.846676627019, 37.034138059221085]], [[28.822618068475258, 36.96562842528329], [28.8238271851281, 36.964305698530474], [28.828206151779085, 36.96453538688618], [28.829350913790154, 36.962324219445534], [28.83802694410839, 36.96215795669016], [28.839375717376427, 36.96319930677143], [28.839485984811493, 36.967781046625525], [28.83673935389275, 36.96891335463843], [28.835558383817112, 36.971481970489904], [28.824110397411758, 36.97133387668578], [28.822761676556674, 36.970292352687196], [28.822618068475258, 36.96562842528329]], [[28.837535189830515, 37.02258237542675], [28.82973335854033, 37.0226214274713], [28.830006029689553, 37.018984162170064], [28.83744573966665, 37.018869168730845], [28.837535189830515, 37.02258237542675]], [[28.8268448588235, 37.02538826377921], [28.827106797961395, 37.02337698680505], [28.829793434743216, 37.02372303545588], [28.829271634980433, 37.0256989106508], [28.8268448588235, 37.02538826377921]], [[28.818319320825267, 37.02931963641359], [28.812977899087198, 37.029511237923565], [28.812904023286308, 37.02419191687225], [28.815563106575464, 37.02331510321543], [28.81640620680092, 37.02121010560546], [28.82009165845977, 37.021096894177354], [28.821536147579373, 37.02461162822592], [28.818429944967875, 37.02552758557934], [28.818319320825267, 37.02931963641359]], [[28.814539014860255, 37.011137621941906], [28.815298717888936, 37.00375576709691], [28.819768997823722, 37.002771211088394], [28.820723608097328, 37.00396353339073], [28.820465296427347, 37.01383241031377], [28.815834851062334, 37.01390336987284], [28.814539014860255, 37.011137621941906]], [[28.79860558964108, 37.01906993729834], [28.797459141982742, 37.02128083477258], [28.79314712214833, 37.02056970696669], [28.79293661258496, 37.00860237321599], [28.806324821072984, 37.00785115614486], [28.80676148154685, 37.0159765077608], [28.80417042139883, 37.016732150583785], [28.803300444848883, 37.019198537013246], [28.79860558964108, 37.01906993729834]], [[28.784179844722452, 37.0012093145791], [28.789161067291612, 37.00129218019851], [28.790133898864013, 37.00296669735789], [28.788496166259442, 37.00405167883043], [28.78478220305565, 37.00339667563877], [28.784179844722452, 37.0012093145791]], [[28.775447676023543, 36.9901226909369], [28.77615133874179, 36.98808825632572], [28.779657685333653, 36.98783385407548], [28.781823565289994, 36.99095906320938], [28.780872810700956, 36.993948708787954], [28.778364566801, 36.99458874027342], [28.777058214238778, 36.99683408551315], [28.773993004366027, 36.99684771085201], [28.772805624016197, 36.9958354458799], [28.772789235535488, 36.990998591503796], [28.775447676023543, 36.9901226909369]]], [[[28.755830251900655, 36.98167804097412], [28.75970416390966, 36.980741916575916], [28.76400740123653, 36.981280035134205], [28.76395545893833, 36.97903059826686], [28.755536390756188, 36.97915542671826], [28.755830251900655, 36.98167804097412]]], [[[28.848215822665065, 37.094918351952536], [28.848270474367567, 37.09716764020222], [28.85107845321168, 37.09712382669959], [28.851023718595254, 37.094874542002785], [28.848215822665065, 37.094918351952536]]], [[[28.80523423107977, 37.061746881744874], [28.808043660653738, 37.06173571580815], [28.807990266608392, 37.05948636355225], [28.80518360787314, 37.059529119863384], [28.80523423107977, 37.061746881744874]]], [[[28.70464587812684, 36.96412387608738], [28.704696047355814, 36.96637338931419], [28.7074994338133, 36.9663330969046], [28.70795325015694, 36.96447077431651], [28.71025628341536, 36.96404006855668], [28.71020595485608, 36.96179056096936], [28.70740273890062, 36.96183091306104], [28.7069489221887, 36.96369323427933], [28.70464587812684, 36.96412387608738]]], [[[28.680503213269596, 36.88781901227954], [28.68330638878242, 36.88781096189309], [28.68325698988419, 36.885561393949864], [28.680456524085905, 36.88560104013406], [28.680503213269596, 36.88781901227954]]], [[[28.673714551104634, 36.9622759281858], [28.676520461943586, 36.962267969686906], [28.676471129032215, 36.96001842216244], [28.67366792916764, 36.960057976245515], [28.673714551104634, 36.9622759281858]]]]}}