{"type": "Feature", "properties": {"fire_id": "EGE_2024_08", "fire_date": "2024-08-17", "province": "İzmir", "region": "Ege", "modis_area_ha": 413}, "geometry": {"type": "MultiPolygon", "coordinates": [[[[27.616621647274812, 38.18706430811725], [27.616640615596094, 38.18931422209898], [27.62520058329455, 38.18926993532665], [27.624939328019188, 38.186744186774824], [27.620990677674143, 38.18764311628744], [27.616621647274812, 38.18706430811725]]], [[[27.62540812986345, 38.18503775288065], [27.628016594397632, 38.18474768448375], [27.62795860227482, 38.17799173348749], [27.625108330393477, 38.178006941354866], [27.62540812986345, 38.18503775288065]]], [[[27.62546123096923, 38.19124764867267], [27.625262361469456, 38.19602798276341], [27.627617005927423, 38.19641292705001], [27.628136628545544, 38.19826575754154], [27.63266993179052, 38.1979656678484], [27.633866155382634, 38.200488079551484], [27.636717298659004, 38.20047265146868], [27.63665846996852, 38.193716729964734], [27.6343038674788, 38.193331966492565], [27.633784125786967, 38.191479162804384], [27.62546123096923, 38.19124764867267]]], [[[27.610630478395745, 38.15329868232968], [27.610649239691185, 38.15554861180815], [27.61635198423997, 38.15551882292276], [27.616963488174154, 38.15357089464011], [27.620382636296736, 38.15290033858412], [27.62185075863501, 38.15361868507382], [27.622062592278088, 38.15548871547437], [27.624911989142287, 38.15547358905142], [27.624631611790566, 38.15069577283104], [27.620346045498557, 38.15158304874282], [27.618396009360154, 38.149940770765966], [27.61940563115497, 38.14483944946284], [27.62457865818716, 38.144485833062745], [27.624796692131127, 38.14195849573502], [27.61909501229546, 38.1419886856403], [27.61860737135046, 38.14384688200228], [27.616261153745985, 38.14425672649775], [27.617071046129016, 38.149952690689034], [27.61612684585319, 38.15255381497166], [27.610630478395745, 38.15329868232968]]], [[[27.625100201651122, 38.14898933166], [27.628055438792543, 38.14850820765268], [27.627688104515695, 38.14644935461576], [27.625076288189344, 38.146187135382014], [27.625100201651122, 38.14898933166]]], [[[27.630216364897496, 38.14887816322233], [27.63064198810448, 38.15769609346057], [27.633491466171282, 38.15768075815415], [27.63347728462515, 38.15201113188587], [27.6362861470531, 38.1509062531326], [27.636266601388147, 38.148656332854195], [27.630216364897496, 38.14887816322233]]], [[[27.6307950550822, 38.17568866550215], [27.633647475977785, 38.17570494094132], [27.63369248337854, 38.17215944802198], [27.636462399329954, 38.171183467290376], [27.636442834026195, 38.16893355487738], [27.630739066251486, 38.168964328319085], [27.6307950550822, 38.17568866550215]]], [[[27.63392479420014, 38.20725021262912], [27.633944308894147, 38.20950011142042], [27.636795803648887, 38.20948467837533], [27.636776201191804, 38.20723478082301], [27.63392479420014, 38.20725021262912]]], [[[27.622120046396144, 38.16225091581838], [27.622139166827637, 38.16450083699188], [27.624988914390865, 38.16448570570172], [27.624969706390893, 38.16223578574347], [27.622120046396144, 38.16225091581838]]], [[[27.616678637207617, 38.193823371085635], [27.616697611880433, 38.196073282446406], [27.619548592388316, 38.19605827274649], [27.61952953000962, 38.19380836259086], [27.616678637207617, 38.193823371085635]]], [[[27.559254358123457, 38.15130141229013], [27.559271539736052, 38.15355136318698], [27.56162448457839, 38.15393764713178], [27.56214212455452, 38.15579079869319], [27.567844937837826, 38.15576336487164], [27.5681786622172, 38.1537009313837], [27.565474529118028, 38.15312725859255], [27.56495682467104, 38.15127412139198], [27.559254358123457, 38.15130141229013]]], [[[27.570333511136944, 38.153308956190095], [27.575215484467204, 38.153198608491344], [27.576408983177718, 38.15572164669796], [27.57925841299117, 38.155707627765764], [27.579240615997495, 38.15345768551528], [27.57603084912636, 38.152546719864525], [27.57643509459361, 38.14992310792028], [27.579204954228665, 38.148948474624824], [27.579951700932785, 38.1469210368957], [27.582908781801027, 38.146349324798], [27.584620355395472, 38.14693831926281], [27.584915088966003, 38.148920177406985], [27.592599891629355, 38.14871106993999], [27.593492629010395, 38.1511302871489], [27.596341871465448, 38.15111585522493], [27.59708816367744, 38.14908831300662], [27.602029702103394, 38.148833701005216], [27.60264153455146, 38.146885842356575], [27.605732704400165, 38.14623383814571], [27.607444454356738, 38.14682249851352], [27.607739804226917, 38.14880429426347], [27.610588948731333, 38.14878951749328], [27.61053263851482, 38.14203350275574], [27.59627246779579, 38.14210675780428], [27.594577076786162, 38.14436693882159], [27.591341907384578, 38.1441554370612], [27.590562875738556, 38.142135602828006], [27.582008310669753, 38.142178301292674], [27.581395965840695, 38.14412605814978], [27.577830608105153, 38.14505402249426], [27.574088874292524, 38.144161999196264], [27.573445857057873, 38.14222041522299], [27.570596948962617, 38.14223428902022], [27.56974277218584, 38.14466216514202], [27.56490690565883, 38.144546568522046], [27.56492598054255, 38.146764878639104], [27.569453694527752, 38.14615459779887], [27.57123687253404, 38.14728575626891], [27.570333511136944, 38.153308956190095]]], [[[27.60231167678595, 38.18263233722881], [27.60233020198013, 38.18488225890638], [27.610889726727343, 38.18483803870163], [27.610870938317085, 38.18258812057488], [27.60231167678595, 38.18263233722881]]], [[[27.596529387676437, 38.17364934535071], [27.59654772912232, 38.17589927286094], [27.59939793414182, 38.17588475889494], [27.599379505076335, 38.173634832550256], [27.596529387676437, 38.17364934535071]]], [[[27.565326166569676, 38.19858810834996], [27.565343564196404, 38.20083803873531], [27.568130429455078, 38.20178558471118], [27.568233720586324, 38.20533032724744], [27.571020794448867, 38.20627780224902], [27.571159451641563, 38.21432860090942], [27.573514416069855, 38.21471462671393], [27.574032806424245, 38.21656770093731], [27.57688460858576, 38.21655372090542], [27.577226035786065, 38.21028850155006], [27.579686727975158, 38.20978056978715], [27.580063648403296, 38.20802139757341], [27.582524243977865, 38.20751340690586], [27.582901085004924, 38.20575422554682], [27.585361583969704, 38.20524617598552], [27.585639050806925, 38.20359403946722], [27.5881987479708, 38.20297887704286], [27.588945776813592, 38.200951398272146], [27.593890849330236, 38.20069710211807], [27.593097914664067, 38.19486870127953], [27.59421245439468, 38.19217879968471], [27.596672416052627, 38.19167051628238], [27.59665406039463, 38.18942059488212], [27.59380332655631, 38.18943504655216], [27.593314741944802, 38.19129313086042], [27.590966858136117, 38.191702480448086], [27.590689553470277, 38.193354631547514], [27.58813021384391, 38.193969846376916], [27.58751761683501, 38.19591762021764], [27.58529339365959, 38.196237144321955], [27.58519040552171, 38.19990781222713], [27.582474347053797, 38.20075740582447], [27.58143195782711, 38.202911233527274], [27.577152048392882, 38.202872358712206], [27.57674239015329, 38.19853258265884], [27.565326166569676, 38.19858810834996]]], [[[27.58800342074163, 38.17819860477891], [27.588021502999403, 38.18044853401153], [27.593726211592447, 38.180419827996815], [27.593707953934093, 38.178169901069346], [27.58800342074163, 38.17819860477891]]], [[[27.582151562494687, 38.16020270406403], [27.582169453251304, 38.162452642562215], [27.58787276531984, 38.1624242321437], [27.58785469931817, 38.16017429592727], [27.582151562494687, 38.16020270406403]]], [[[27.582205314905977, 38.16696184068658], [27.582223211652757, 38.16921177656699], [27.585073163612524, 38.169197612362815], [27.58505517927426, 38.16694767761992], [27.582205314905977, 38.16696184068658]]], [[[27.565082467362306, 38.16704548055607], [27.56509983782925, 38.16929542315411], [27.567453319064782, 38.169681585087815], [27.56797122262258, 38.17153470396882], [27.57058375637541, 38.17179818643209], [27.571310303661967, 38.16966288446974], [27.57365759686272, 38.16925393116024], [27.573604653594426, 38.16249789490692], [27.56790132145212, 38.16252561248952], [27.568219918113545, 38.16622474508004], [27.565082467362306, 38.16704548055607]]], [[[27.57108032851647, 38.173499718263734], [27.571137370898253, 38.18080801745362], [27.57794358348112, 38.17989661931835], [27.582308911647285, 38.18047700195682], [27.58229100503318, 38.178227070438176], [27.579080110998227, 38.17731620100549], [27.57940108181902, 38.17373510561113], [27.57108032851647, 38.173499718263734]]], [[[27.570667326062335, 38.18251424584217], [27.565204269373567, 38.18281681585453], [27.565221653414707, 38.18506675234664], [27.56971364441639, 38.18510480868586], [27.570948268618892, 38.187292173314404], [27.5737989305685, 38.18727827718439], [27.573781281332383, 38.18502834489846], [27.571427273598214, 38.18464231496056], [27.570667326062335, 38.18251424584217]]], [[[27.54513928482565, 38.17164602062692], [27.545156045029056, 38.17389596906526], [27.548006197649244, 38.17388270302217], [27.548340557997832, 38.17182032735646], [27.54513928482565, 38.17164602062692]]], [[[27.550496049831313, 38.17142871246976], [27.556551320561837, 38.17158938183125], [27.55653421144986, 38.16933943682012], [27.55083032956137, 38.169366329474045], [27.550496049831313, 38.17142871246976]]], [[[27.54784153049984, 38.15135520029081], [27.547858361526647, 38.153605155508316], [27.550707723005402, 38.153591829849006], [27.55069080445271, 38.15134187570183], [27.54784153049984, 38.15135520029081]]], [[[27.51639256373596, 38.14248509247099], [27.516408423553262, 38.14473506259495], [27.522246911212747, 38.14528879041776], [27.522146474569425, 38.14921598752248], [27.52694703516326, 38.14935573167464], [27.527868987734003, 38.15144355307958], [27.530718274506235, 38.15143071296321], [27.530271684664996, 38.14810616709795], [27.531474340456693, 38.14697838749733], [27.54495083277855, 38.14685925327465], [27.544934095123466, 38.1446092943746], [27.54258153450234, 38.14422267251924], [27.542064473687134, 38.14236942674524], [27.53921554462185, 38.142382539484736], [27.538725870908852, 38.14424041967272], [27.53536845316357, 38.14521669492365], [27.530672019292332, 38.14467464324409], [27.53049089167957, 38.14654657543991], [27.529034281860756, 38.147279259124296], [27.527080295492823, 38.146014149509746], [27.52780013333337, 38.142434387933015], [27.51639256373596, 38.14248509247099]]], [[[27.51656514672758, 38.16723417226608], [27.519179547854957, 38.167530424199114], [27.520031429326487, 38.16530578550143], [27.523766854584434, 38.16437905934215], [27.527465843710036, 38.16536172403857], [27.528702112222796, 38.16801326624983], [27.5268228814209, 38.17006562693816], [27.519674897299303, 38.16923218360279], [27.51972679724982, 38.176540550700174], [27.522335406500794, 38.176252828730796], [27.52282570157579, 38.1743950224035], [27.525173428676062, 38.17398703546024], [27.526029417784713, 38.17155948212239], [27.5308652879938, 38.17170830689222], [27.531757241331263, 38.16961231759824], [27.536556790430023, 38.16942930417646], [27.537712075183986, 38.16689513248808], [27.542247935967545, 38.167150027380615], [27.54223126920094, 38.164900075264455], [27.53786974382421, 38.16552184007993], [27.53599911086133, 38.16449455539666], [27.536474251749123, 38.15816709695111], [27.529293647516884, 38.15817214709817], [27.52789755567803, 38.15595281887761], [27.522194689795434, 38.15597831317494], [27.521720550529437, 38.160089192192295], [27.516519667179185, 38.160509692722485], [27.51656514672758, 38.16723417226608]]], [[[27.51925557727818, 38.178246583100034], [27.516646884137973, 38.17853423714866], [27.51666277229672, 38.18078419333539], [27.519513206450863, 38.18077161692038], [27.51925557727818, 38.178246583100034]]], [[[27.53373969053608, 38.17395152105048], [27.53378897465062, 38.180707589639425], [27.536639397960275, 38.180694597525424], [27.53658985070017, 38.173938532069045], [27.53373969053608, 38.17395152105048]]]]}}