{"type": "Feature", "properties": {"fire_id": "EGE_2022_03", "fire_date": "2022-09-21", "province": "Muğla", "region": "Ege", "modis_area_ha": 619}, "geometry": {"type": "Polygon", "coordinates": [[[28.31772569378965, 36.836094252256174], [28.317841626263625, 36.84285035665819], [28.32015713601043, 36.84322223704807], [28.320683617482516, 36.84507231086596], [28.323211915094294, 36.84564665856694], [28.323525773109143, 36.847294193028354], [28.329128690256056, 36.84723167118088], [28.32998351377839, 36.84512982339899], [28.333811923264232, 36.845086924377895], [28.334857060669616, 36.851676013394524], [28.337958376195676, 36.85145032857071], [28.338580930330064, 36.8472300730923], [28.345577761365323, 36.84754248178836], [28.34553028553945, 36.85115964327114], [28.340083783015558, 36.85180800977475], [28.34050344732592, 36.85611788657075], [28.348910657941506, 36.85602276318182], [28.349372677006777, 36.85416160548789], [28.351674663033673, 36.853737874852264], [28.351643975297993, 36.84996899889534], [28.352994842788693, 36.848889666601316], [28.364577872472246, 36.84918793776147], [28.36565638673654, 36.85132455754272], [28.37065195706181, 36.851575516271744], [28.371303618082486, 36.853513015798946], [28.37383254038361, 36.854086272294275], [28.374147521048442, 36.85573364780519], [28.37694729750663, 36.85570124304515], [28.37707986348452, 36.85190902164607], [28.37966993902033, 36.85116271147547], [28.379629502684608, 36.848912810004805], [28.377313569119977, 36.84854209815957], [28.376785704365137, 36.846692304766805], [28.36661081641117, 36.846705253149196], [28.365532344846557, 36.84456863962598], [28.363003794756057, 36.84399519788942], [28.36268910850484, 36.84234778377587], [28.359889802244183, 36.842379842814694], [28.35857346322066, 36.84462084836547], [28.346797695985597, 36.84462118727661], [28.345870003911774, 36.84253941236494], [28.34325480935268, 36.84185271862355], [28.34298799713972, 36.8380650245189], [28.340672546954405, 36.83769358772388], [28.340145642716756, 36.83584360887719], [28.324682955179725, 36.83598939179657], [28.323249611511383, 36.8337778364811], [28.320489950343525, 36.83381007755987], [28.320027334786758, 36.83567114070211], [28.31772569378965, 36.836094252256174]]]}}