{"type": "Feature", "properties": {"fire_id": "EGE_2021_01", "fire_date": "2021-08-02", "province": "Muğla", "region": "Ege", "modis_area_ha": 18125}, "geometry": {"type": "MultiPolygon", "coordinates": [[[[27.947792987921567, 37.07398722135982], [27.94782099644786, 37.07623738279543], [27.950629284655985, 37.076214906289984], [27.95060119317396, 37.07396474667811], [27.947792987921567, 37.07398722135982]]], [[[27.936046285750333, 37.033517443544156], [27.936073906640456, 37.035767627970976], [27.938880713375443, 37.035745450218734], [27.938853009694007, 37.03349526759216], [27.936046285750333, 37.033517443544156]]], [[[27.92510225402778, 37.0583571265532], [27.927912225828077, 37.05836681674327], [27.927884823311874, 37.056116635678855], [27.92507725765086, 37.056138563567615], [27.92510225402778, 37.0583571265532]]], [[[27.911557042086685, 37.1012784598123], [27.914368603829626, 37.101288449384136], [27.914341559220464, 37.09903827606621], [27.911532399860153, 37.09905990469574], [27.911557042086685, 37.1012784598123]]], [[[27.65743353438649, 36.99482423646312], [27.657530527073398, 37.006088420382525], [27.659591102929294, 37.006306417492944], [27.660359802136668, 37.00832627542289], [27.66304665734929, 37.00914754639516], [27.66324799134144, 37.01732441275992], [27.66599203020536, 37.01827023029733], [27.66611720033934, 37.024069014351014], [27.668435289295413, 37.024453564371264], [27.668947398929372, 37.02630664880954], [27.673209413350218, 37.026310080867724], [27.674502384215938, 37.027236386628644], [27.674688036729105, 37.039795457119325], [27.677006645583432, 37.04017983344783], [27.677519074503813, 37.04203287284877], [27.685060290002184, 37.0421507809563], [27.685972626584924, 37.044237843985336], [27.68871791272614, 37.045183119005266], [27.688637323363057, 37.05026985605953], [27.686033495212524, 37.051001234452016], [27.685300068008367, 37.05302958788973], [27.683242274474896, 37.05327088589471], [27.683075125030754, 37.05706264062241], [27.680471010483384, 37.05779389898298], [27.68053136508869, 37.06455106485044], [27.682962828494837, 37.06503298983487], [27.684124158792226, 37.06784591361355], [27.68301458146864, 37.07080461389699], [27.68059179538428, 37.07131443978486], [27.680611906257905, 37.073564751783145], [27.6886682013723, 37.074014147053816], [27.68915064282438, 37.08478310801099], [27.69147069339927, 37.085167184008974], [27.69198379330014, 37.08702014024505], [27.696716724097424, 37.08715363970157], [27.697629937604095, 37.08924058846126], [27.699950164535426, 37.08962449643447], [27.700504987946026, 37.0959842178916], [27.702568110850702, 37.09620143897123], [27.70333889017708, 37.09822096685441], [27.706029379884523, 37.09904121440861], [27.706961883697748, 37.10628949938383], [27.70606966916291, 37.11101268480053], [27.70346394571168, 37.11174445831434], [27.703505611098777, 37.116248137323204], [27.706038556308194, 37.11683555219062], [27.706361301510846, 37.12073818833215], [27.708682533335324, 37.121121912904414], [27.70919630815982, 37.12297477656512], [27.714820555460772, 37.122940997463395], [27.715695312137356, 37.12084341635523], [27.720427319680706, 37.12065354555745], [27.720276282183498, 37.09682694265654], [27.72416345009503, 37.09525285335912], [27.728631727630937, 37.095814726637656], [27.729110239391176, 37.093955843225864], [27.73142311648676, 37.09354402098231], [27.732155682751152, 37.091515405092444], [27.73421433878376, 37.09127325056017], [27.73509811639648, 37.08656084083494], [27.741863135931894, 37.08694803052492], [27.742634855915345, 37.08896729580258], [27.7451671772734, 37.08955388404969], [27.745469714643033, 37.09120302989161], [27.747902420679807, 37.091683607642686], [27.74830473990819, 37.09343869352729], [27.75670022133802, 37.093386972061296], [27.75764453221798, 37.090925980894035], [27.76515585709348, 37.091077642451545], [27.76575526616554, 37.08912872489034], [27.770758734316605, 37.08878784137798], [27.77209650684815, 37.08655315605592], [27.780630470603352, 37.086497287904464], [27.782013647131993, 37.08871415659664], [27.784822518929975, 37.08869560062663], [27.785694959036775, 37.08659751750693], [27.79323727430808, 37.08638609819391], [27.79441403294494, 37.08418448153283], [27.80446407633394, 37.08405695841899], [27.804321275995484, 37.07053993488341], [27.80178915692764, 37.069954605819966], [27.80150757660047, 37.067138715198844], [27.804273653292107, 37.06603010893924], [27.804726335178355, 37.06191757425907], [27.80984953631354, 37.061485128140355], [27.811066614615463, 37.05892620965828], [27.81807094118556, 37.05989147777016], [27.818336999372836, 37.06593391749059], [27.821027533014284, 37.06675155935601], [27.821221771039763, 37.07267453142036], [27.823840480293136, 37.0733726543587], [27.82408267400903, 37.07716171745512], [27.82640312380735, 37.07754314896434], [27.826919442564495, 37.07939548554722], [27.8319286898888, 37.07966892150041], [27.832593478975618, 37.08386280950546], [27.834914173128762, 37.08424407100817], [27.835430746867026, 37.0860963653389], [27.840306566858857, 37.0862913415145], [27.841080879575056, 37.08830993472631], [27.84361389785876, 37.088894411760705], [27.843918560930305, 37.09054328065018], [27.846351829071036, 37.091021831409655], [27.846756408801724, 37.09277655574503], [27.84918976533795, 37.093255046969574], [27.84959442320718, 37.095009759994504], [27.854328008692086, 37.09513695921889], [27.85524562162344, 37.09722263764985], [27.867950512597417, 37.0971578564514], [27.86933641298212, 37.09937366813734], [27.87214561623857, 37.09935303895679], [27.872153762619707, 37.093553642246064], [27.874882543155284, 37.09254074271205], [27.874855098216855, 37.090322191346424], [27.87210594673542, 37.089381280343034], [27.872491449769342, 37.086227068774626], [27.874803262480825, 37.0858124620552], [27.87582222880523, 37.0836559152825], [27.886027329980635, 37.083475633105245], [27.886896908651607, 37.08137684010353], [27.891625901977434, 37.0811801719525], [27.892799717951064, 37.07897761484155], [27.897224132306462, 37.078884450083564], [27.89714451980422, 37.07212765338812], [27.89508156207103, 37.071913815280496], [27.894306000344454, 37.069895585678374], [27.89177324993308, 37.06931218636901], [27.891441275631134, 37.06541013840007], [27.88685983484029, 37.06534000475986], [27.885791439919867, 37.06319895678695], [27.883358832806195, 37.06272120469835], [27.88297441910797, 37.059799708873456], [27.88412731862063, 37.05876101908818], [27.88970651610137, 37.05807028667991], [27.894173704843947, 37.058625938640574], [27.894330346050456, 37.05483401975989], [27.896932215419913, 37.05409809340193], [27.896817539077254, 37.05010806466784], [27.902501623919232, 37.049548831595125], [27.90271490394315, 37.04338914289727], [27.908043527098037, 37.04274600684628], [27.90774939633726, 37.03898568143219], [27.91080065202074, 37.038217845920315], [27.91074686268923, 37.03371433769406], [27.90842736349021, 37.03333454129019], [27.907909405649505, 37.0314825672955], [27.905102731324707, 37.03150401032825], [27.90450732482716, 37.033453598733445], [27.900504747417568, 37.034354811230706], [27.897184869172772, 37.03342008506429], [27.89666718271361, 37.031568058372194], [27.891794769379768, 37.031375353339286], [27.891019728826418, 37.02935708197697], [27.886147466364914, 37.02916414289342], [27.885372598168114, 37.02714583162927], [27.882841339181056, 37.026562217844976], [27.8825361194787, 37.024913438908705], [27.87530310000092, 37.02490723798202], [27.874079306626868, 37.02272250933165], [27.86653995018226, 37.02261659453562], [27.865622968668966, 37.020530969932466], [27.853094735617372, 37.020613631997236], [27.851546892031713, 37.01837928359706], [27.838537940300576, 37.01836744208734], [27.837446849644152, 37.013972556440514], [27.835128289306226, 37.013591313637335], [27.834612248080063, 37.01173898935833], [27.818501692353603, 37.011621767206044], [27.817728792208307, 37.00960298391329], [27.81504031997779, 37.0087852345371], [27.81487086953231, 37.005115558668216], [27.812552683488303, 37.004733869571034], [27.812037252212697, 37.002881436988496], [27.807033108573307, 37.00260709588363], [27.80639431221356, 37.0006663659792], [27.803864507237897, 37.000081046791685], [27.803561106722846, 36.99843203529245], [27.8007555712292, 36.99845099578599], [27.801565680966693, 37.00414677699985], [27.80066043792343, 37.00936222635286], [27.796291802206287, 37.00964427418233], [27.795203271131317, 37.00524896306818], [27.787054097261432, 37.004700803320866], [27.78681221508287, 37.00175586509688], [27.7895372939214, 37.00077658826546], [27.78951402614752, 36.998526303634414], [27.787196158449447, 36.998144114965164], [27.78668138777807, 36.99629156243405], [27.784151871789767, 36.99570581915566], [27.783848915161375, 36.99405675085486], [27.77116095976188, 36.99411232473551], [27.76977986089492, 36.99189527110103], [27.7669745427952, 36.9919134304334], [27.76530965213633, 36.99417617599096], [27.762123502704, 36.99396880044949], [27.761352273804683, 36.991949624800014], [27.7585469481936, 36.991967584994185], [27.758614299306785, 36.999760216027774], [27.757113977424833, 37.00098288430546], [27.75376239711424, 37.00078285183651], [27.752951857812352, 36.998762318457096], [27.75018573505057, 36.99878138783593], [27.749127717403578, 37.001296456582665], [27.7456264572231, 37.000959191539664], [27.744540967489662, 36.99656337511124], [27.742223369336894, 36.99618030484074], [27.74170970036964, 36.994327544280374], [27.73609497157914, 36.994362495926985], [27.735749066634668, 36.99837585098189], [27.73332894306974, 36.998886731420235], [27.732307014190603, 37.00104211766866], [27.727731469439192, 37.001174739185544], [27.726065209225602, 37.003436945704074], [27.722878761632316, 37.00322852002295], [27.722108468485505, 37.001209082212064], [27.71472135963465, 37.00114931536026], [27.713658700901572, 36.999006630304216], [27.708655094732233, 36.9987281343771], [27.707979367085915, 36.99678552722079], [27.69678503698174, 36.99685332327394], [27.696306305476043, 36.998712108420996], [27.693996094945124, 36.99912322454846], [27.693394048000545, 37.00368814459782], [27.686962772936305, 37.00364372776482], [27.685583925817998, 37.00142567406419], [27.678513708749275, 37.001438766943906], [27.677135146366616, 36.9992206113791], [27.67240769616973, 36.99908627347753], [27.6714962880493, 36.99699908120957], [27.664426465421528, 36.9970113308486], [27.663048391641603, 36.99479300516013], [27.65743353438649, 36.99482423646312]], [[27.787464732358043, 37.0720036046322], [27.790260878019577, 37.07063134041086], [27.791282057442046, 37.0684754882853], [27.79453717489971, 37.06774743963303], [27.79778524705792, 37.0684886582185], [27.79855841956691, 37.076982300550036], [27.794342281703223, 37.077307968316276], [27.79311992361457, 37.07512240572911], [27.788387640336733, 37.07499274675841], [27.787464732358043, 37.0720036046322]], [[27.778403359624647, 37.01087153169631], [27.77979630499245, 37.009528952113556], [27.783265865766655, 37.01006175657046], [27.783768776724774, 37.013736725279045], [27.779186054993882, 37.01413995328343], [27.778403359624647, 37.01087153169631]], [[27.7721645443022, 37.02249952178357], [27.773757583333797, 37.01907009063296], [27.777871720891266, 37.01919045512783], [27.77886610290315, 37.025422043513636], [27.777068982137365, 37.02625279011471], [27.773546560902943, 37.02536551675575], [27.7721645443022, 37.02249952178357]], [[27.733643204375028, 37.03178506909601], [27.736438878343755, 37.03041406990398], [27.73689504650091, 37.02630173107803], [27.741128427258104, 37.02603899468815], [27.74206401346726, 37.03037902445088], [27.744809471180744, 37.03132300163954], [27.74473262398679, 37.036409747716576], [27.740808110085375, 37.03775266730385], [27.737396076167624, 37.03701065085614], [27.736482428392573, 37.03492399498062], [27.733865813025595, 37.034223915274076], [27.733643204375028, 37.03178506909601]], [[27.739014408657535, 37.01240652737492], [27.741489241129912, 37.012488155289205], [27.741267573177385, 37.0146665647978], [27.73867276088434, 37.01430559845117], [27.739014408657535, 37.01240652737492]], [[27.734514206105917, 37.083516716872396], [27.728820052678433, 37.08430738983179], [27.72856453982674, 37.08100164464043], [27.73286213569558, 37.07971691334239], [27.734514206105917, 37.083516716872396]], [[27.705249966241674, 37.07713120090668], [27.70595194646392, 37.062985204293554], [27.708625655868282, 37.06213302049341], [27.709499912824338, 37.06003546925011], [27.713146155341512, 37.05959756274286], [27.71425316672654, 37.06209926888311], [27.717075780694717, 37.06343591457585], [27.716815481452006, 37.06599151300672], [27.714295453398933, 37.06660919198779], [27.714262905967267, 37.07704080706488], [27.711588741050516, 37.0778931206684], [27.7108557496289, 37.079921618560675], [27.70739379487617, 37.08049796627588], [27.705249966241674, 37.07713120090668]], [[27.699839129255352, 37.01582189837095], [27.704835837287025, 37.01441993523296], [27.70609448747117, 37.016283510765675], [27.704668070080597, 37.019112926002634], [27.700995208222533, 37.01930433161092], [27.699839129255352, 37.01582189837095]]], [[[27.905450620164064, 37.06079701187405], [27.90547736473884, 37.06304720529517], [27.908285200392875, 37.06302573785086], [27.908258372912385, 37.06077554617184], [27.905450620164064, 37.06079701187405]]], [[[27.90325380077401, 37.112644198276286], [27.90328053062295, 37.11489437334536], [27.90609028127511, 37.11487293241568], [27.906063468307792, 37.112622759085646], [27.90325380077401, 37.112644198276286]]], [[[27.861331057159568, 37.13774456947749], [27.86135656966889, 37.139994760422205], [27.86367911622367, 37.14037543174871], [27.864196796767278, 37.14222756961484], [27.86673178813659, 37.14281152231153], [27.867037190803714, 37.14446030777372], [27.871773873454618, 37.144586769574055], [27.872692586675367, 37.14667228189722], [27.88113319114389, 37.146609830786154], [27.881054814308502, 37.1398530819187], [27.878244120903364, 37.13987394146813], [27.876908584153274, 37.14210977705139], [27.87237874981189, 37.14142629846706], [27.872293903962174, 37.132880659171036], [27.86810445628798, 37.13312841022135], [27.86663955400549, 37.13066864761612], [27.864068690344276, 37.13096418577616], [27.864094277653155, 37.1332143776773], [27.86678767745583, 37.13403093560105], [27.8668744515375, 37.13674300347191], [27.865598564897674, 37.13768594733476], [27.861331057159568, 37.13774456947749]]], [[[27.867096713417265, 37.12896224914926], [27.871592906850154, 37.12881371248275], [27.8727509482708, 37.131174240990305], [27.889392977098563, 37.130773773222394], [27.889361008326574, 37.125103425174665], [27.892127854740547, 37.123992769530524], [27.892101446194783, 37.121742591041084], [27.88929143089272, 37.121763703780694], [27.88892680637219, 37.123524036717896], [27.886503809457675, 37.12403806911776], [27.885168786494923, 37.1262739968801], [27.866831543299583, 37.126437038527456], [27.867096713417265, 37.12896224914926]]], [[[27.838591081626223, 37.117626200439126], [27.838615902540095, 37.11987641232412], [27.841425885749658, 37.11985650155089], [27.842297097648377, 37.117758027660834], [27.847028501687312, 37.117563109458466], [27.847003433899758, 37.115312901566966], [27.84137992729828, 37.11535294430093], [27.84090404316677, 37.11721224260757], [27.838591081626223, 37.117626200439126]]], [[[27.70923838815109, 37.12748465822263], [27.70928041948647, 37.131988319634466], [27.71490533369034, 37.13195452955731], [27.715384394763255, 37.1300957068317], [27.71769844686391, 37.12968414234998], [27.717677197054595, 37.12743386952153], [27.70923838815109, 37.12748465822263]]], [[[27.630775750063833, 37.168491368112875], [27.63079445468831, 37.17074166559125], [27.63360645172261, 37.17072666305195], [27.63358766372899, 37.1684763667898], [27.630775750063833, 37.168491368112875]]], [[[27.623663536573705, 36.98821100337724], [27.626471001291904, 36.98822785944494], [27.626452547288277, 36.98597749068598], [27.623647360993584, 36.985992260851745], [27.623663536573705, 36.98821100337724]]], [[[27.619567732221558, 37.175311017000844], [27.6195861090391, 37.177561316699695], [27.622398364853716, 37.17754657783221], [27.62237990463824, 37.17529627932812], [27.619567732221558, 37.175311017000844]]], [[[27.61389692510627, 37.170798773754186], [27.616711132587685, 37.170815798739746], [27.61669284550349, 37.168565495251556], [27.613880919492278, 37.16858009571494], [27.61389692510627, 37.170798773754186]]], [[[27.599588262431887, 37.14161110061918], [27.59960602498356, 37.14386142151667], [27.602417043169375, 37.14384716784498], [27.60239919735718, 37.14159684810332], [27.599588262431887, 37.14161110061918]]]]}}