{"type": "Feature", "properties": {"fire_id": "EGE_2024_03", "fire_date": "2024-08-17", "province": "Aydın", "region": "Ege", "modis_area_ha": 2283}, "geometry": {"type": "MultiPolygon", "coordinates": [[[[28.334875599183174, 37.65383381124995], [28.39154182972901, 37.653210494797534], [28.392219470340695, 37.64892551350081], [28.395920699555354, 37.64871214206275], [28.39717018437647, 37.65089076851517], [28.399999513586778, 37.650857218885044], [28.399856376612583, 37.64686859572051], [28.40558104796236, 37.64628446301967], [28.4070738709551, 37.644021541119486], [28.410590857116134, 37.644279894338844], [28.411293766863704, 37.64847041398522], [28.414122907912187, 37.64843554765043], [28.413994828951914, 37.64168063567809], [28.4111383103486, 37.64036137716417], [28.411376453739468, 37.63780489507307], [28.413909368577603, 37.63717217750482], [28.413824045015126, 37.632669930530064], [28.411180603218657, 37.631985402419836], [28.410906322436215, 37.628198481151934], [28.408566158775407, 37.62782892498359], [28.408031454820332, 37.62597963597917], [28.40520307857253, 37.62601335940479], [28.40473831266611, 37.62787456723768], [28.40241312366894, 37.62829975277767], [28.40197672112864, 37.63277640273675], [28.396832701237344, 37.63287234922963], [28.396874819281393, 37.63512193579706], [28.39895446007317, 37.63532668406354], [28.399749724646217, 37.63734104915424], [28.402847703615315, 37.63804859127784], [28.40245110127671, 37.641102271240904], [28.399834329859356, 37.64184953463544], [28.398667170370395, 37.644056802777854], [28.392423061061795, 37.64408598329947], [28.39134457907152, 37.640783404090406], [28.394122463520763, 37.63966088173099], [28.39408042157256, 37.63741129425871], [28.38916800446225, 37.63723985460054], [28.38792453086444, 37.63437401388474], [28.388783071432186, 37.63313233730389], [28.391163614617103, 37.632936232575986], [28.39143107477241, 37.62861902866711], [28.388436578342862, 37.62774889299026], [28.388163472609904, 37.6239618928613], [28.382502913570008, 37.624028362235755], [28.381335498142704, 37.626235469990434], [28.374047653953454, 37.62638034469242], [28.374368154971087, 37.630138665741825], [28.371298105813874, 37.63091874006271], [28.370751907023905, 37.63512306243773], [28.365715539463114, 37.635489903712845], [28.365489846236592, 37.63975981241926], [28.36013228935463, 37.640060813016866], [28.359120211706436, 37.64222121562002], [28.351674473253045, 37.64241123457727], [28.350811889157367, 37.6445131298062], [28.346049176462724, 37.644728763183124], [28.34608978088403, 37.646978393082996], [28.348865159119853, 37.647907719846906], [28.348830315589368, 37.65113523831899], [28.334837843427888, 37.65161577885269], [28.334875599183174, 37.65383381124995]]], [[[28.393564513952338, 37.62821226933397], [28.396744397638034, 37.62836389735127], [28.397209366608003, 37.62650271711317], [28.399534532833002, 37.6260776345585], [28.39949234836163, 37.62382804709044], [28.39383182670011, 37.62389505972661], [28.393564513952338, 37.62821226933397]]], [[[28.41108929194637, 37.65045143902577], [28.408503164599097, 37.650759083725454], [28.408545661849093, 37.653008652206935], [28.411375057600093, 37.652974828144266], [28.41108929194637, 37.65045143902577]]], [[[28.301550216509067, 37.53031329517936], [28.301628476266668, 37.53481583007734], [28.304441843460488, 37.53587453489194], [28.30457518675837, 37.54154305984725], [28.306652012746543, 37.54174949239752], [28.307443736207972, 37.54376457698274], [28.309995516756096, 37.54433869110248], [28.310351896388273, 37.548238828218736], [28.317246836899507, 37.54782018807351], [28.318772672517223, 37.54875141735408], [28.318967465685844, 37.555937978839], [28.3161693323618, 37.55719019366005], [28.316288189380536, 37.56394547815684], [28.323683606637594, 37.563871130247115], [28.325113684954665, 37.564715020118356], [28.324559344811618, 37.5677601389124], [28.32202795007712, 37.5683909146914], [28.322147384297285, 37.57514617039302], [28.324225185459742, 37.57535227396616], [28.325017761703016, 37.57736721372253], [28.327790279758524, 37.57829710128304], [28.32804840811262, 37.58859929387727], [28.33026189124691, 37.58888279370535], [28.33091948535507, 37.59082017551983], [28.33299774316901, 37.591026115310314], [28.33379073316966, 37.593040983222906], [28.33656394163589, 37.59397064901585], [28.33665052587273, 37.59881035792145], [28.333911447987894, 37.59980239347424], [28.333951621232956, 37.602052051719696], [28.33629064887251, 37.60242311246389], [28.33682339884784, 37.60427277151308], [28.343976083159063, 37.603589791324595], [28.34753200730738, 37.604459393749515], [28.34823086483091, 37.60864941311214], [28.351047669599513, 37.60970692778825], [28.351225620005902, 37.617628004065146], [28.356885767926464, 37.617563044473854], [28.357351676838658, 37.61570199991772], [28.359676759824858, 37.61527770442139], [28.359594773070864, 37.61077533726638], [28.35714162096125, 37.61030775157923], [28.355958442440947, 37.607234638963966], [28.357036771241237, 37.60453786709517], [28.359471685745913, 37.604014011051795], [28.35943326965992, 37.60179598195181], [28.356876639465785, 37.60119138271757], [28.356213043736986, 37.598160140757386], [28.35934869609596, 37.59725578422699], [28.359606903476127, 37.5956019853524], [28.362138871055254, 37.59497039452477], [28.363000604210658, 37.59286841664114], [28.367759943345774, 37.592652162568044], [28.367718766075154, 37.590402532116364], [28.365077223136755, 37.58971692827955], [28.36476436419338, 37.583677081042616], [28.362425802190153, 37.58330657493212], [28.36189258734729, 37.58145703450424], [28.35906584116044, 37.58148961934187], [28.359106744824285, 37.583739261306015], [28.361922745522183, 37.58479653599042], [28.360967248656138, 37.588122904613215], [28.35756027133219, 37.58820684120397], [28.356313035202255, 37.586027729566865], [28.351029903303026, 37.585592497734666], [28.349835178236763, 37.5827845885522], [28.35052925676225, 37.57933438832905], [28.346236562551564, 37.579355899417244], [28.344925881370123, 37.57843732997199], [28.344584505879766, 37.563629662472536], [28.341944112740304, 37.5629435153442], [28.341673697866028, 37.55915631685726], [28.33890173387248, 37.55822674219504], [28.338763243952585, 37.55468288944314], [28.334000452254525, 37.55457561596578], [28.33302364499143, 37.55024136314469], [28.328570411844844, 37.55023179395707], [28.327324678006228, 37.54805233396237], [28.321782233305857, 37.54727838430022], [28.321612119608655, 37.53732615631226], [28.32304799856927, 37.53648909734347], [28.32712491211453, 37.536785254916744], [28.327260116243696, 37.53299344111752], [28.329873886157227, 37.532247833321755], [28.32963649037234, 37.51876575630941], [28.32755774129098, 37.51852811015013], [28.326765767785858, 37.516513157274204], [28.324315908159583, 37.51604481886286], [28.32385792775042, 37.51203928211392], [28.321521792288657, 37.51166791447111], [28.320990146458968, 37.509818138306954], [28.31623021373801, 37.5097100922432], [28.315254895255407, 37.507627336856984], [28.30681476889546, 37.50772258239203], [28.306348188427968, 37.50958347169128], [28.304026037259412, 37.510006667616295], [28.30406518363189, 37.51225638724572], [28.306835020789382, 37.5131868273193], [28.30697186505376, 37.5167307718496], [28.309741903358375, 37.51766113924817], [28.309926270951443, 37.52449317446032], [28.30712913962514, 37.52574516217797], [28.3065799133325, 37.52994931433157], [28.301550216509067, 37.53031329517936]], [[28.345532346601484, 37.59943135268696], [28.346360459845673, 37.595211234598885], [28.350760372428763, 37.59606222606594], [28.349690919619476, 37.59956319886221], [28.345532346601484, 37.59943135268696]]], [[[28.360951125542698, 37.52960885119474], [28.363778437426987, 37.52960786442592], [28.363737473234167, 37.52735820616031], [28.36091277187155, 37.527390795453584], [28.360951125542698, 37.52960885119474]]], [[[28.35222102123814, 37.516189684073375], [28.35504783316339, 37.516188916260575], [28.35500715086327, 37.51393924471568], [28.352182945099834, 37.51397161540767], [28.35222102123814, 37.516189684073375]]], [[[28.34038448601344, 37.48703231090739], [28.34321020731996, 37.48703184777223], [28.34312958703159, 37.482529351996654], [28.340306550144426, 37.48256141596079], [28.34038448601344, 37.48703231090739]]], [[[28.32919579664409, 37.49391852543426], [28.332021785648298, 37.49391832500153], [28.332332432046506, 37.4918539092401], [28.329158432988436, 37.491700427861524], [28.32919579664409, 37.49391852543426]]], [[[28.334462350384804, 37.49144827825754], [28.33763634527936, 37.49160161709511], [28.337596221235767, 37.48935192005512], [28.334772921226538, 37.48938385672642], [28.334462350384804, 37.49144827825754]]], [[[28.29522801449167, 37.49204261477329], [28.303709866435312, 37.49198089106331], [28.303669529539945, 37.48973122513245], [28.295191657901462, 37.48982448685477], [28.29522801449167, 37.49204261477329]]], [[[28.306195970442307, 37.49214582216274], [28.30657912038026, 37.49420250227824], [28.308914643732216, 37.49457417830272], [28.30944587382682, 37.49642402117775], [28.311996045408456, 37.49699812669755], [28.312312797057455, 37.49864546645699], [28.315136471401452, 37.49861405994767], [28.315017997876506, 37.49185869742339], [28.306195970442307, 37.49214582216274]]], [[[28.26450689544828, 37.51490820264844], [28.267333721232532, 37.514909535680374], [28.267295673669132, 37.51265978460884], [28.26447141704474, 37.512690057190405], [28.26450689544828, 37.51490820264844]]]]}}