{"type": "Feature", "properties": {"fire_id": "EGE_2017_03", "fire_date": "2017-09-07", "province": "Muğla", "region": "Ege", "modis_area_ha": 494}, "geometry": {"type": "MultiPolygon", "coordinates": [[[[28.12775969184557, 37.07241248043177], [28.127793016095836, 37.07466251408619], [28.130601085707184, 37.07463577753355], [28.130567678526546, 37.072385746048425], [28.12775969184557, 37.07241248043177]]], [[[28.100455388118032, 37.12900534282272], [28.10048797237505, 37.13125537586418], [28.10892628154529, 37.13117673147273], [28.1088934475634, 37.128926704808556], [28.106570140493528, 37.12855085148808], [28.106046678531808, 37.12669985855078], [28.103236663107932, 37.126726044978874], [28.102767145071407, 37.128586292964805], [28.100455388118032, 37.12900534282272]]], [[[28.051869077075267, 37.07536331409439], [28.05193129414492, 37.07986660010731], [28.05475035742949, 37.08106267103518], [28.054899632680044, 37.091107581871064], [28.06052099826899, 37.091057440145505], [28.06217908212087, 37.08879068703618], [28.076008788724508, 37.0886919828775], [28.077400530150957, 37.0909052755888], [28.094272174746592, 37.09075078070449], [28.09474169129339, 37.0888905551039], [28.09705226892524, 37.088471633171466], [28.096922427192645, 37.079462096023185], [28.094114147470876, 37.07948803811532], [28.092946197005766, 37.08169249720497], [28.087229690732645, 37.08179675342688], [28.085673770032294, 37.07956560757911], [28.083052582845998, 37.07887330674037], [28.082701398993493, 37.06832543994563], [28.077081752116083, 37.068376606400726], [28.076611916262973, 37.070236773293246], [28.074301767146387, 37.07065529114541], [28.073690294820263, 37.07296857655246], [28.06870967442943, 37.072959284335], [28.06844655897799, 37.074612666175895], [28.065929270138586, 37.07523777770545], [28.065459122528473, 37.077097903279046], [28.06215624791784, 37.07808859352831], [28.057798507651327, 37.076961588602074], [28.05745799470009, 37.07306013975905], [28.054649914662924, 37.07308514376405], [28.054179502392387, 37.074945229393286], [28.051869077075267, 37.07536331409439]]], [[[28.082097335616304, 37.025514863890535], [28.082161224933685, 37.03001814345549], [28.084481405908527, 37.03039453163438], [28.085003625156315, 37.03224566849461], [28.087810172998807, 37.03221997000827], [28.087745945089313, 37.02771670054923], [28.08542583140438, 37.027340374992505], [28.084903638531507, 37.02548923810785], [28.082097335616304, 37.025514863890535]]]]}}