{"type": "Feature", "properties": {"fire_id": "EGE_2021_02", "fire_date": "2021-08-05", "province": "Muğla", "region": "Ege", "modis_area_ha": 15367}, "geometry": {"type": "MultiPolygon", "coordinates": [[[[28.53151641554243, 37.43066626904331], [28.531654085297923, 37.43742106573744], [28.534475188597504, 37.43738446741912], [28.5343372655149, 37.43062967960736], [28.53151641554243, 37.43066626904331]]], [[[28.491477822845177, 37.40639264301892], [28.491567099999667, 37.41089490771198], [28.4943872605283, 37.4108592875661], [28.494297814727194, 37.40635702863679], [28.491477822845177, 37.40639264301892]]], [[[28.30078756416561, 37.32301888379377], [28.300826350559973, 37.32526867764265], [28.303631785631325, 37.32632758641489], [28.303764227344303, 37.331996316672154], [28.306094682095814, 37.33236815393724], [28.30662457963662, 37.334218082064204], [28.311373403407877, 37.334326729690275], [28.312306586703016, 37.33640850712249], [28.325049876552324, 37.336293982334595], [28.326453576761967, 37.33850403587767], [28.331202675060357, 37.33861188150172], [28.332136457689657, 37.34069348938103], [28.334768902677546, 37.3413800335455], [28.3350378527844, 37.34516740577967], [28.33736885210643, 37.34553861512591], [28.33789961512771, 37.347388382422096], [28.345319923834854, 37.34740868399242], [28.346405428172833, 37.34954517327077], [28.351433845091936, 37.34979626581559], [28.352089701368364, 37.351733636334004], [28.354907818276544, 37.35170138657173], [28.356232602161842, 37.34946042943071], [28.370438405986476, 37.34929668376497], [28.37184367407018, 37.351506162623906], [28.376872272892815, 37.35175616911077], [28.37752879733423, 37.353693384506], [28.38255755356841, 37.353943145832346], [28.383255593747418, 37.35813313853172], [28.38532751127362, 37.35833829036643], [28.386119244856484, 37.36035290521725], [28.389276688250035, 37.36118416306403], [28.389066133634678, 37.36707820709654], [28.392279192322874, 37.36803753480504], [28.392055205135396, 37.376056215079984], [28.39438741058146, 37.3764262736551], [28.39491980715309, 37.37827574302466], [28.407988945605112, 37.378225310297694], [28.409076681027774, 37.3803611682626], [28.4117844886687, 37.381165014836746], [28.411984188585606, 37.38483304362948], [28.420292008999464, 37.38505490442199], [28.420538727760338, 37.38923712703096], [28.42334816584332, 37.39029310178645], [28.423489877640062, 37.39596145240545], [28.42582283756792, 37.39633087369373], [28.426356158687934, 37.39818017658528], [28.42842927505843, 37.398384546537905], [28.42922260866477, 37.40039882694294], [28.431669258947586, 37.40086506236003], [28.43208922758823, 37.40261740346187], [28.437359801315083, 37.40304927643996], [28.437866033759715, 37.40930707525846], [28.440199471083137, 37.4096762018637], [28.44073324893554, 37.4115254264749], [28.44619327062564, 37.4121749538595], [28.446169127173725, 37.415366271324444], [28.44081962432509, 37.41603400456011], [28.440758992053986, 37.419705124516184], [28.438081472169223, 37.42057387090792], [28.437365034282568, 37.42260644538059], [28.42682622730764, 37.42296353981266], [28.426893212684643, 37.433392891282104], [28.424215039744194, 37.434261334947585], [28.423498105617796, 37.43629383123265], [28.42143262760882, 37.43654809219437], [28.42084771759768, 37.438499950279294], [28.418650046222524, 37.438834786544284], [28.418229152528784, 37.442948820990686], [28.41308437561739, 37.44340798648842], [28.41282776989778, 37.44506190938288], [28.410301286358678, 37.44569449205009], [28.409583873863987, 37.44772691002482], [28.404692468179302, 37.448014557168456], [28.403974882645837, 37.45004694384868], [28.399083297228465, 37.45033436215867], [28.39861932924157, 37.452195580839216], [28.396299521184176, 37.45262054913886], [28.396727694253983, 37.476180295778335], [28.395553790685547, 37.47735539053552], [28.391107169493978, 37.47746760479191], [28.391232431728206, 37.48422277132959], [28.393307855728843, 37.4844277084295], [28.394101238031094, 37.48644219684015], [28.396651658610725, 37.48701446920849], [28.397012175603045, 37.4909142974472], [28.399782301304427, 37.4918425534553], [28.399923466616116, 37.49538631599745], [28.40199921948245, 37.495591093262], [28.402792961115296, 37.49760551246803], [28.405504975795246, 37.498409402752806], [28.405704865032575, 37.50207737132426], [28.41074363079296, 37.50232572332855], [28.411402463290617, 37.50426265792638], [28.414114807136652, 37.50506634281235], [28.414315145502343, 37.50873428384042], [28.416651590642346, 37.509103808406294], [28.41718557868416, 37.51095310659464], [28.41973699956059, 37.51152485746762], [28.420056181741565, 37.51317185527901], [28.422880276088236, 37.51313786236317], [28.423010624553587, 37.509346022996006], [28.425622556163002, 37.50859832862553], [28.425501629146247, 37.49829466905184], [28.428235754755203, 37.49730059140251], [28.428546384130712, 37.49328619701131], [28.430977158183588, 37.492760940107786], [28.430848278483996, 37.486005899081], [28.428136463829087, 37.48520258551415], [28.427892674477473, 37.479281943809404], [28.425342302142276, 37.47871034483406], [28.42500798239929, 37.47616068335628], [28.427806878218473, 37.47477338854239], [28.428117476465673, 37.47075898186322], [28.430547528994154, 37.47023374686312], [28.430418792678527, 37.46347867875538], [28.42786894386674, 37.462907122148096], [28.4275402720739, 37.46022487914084], [28.43033289367322, 37.458970116375674], [28.430308191657694, 37.450793553011174], [28.432986872931096, 37.44992496282803], [28.43282233307062, 37.437368496672065], [28.43555416368104, 37.436374287623494], [28.4358102439931, 37.43472032399694], [28.43833612887912, 37.43408720684234], [28.43949903747281, 37.43187956161543], [28.452417516765998, 37.431661735636645], [28.452880034757914, 37.42980032989355], [28.455198785822738, 37.42937427051428], [28.45591479631001, 37.427341598972845], [28.457979885698553, 37.42708674264385], [28.457817105841347, 37.4169122345733], [28.460585760026305, 37.41578830025774], [28.46054206845447, 37.413538692511835], [28.45225766308342, 37.41292456493601], [28.452198260103874, 37.409848072535006], [28.45480645271221, 37.40909979916481], [28.454675822396908, 37.40234473325261], [28.452467467657222, 37.40206345295843], [28.451808566095526, 37.400126718224115], [28.44896074775198, 37.39880814488269], [28.449481924338738, 37.393700799661644], [28.454501576312126, 37.3933307152754], [28.455663414507278, 37.39112291948322], [28.460104756600508, 37.39100838325413], [28.45984269941957, 37.37749512626276], [28.452738843170703, 37.37755508697111], [28.45135000576231, 37.37624615678772], [28.451586231898954, 37.37368952849798], [28.454109941195842, 37.37305611378081], [28.45423870226346, 37.369264190807435], [28.456845480355113, 37.36851589761351], [28.45672113255367, 37.3582121180578], [28.459449791054038, 37.35721741106454], [28.459362605057393, 37.35271504023661], [28.456917376306382, 37.352249344857974], [28.456453625740743, 37.34824433949577], [28.453618428369758, 37.347058211634284], [28.453843811900565, 37.34436918554616], [28.45636652684704, 37.34373574080849], [28.455839826017034, 37.335726199319694], [28.459013754333416, 37.334689983310504], [28.459898283176337, 37.332225916473355], [28.463571534759527, 37.3324848614691], [28.464703876017037, 37.3368729460037], [28.467469052716496, 37.33779974075399], [28.467612876471993, 37.341343451052126], [28.473251940078434, 37.3412733485185], [28.473163980423546, 37.3367709933658], [28.470530539176814, 37.33608755218067], [28.47047055565274, 37.33301104481979], [28.47589705262367, 37.33222725472484], [28.47705737492233, 37.33001926019811], [28.481495059671886, 37.3299039972847], [28.481450880044108, 37.32765437793808], [28.479119821245984, 37.32728601048432], [28.478585772840653, 37.325436941014544], [28.4703265680987, 37.32518278802389], [28.46931668937279, 37.32196976870458], [28.470387157854013, 37.319272006058576], [28.47281203411022, 37.31874599916818], [28.472724172273434, 37.31424362594466], [28.469907597389945, 37.31427865253081], [28.4694461160178, 37.316140136064654], [28.466788177739698, 37.31675989864887], [28.466436734683406, 37.32121439096566], [28.461848668054675, 37.320535960853505], [28.46170148620739, 37.31734671518564], [28.46464915307487, 37.31640480619914], [28.464219059490798, 37.31209589890264], [28.461513236980696, 37.31129320322551], [28.46122424203411, 37.30311974817171], [28.458894030442256, 37.30275096232926], [28.458360668312817, 37.30090177982161], [28.45554323759833, 37.30096810553345], [28.455631368323672, 37.305438871996344], [28.45843810973297, 37.30649408315142], [28.45818651004163, 37.31167455598398], [28.454139254147965, 37.312160443423984], [28.452894085951176, 37.309982215397525], [28.450309194617187, 37.30973718182103], [28.448760113378384, 37.31063478711268], [28.44701124934019, 37.309777561147364], [28.44161662242364, 37.3101201606366], [28.442464605688762, 37.31594269210356], [28.440381051737976, 37.31947458350459], [28.43689321633042, 37.318961405456136], [28.436100607738314, 37.31694713596306], [28.433394887469614, 37.316143795093026], [28.43289192140301, 37.31334464417623], [28.436014822822404, 37.312438472831246], [28.435972026197387, 37.3101888012342], [28.42887444229109, 37.310247196404234], [28.427468333126317, 37.30803839876722], [28.419497548781727, 37.30773675220395], [28.41876827336875, 37.30425989697795], [28.42174284264644, 37.30359761659324], [28.422205440084166, 37.3017362923239], [28.424520468880853, 37.30131090398398], [28.42447803181745, 37.29906121684899], [28.421672018431337, 37.298005183015995], [28.421577793005245, 37.290686120606686], [28.422895660647278, 37.28973772258802], [28.42712765541385, 37.29001295199322], [28.427085158058226, 37.28776326310928], [28.421963465475006, 37.28778998816133], [28.421361323868386, 37.28332552276307], [28.419031895110038, 37.28295593379578], [28.418499658744384, 37.28110654230783], [28.408585452832003, 37.281197421410766], [28.407140888195975, 37.27898726549249], [28.404365155815665, 37.279021788447714], [28.40443937103543, 37.285366857401776], [28.398850560520312, 37.28584710106343], [28.39837480808674, 37.288071067254926], [28.39586770929409, 37.288008819659275], [28.39547462911251, 37.27800003623268], [28.39868104130785, 37.27683266915553], [28.398639410717347, 37.27458294762828], [28.395935593422433, 37.27377870511936], [28.39565396373706, 37.265604890407474], [28.39311109218433, 37.26503242369663], [28.392752228592204, 37.26113241271217], [28.390423609095535, 37.26076224239712], [28.389852643468068, 37.25891160878012], [28.384259119401314, 37.25897870357127], [28.384331727208437, 37.267030086740895], [28.381605244161594, 37.26802302933313], [28.38011874458098, 37.270285635191556], [28.371729598733847, 37.270363686175735], [28.370325918371254, 37.26815414616796], [28.365581246162506, 37.268047782932015], [28.364606852003103, 37.263713548928834], [28.353335865439284, 37.26384294468819], [28.35232831577401, 37.266003327730864], [28.346117062327995, 37.26611882369858], [28.344875773972028, 37.26393936491786], [28.3423333094684, 37.263365798288525], [28.342017048520834, 37.26171846855281], [28.336383604489345, 37.261782200406955], [28.336471392604803, 37.267320194402636], [28.335455171020044, 37.26844823338452], [28.331905526676252, 37.26848822793462], [28.33082166374698, 37.26635154638288], [28.32800670273769, 37.266383160983544], [28.328046219605774, 37.268632951819235], [28.330250262381423, 37.26891664795679], [28.33090481263092, 37.27085418602501], [28.333447451546842, 37.27142799423169], [28.333763573552872, 37.27307534709179], [28.336092331239254, 37.27344662950201], [28.337341631632555, 37.27608985727313], [28.335803262266882, 37.27965426913265], [28.32824419753534, 37.279900538840764], [28.328362949764447, 37.28665610797735], [28.33338713444751, 37.286908052973175], [28.33438529834087, 37.290229811317005], [28.331262004217717, 37.291133309196994], [28.329773544145777, 37.29339531254184], [28.32138167150369, 37.29346984508085], [28.319978995296108, 37.29125969592358], [28.317163094214024, 37.29129107049107], [28.317962411868656, 37.29485900061782], [28.31634434618592, 37.2961395326745], [28.314621926506305, 37.295468897455955], [28.314379837236007, 37.29357540049597], [28.30874272733009, 37.29363782795157], [28.30876838972422, 37.29943646354501], [28.306039703888672, 37.300427701601336], [28.30615655794943, 37.3071833076197], [28.311419893368367, 37.307620944551125], [28.311861451421542, 37.31279350635481], [28.310550210939425, 37.313870295541996], [28.30627355857098, 37.31394512102562], [28.30617635094577, 37.31998995930328], [28.30356963865886, 37.32073493360984], [28.302850412658923, 37.32276677819865], [28.30078756416561, 37.32301888379377]], [[28.433193771463817, 37.334685913344416], [28.434181818878347, 37.33043280202283], [28.436791083384445, 37.33077900039621], [28.43580246150519, 37.33503138031756], [28.433193771463817, 37.334685913344416]], [[28.405700416792712, 37.29027096662494], [28.40733723043326, 37.29121103960864], [28.40726306820934, 37.294044356533405], [28.402727891777484, 37.294653226258646], [28.401965925918056, 37.29102993323717], [28.405700416792712, 37.29027096662494]], [[28.399285769997018, 37.30937904556176], [28.400672854938243, 37.30802933786521], [28.40415997089651, 37.30854360028272], [28.4051481952692, 37.31218561027517], [28.400098539819812, 37.312642645663644], [28.399285769997018, 37.30937904556176]], [[28.38818640901378, 37.319776734211025], [28.385392570444793, 37.31906740190517], [28.385502965915467, 37.31138986422766], [28.39216662029229, 37.310107230145896], [28.395740596316056, 37.31089652692322], [28.39692719446504, 37.31416572381939], [28.3937532140106, 37.31520027702489], [28.393538127426623, 37.31910701052438], [28.38818640901378, 37.319776734211025]], [[28.376355611999585, 37.28243720922776], [28.380678112607896, 37.28096181623166], [28.384181506547183, 37.28190732145772], [28.3842495407509, 37.28562119142962], [28.376781990740273, 37.28570829993746], [28.376355611999585, 37.28243720922776]], [[28.374608826452402, 37.32794699762947], [28.368903903319072, 37.328768620516385], [28.368619383198492, 37.32546491260583], [28.372970848083433, 37.32451318218399], [28.374608826452402, 37.32794699762947]], [[28.3486997145227, 37.32022907184825], [28.34354862369651, 37.31989013740947], [28.343482507672174, 37.31617622601015], [28.353477637931373, 37.315531961237234], [28.354304785732033, 37.317908616951826], [28.356375531826973, 37.31811430084147], [28.357166042057624, 37.320129146607215], [28.359710534220255, 37.32070234901554], [28.359922275875796, 37.32377107577387], [28.35690407229241, 37.32483113512003], [28.356642526111177, 37.32695247842896], [28.354883114774264, 37.327137118687205], [28.353689921888126, 37.325867796609906], [28.354381815117875, 37.322417477486404], [28.349675449628897, 37.32267113382947], [28.3486997145227, 37.32022907184825]], [[28.32925204844805, 37.32021005488167], [28.32937899159955, 37.31633553336176], [28.332688460895216, 37.315337301488334], [28.335239136720297, 37.3166735402436], [28.333395156036584, 37.320342779227836], [28.32925204844805, 37.32021005488167]], [[28.32874995943905, 37.313088463687706], [28.323470097977594, 37.31315159365604], [28.323206120351376, 37.310208290943905], [28.327557335256902, 37.30925823468993], [28.32874995943905, 37.313088463687706]]], [[[28.447456225340563, 37.3080692068052], [28.450030382074676, 37.307761922021484], [28.449943954817645, 37.30325851330727], [28.447127761065254, 37.30329298908968], [28.447456225340563, 37.3080692068052]]], [[[28.477978182649395, 37.43810767963114], [28.478022434941057, 37.44035726039965], [28.480843718113864, 37.44032193977458], [28.48079938142758, 37.43807236186102], [28.477978182649395, 37.43810767963114]]], [[[28.463808744504266, 37.43603079689343], [28.46389645962039, 37.44053309520246], [28.466230982427824, 37.44090168265739], [28.46676564428575, 37.44275076192752], [28.469587031627647, 37.44271570809388], [28.469543028092172, 37.44046611968127], [28.46677401030134, 37.439539470067714], [28.466980543553333, 37.43618070507727], [28.463808744504266, 37.43603079689343]]], [[[28.469108085281096, 37.435772690725535], [28.472279879223056, 37.43592245666356], [28.472235805884054, 37.43367286838182], [28.469414761356514, 37.43370797826275], [28.469108085281096, 37.435772690725535]]], [[[28.385881339245614, 37.193612781171595], [28.386004857436788, 37.200368287523744], [28.3883315914812, 37.200738586728114], [28.389104073905983, 37.202862085007254], [28.391674943649704, 37.20255613278362], [28.391641628332607, 37.19878654528268], [28.39283301998069, 37.197737780055796], [28.39647991338115, 37.1982213065974], [28.397270129665802, 37.200235927994314], [28.40289881114011, 37.20017037401638], [28.402815519377675, 37.195666790822045], [28.400488880210922, 37.19529677413255], [28.399957779529615, 37.193447250644844], [28.385881339245614, 37.193612781171595]]], [[[28.390234991417525, 37.20543028528166], [28.386087320528564, 37.20487713339173], [28.38612847368547, 37.20712689347191], [28.38845541686764, 37.20749718558806], [28.38898634789447, 37.20934676012604], [28.391527307134094, 37.20991935951386], [28.39184438947497, 37.211566553572354], [28.39465723811018, 37.21153346254214], [28.395120015541647, 37.209672213888666], [28.39743241380565, 37.2092474036774], [28.39734937734929, 37.20474479820436], [28.391951760245558, 37.204531603455514], [28.390234991417525, 37.20543028528166]]], [[[28.403175908797547, 37.202145813377435], [28.40298614822691, 37.20467505257913], [28.405798727689824, 37.204641702221956], [28.405756994405525, 37.20239196006808], [28.403175908797547, 37.202145813377435]]], [[[28.40127873747409, 37.41650938008531], [28.401320661060584, 37.41875904497994], [28.40414122908505, 37.41872557156874], [28.404099221182577, 37.4164759093804], [28.40127873747409, 37.41650938008531]]], [[[28.39556959595058, 37.56529110969097], [28.395611573526544, 37.5675407232891], [28.39843774898963, 37.567507273828184], [28.39839568647466, 37.565257662930556], [28.39556959595058, 37.56529110969097]]], [[[28.366209294028902, 37.196094668701406], [28.366249844227063, 37.198344450926335], [28.369062232573807, 37.19831197748039], [28.36902159896764, 37.19606219788669], [28.366209294028902, 37.196094668701406]]], [[[28.34110257204949, 37.20990176584], [28.34114239708768, 37.21215156616915], [28.34395532706186, 37.21211967870969], [28.34441935960142, 37.210258603507256], [28.346732090860538, 37.20983477741594], [28.347449148861237, 37.20780267247071], [28.349508687271886, 37.2075498134691], [28.349428502872264, 37.203047116165685], [28.34379943944797, 37.20311111510734], [28.34382754583345, 37.20890977759042], [28.34110257204949, 37.20990176584]]], [[[28.332691978470514, 37.21225006679934], [28.332771194921822, 37.21675278796783], [28.335098206875102, 37.21712412736757], [28.335627917103523, 37.2189739626835], [28.338441106739285, 37.21894220123145], [28.33836154704216, 37.214439492147314], [28.336034603943624, 37.21406821541092], [28.335504921823773, 37.21221837994192], [28.332691978470514, 37.21225006679934]]], [[[28.3164071954994, 37.57070696971923], [28.316526131952404, 37.57746223806746], [28.318864310070982, 37.57783366199191], [28.319396437422, 37.579683418755025], [28.32788440493406, 37.57958822709956], [28.327844446749232, 37.57733855472325], [28.325506244912578, 37.57696730925089], [28.324973988551356, 37.57511758171461], [28.32289619226251, 37.574911491232776], [28.32210370079492, 37.57289653482875], [28.31965201046267, 37.572428138577514], [28.31923358346199, 37.570675414082295], [28.3164071954994, 37.57070696971923]]], [[[28.31247061121067, 37.507659865185765], [28.312510007706436, 37.509909578118375], [28.31816210109121, 37.50984662864938], [28.318122535060855, 37.50759692080188], [28.31247061121067, 37.507659865185765]]], [[[28.295191657901462, 37.48982448685477], [28.29523051081101, 37.49207422207885], [28.30405259612042, 37.49178791580283], [28.303669529539945, 37.48973122513245], [28.295191657901462, 37.48982448685477]]], [[[28.306195970442307, 37.49214582216274], [28.306618375174736, 37.49645533326941], [28.309441973496842, 37.49642406441715], [28.310609622440072, 37.494217618711026], [28.31505744832565, 37.49410841408747], [28.315017997876506, 37.49185869742339], [28.306195970442307, 37.49214582216274]]], [[[28.291666339740832, 37.449304083471645], [28.291705030291755, 37.45155383729259], [28.294526956671493, 37.451522956257136], [28.29448818165264, 37.44927320493221], [28.291666339740832, 37.449304083471645]]], [[[28.292830537911232, 37.51688953843914], [28.292869357894165, 37.51913926543148], [28.29569382619292, 37.51910830934301], [28.29565492145964, 37.51685858485112], [28.292830537911232, 37.51688953843914]]], [[[28.23336140329997, 37.51301904814342], [28.233398432705165, 37.51526882823822], [28.2362228200417, 37.515239296906245], [28.2361857058946, 37.51298951919697], [28.23336140329997, 37.51301904814342]]]]}}