{"type": "Feature", "properties": {"fire_id": "EGE_2021_03", "fire_date": "2021-07-30", "province": "Muğla", "region": "Ege", "modis_area_ha": 12432}, "geometry": {"type": "MultiPolygon", "coordinates": [[[[28.122763122253957, 36.73217795468187], [28.122828710110255, 36.73668139534917], [28.125140172682165, 36.73705715262649], [28.125661191201488, 36.7389082176801], [28.130096585132584, 36.73827722763172], [28.1319227377074, 36.739523197001176], [28.131032805929188, 36.74276506230245], [28.12852687435485, 36.74339134423875], [28.128592825746125, 36.74789476747536], [28.130904651277948, 36.7482704058432], [28.131425890538917, 36.75012143855889], [28.149700943680735, 36.74934442988763], [28.15639140284407, 36.7501581980028], [28.15717551983753, 36.74567512765305], [28.16080465209479, 36.745358836972095], [28.162140570742057, 36.74640816831521], [28.16196619402546, 36.751481296930756], [28.156891155218723, 36.75185645787722], [28.1565505625098, 36.758180955748806], [28.153961290107272, 36.75892239885024], [28.15324292381978, 36.76095350130402], [28.151194608765746, 36.76120277047708], [28.150829286025814, 36.76982298390981], [28.14572780803883, 36.77026981428783], [28.144078869027442, 36.772537695963194], [28.13839268265081, 36.7724893228324], [28.13732159517703, 36.77035048077245], [28.131723873903695, 36.77040386727804], [28.131257008337766, 36.77226428937261], [28.128956116659207, 36.77268373572066], [28.12872820685238, 36.77659054871689], [28.12622116160679, 36.77721679769195], [28.126320036284902, 36.78397345220544], [28.12874515181699, 36.7844463681132], [28.12918745854381, 36.78845339204273], [28.131996849774115, 36.789647845246265], [28.132287413213906, 36.808705947543245], [28.137598001057988, 36.808896937560064], [28.137991845140355, 36.81541214966806], [28.14004845277775, 36.81562187799193], [28.140827714795584, 36.817638524598664], [28.143353864210912, 36.81821674070319], [28.143697280881135, 36.822118053535085], [28.146011413198075, 36.822493353931], [28.14653356487778, 36.82434428278156], [28.1521351836154, 36.824290131768635], [28.152601824163035, 36.82242964697113], [28.154904056089556, 36.82200972296048], [28.15545767336345, 36.81780572589197], [28.16324378740904, 36.817421333243075], [28.164728369930636, 36.815161320092415], [28.170732434477635, 36.81525550136333], [28.17165506784375, 36.81733874501109], [28.174181421472653, 36.81791630220225], [28.174491963514807, 36.819564297852004], [28.19006240403477, 36.81911238718857], [28.191282935062397, 36.820135011366304], [28.19137701950699, 36.823903378008076], [28.194162393193793, 36.82496532357532], [28.19431979904043, 36.832887987301106], [28.19651079906736, 36.83317442662411], [28.197157923019148, 36.83511297145729], [28.199685041583667, 36.835689971004], [28.199996211356005, 36.83733788406269], [28.202423431805133, 36.83780925482158], [28.20283466406836, 36.83956272510104], [28.205261971024242, 36.840034036132174], [28.205673281173567, 36.84178749455607], [28.208100674639446, 36.84225874584906], [28.20854752705777, 36.84626535603886], [28.21326594369139, 36.846378498152525], [28.214190119019925, 36.84846137325844], [28.22540045142713, 36.848346328907674], [28.226406465043233, 36.84618691158545], [28.233774851042376, 36.84600618036207], [28.234632292718754, 36.843904968998], [28.239345369751025, 36.84369471225351], [28.23932614923875, 36.83789552555448], [28.24203939692757, 36.83690603884917], [28.24193015540539, 36.83014972743185], [28.239107396367178, 36.82882551460593], [28.23934961958556, 36.826268976867745], [28.24185726422729, 36.825640335306616], [28.241711681144004, 36.8166308645657], [28.2390982391647, 36.81594184170959], [28.238800375232355, 36.80990064735509], [28.2364862218975, 36.80952715366453], [28.235962025844756, 36.80767665321282], [28.231396035479857, 36.80761954672393], [28.230321869223033, 36.80548161088953], [28.22779553888476, 36.80490524569852], [28.227483926114296, 36.80325740514788], [28.222155809922892, 36.802709806908666], [28.221772740456295, 36.79655560836047], [28.21916015216176, 36.79586612905035], [28.218899673828258, 36.79207801000574], [28.216373865346604, 36.791501391182805], [28.21611639444493, 36.788557488360034], [28.217545011914446, 36.787589758453144], [28.22368947598666, 36.7877480614982], [28.22450647515272, 36.79201730533656], [28.232299389184348, 36.79224528526127], [28.23298315215214, 36.79643680008418], [28.235296894644353, 36.796810370418804], [28.2358209931588, 36.79866087879186], [28.247023972491103, 36.798543929857615], [28.247245902587693, 36.794637013855514], [28.249752453623078, 36.794008223084894], [28.250468539919595, 36.79197659034857], [28.25251730064002, 36.791725603489404], [28.252407318345657, 36.78496926760503], [28.250093860252385, 36.78459602432992], [28.249569525870836, 36.78274557923655], [28.241911307743024, 36.78259636116414], [28.241129794945774, 36.780580407548804], [28.238604213369744, 36.780004255866025], [28.238292486106666, 36.778356439321925], [28.22981382567699, 36.77792827105491], [28.23056994756702, 36.77415581722993], [28.238219945018873, 36.773847001627374], [28.238684222138296, 36.77198620744855], [28.240984434914584, 36.7715646497595], [28.240948167624833, 36.769314593196036], [28.238635231382922, 36.76894111618286], [28.23811128857825, 36.76709060864396], [28.232885558783224, 36.7666489813095], [28.232649768088088, 36.763353416580884], [28.23523838196528, 36.762610272408686], [28.2359545858138, 36.76057871486821], [28.23800256842613, 36.7603279915159], [28.238859006334824, 36.75822674000952], [28.244853661667698, 36.75801101841885], [28.24640737891795, 36.76024023187184], [28.248932361425933, 36.76081623084481], [28.24928078472838, 36.76471718143724], [28.2515936390854, 36.765090453116656], [28.25211788920935, 36.766940896013274], [28.257715112592653, 36.766881849816535], [28.258571076087584, 36.76478046745863], [28.26327921832271, 36.764569352161956], [28.26313145257437, 36.75555986256745], [28.255618468704423, 36.75547817920648], [28.25474754750247, 36.75209955855883], [28.256012239009287, 36.75115256898954], [28.26025755789472, 36.751080141587394], [28.260612073171473, 36.7493187411229], [28.263020582192507, 36.748797296948766], [28.26327856728304, 36.747143492007964], [28.26578344284667, 36.746514390412734], [28.26636758794154, 36.744563101544784], [28.26854613987633, 36.744231421995266], [28.269009523371352, 36.74237051777872], [28.272295237852752, 36.74137433490672], [28.278783202178367, 36.74166840517745], [28.279748785850497, 36.74411145936003], [28.289910350525847, 36.74410621126299], [28.291022998817255, 36.748496744870934], [28.293818969163734, 36.748466373563225], [28.29395561477557, 36.744674100812105], [28.296542974954303, 36.74392964394304], [28.296467221560764, 36.73942649786569], [28.29175534152822, 36.739316531483475], [28.290830481916757, 36.73723423695396], [28.288305990783577, 36.736659116136806], [28.2879934070504, 36.73501143524159], [28.28546900857943, 36.73443625218518], [28.28520915606422, 36.731492518318426], [28.287918073660613, 36.73050205111326], [28.287880491115487, 36.728252019783895], [28.28228613807273, 36.72831243097365], [28.282217399071747, 36.73198402153402], [28.279561807578027, 36.732848851378684], [28.278558686642494, 36.73500870183775], [28.270079398574282, 36.735202430091476], [28.268360797297095, 36.73296876513378], [28.261124174960937, 36.73363420088235], [28.257774549754277, 36.73277265409968], [28.25712684313495, 36.730834418943374], [28.2523089155864, 36.73101803397115], [28.251491802916362, 36.7286402577562], [28.24943727602727, 36.72843241602325], [28.248656158355228, 36.726416487243306], [28.246045743167322, 36.725727550334355], [28.245784281093783, 36.72193946677049], [28.237391365488563, 36.72202702431608], [28.235910659072932, 36.724287906713315], [28.220633365011185, 36.72445364353429], [28.220313687287398, 36.728468145457335], [28.21629540013269, 36.728945410250795], [28.215066922754236, 36.72676417129394], [28.212384421912834, 36.72595527651264], [28.212161547448634, 36.72003309692823], [28.207051344061973, 36.71968744598222], [28.20649328385138, 36.7155835502148], [28.20418211520159, 36.71520936740358], [28.203659397145856, 36.713358669910306], [28.19806594531927, 36.713415102990865], [28.19720885033172, 36.71551608756777], [28.192503445424162, 36.715724538439666], [28.191532879440775, 36.720136927271156], [28.185662614539627, 36.720902100980915], [28.18241059324109, 36.72022790465029], [28.18133906071177, 36.71808944920944], [28.1786571968056, 36.7172797811709], [28.17847136942776, 36.713610721637096], [28.173956341918473, 36.71391017477198], [28.172839735377334, 36.711412766368035], [28.17031690486586, 36.71083510852978], [28.16924316730508, 36.70813021084473], [28.169938631544014, 36.70468056778785], [28.167627948695074, 36.70430566544032], [28.16710618410049, 36.70245478712484], [28.164583687894197, 36.701877000957175], [28.164273899950157, 36.7002289353506], [28.15707183530514, 36.70023937834933], [28.15584549507061, 36.69805747993917], [28.15309046857784, 36.69808264304902], [28.152585249707172, 36.699945089098314], [28.15028663237959, 36.70036491343062], [28.150353750163426, 36.704868335178894], [28.152962657315282, 36.705559401289044], [28.153219488717834, 36.70934778112358], [28.155958208663534, 36.710282412823446], [28.1557916556925, 36.71323062163775], [28.14903873622585, 36.71387095837563], [28.147652065074976, 36.711658285890934], [28.144857276835666, 36.71168519982478], [28.14439104749286, 36.71354567986908], [28.142091978130086, 36.713965352815265], [28.14292384359189, 36.71965871953447], [28.141834944195693, 36.722486251806146], [28.139426365595188, 36.72300524499089], [28.138264883981943, 36.72521016599672], [28.13106219457399, 36.72533861370796], [28.13062859486323, 36.729452313356795], [28.128328971607647, 36.729871728738665], [28.127321615061042, 36.73203037907513], [28.122763122253957, 36.73217795468187]], [[28.257273825127136, 36.739847074959364], [28.254590449806432, 36.73903915042319], [28.25490123619467, 36.7357594922418], [28.26228915374127, 36.73531869734166], [28.26241327452223, 36.741648625194166], [28.258347764062293, 36.74198479362634], [28.257273825127136, 36.739847074959364]], [[28.221317878772975, 36.77173432555678], [28.22093212219607, 36.76983825328535], [28.223505729569233, 36.76943788572318], [28.223782335283136, 36.77161206303299], [28.221317878772975, 36.77173432555678]], [[28.212923763440017, 36.76835419672284], [28.214640203063844, 36.76698534086003], [28.216477254697008, 36.76850796664218], [28.214518150131873, 36.76992933204674], [28.212923763440017, 36.76835419672284]], [[28.20688114251026, 36.74036885620043], [28.204098694915523, 36.73930714135296], [28.20463192461293, 36.73618988682382], [28.208288410792807, 36.735242517808786], [28.212037920062677, 36.73630211361278], [28.212348279989417, 36.74224543464901], [28.20795370414768, 36.742507055233325], [28.20688114251026, 36.74036885620043]], [[28.168070065275536, 36.76553790466636], [28.16849338265899, 36.76142859944779], [28.173109970921175, 36.76138316602517], [28.174020701521865, 36.76448959573111], [28.17052503924243, 36.76571054009849], [28.170640356936307, 36.76942477875233], [28.16652296308067, 36.770007933189305], [28.165349879669698, 36.76653016173845], [28.168070065275536, 36.76553790466636]], [[28.143308176279092, 36.796086383557146], [28.14485799189064, 36.79472229831286], [28.15361374426923, 36.79514085996561], [28.154392167003483, 36.80101956838606], [28.147081925825166, 36.80164538985127], [28.146160152986933, 36.79956193528601], [28.143548094744293, 36.798870784874175], [28.143308176279092, 36.796086383557146]]], [[[28.14393215697742, 36.83789371408442], [28.143965672717353, 36.840143824171534], [28.146765129018213, 36.84011685090903], [28.146731531303978, 36.83786674301573], [28.14393215697742, 36.83789371408442]]]]}}