{"type": "Feature", "properties": {"fire_id": "GDA_2021_01", "fire_date": "2021-08-26", "province": "Hakkâri", "region": "Dogu Anadolu", "modis_area_ha": 370}, "geometry": {"type": "MultiPolygon", "coordinates": [[[[44.34940166791307, 37.18190520030014], [44.3493823661382, 37.18415548394228], [44.35369626535945, 37.18357729003726], [44.35989297282437, 37.18444215912624], [44.36060986668507, 37.188723602421], [44.362926162008925, 37.189133655141866], [44.36340749648426, 37.19099216494105], [44.37110247519556, 37.19126268650666], [44.371838731447816, 37.19329066596586], [44.37436371771743, 37.19390649418026], [44.37463686758494, 37.195558966237805], [44.377064026631665, 37.19606764411262], [44.37743517113653, 37.19782720108888], [44.38024817898749, 37.19784195072727], [44.380266574215966, 37.19559165882019], [44.37753237244435, 37.19461616496828], [44.37798045895751, 37.191467148571746], [44.3859367257775, 37.1911110792427], [44.38644867051984, 37.189257806931444], [44.388771537776194, 37.18887223835795], [44.38878967413944, 37.186621939429905], [44.3864733082963, 37.18621239162769], [44.38599143588398, 37.18435396917346], [44.37804239869819, 37.1839149325136], [44.37757923709237, 37.179803071889744], [44.37526314262374, 37.17939330690454], [44.37478158644424, 37.177534839641865], [44.37035094597259, 37.17745160271974], [44.369168052294114, 37.175251583183694], [44.363827704146125, 37.17462056294814], [44.36283062290465, 37.17163466791294], [44.36397396225825, 37.16895608798048], [44.36640847803108, 37.16847323760996], [44.366484912513684, 37.15946277340397], [44.35522573793228, 37.159402002144446], [44.35520662451169, 37.16165229694559], [44.360630255656815, 37.16239796387673], [44.36075552164219, 37.167356110832046], [44.35796495528902, 37.1684308993839], [44.35732885925064, 37.17037248810425], [44.355130017514256, 37.170669009519436], [44.35509174085637, 37.17517269799594], [44.3582705843006, 37.17618716319669], [44.357587999613216, 37.179093901201476], [44.35505340283225, 37.17968259980539], [44.35394681580247, 37.18218489722343], [44.34940166791307, 37.18190520030014]]], [[[44.36895884209451, 37.159283555157835], [44.37493010988842, 37.15950446124411], [44.37544209852324, 37.15765122714629], [44.377764048927546, 37.15726586396281], [44.377782490783034, 37.15501555766955], [44.375467149588175, 37.15460580189801], [44.37498573692227, 37.15274732912111], [44.369359188234036, 37.15271752326489], [44.36895884209451, 37.159283555157835]]], [[[44.374878297173325, 37.166267822898206], [44.37484119855055, 37.17077153197998], [44.37802013015977, 37.171785468822506], [44.37762012086007, 37.17529317091317], [44.38606441299397, 37.17533722397758], [44.386296524738825, 37.17154769479216], [44.3889167725275, 37.17084495534167], [44.38895303599559, 37.16634123434746], [44.386141191435904, 37.166326701874446], [44.384431548843345, 37.168569787214125], [44.37887313948658, 37.16848256135366], [44.377690133577545, 37.16628262259056], [44.374878297173325, 37.166267822898206]]], [[[44.37993857657328, 37.236152752113135], [44.379920144580474, 37.23840302843357], [44.385553066882636, 37.238432390157776], [44.385607904976126, 37.23167533468594], [44.38279363784968, 37.23166070100621], [44.383012951440904, 37.235424369252996], [44.37993857657328, 37.236152752113135]]], [[[44.377934038082884, 37.13698822910192], [44.37791561274854, 37.139238542320655], [44.380230500581455, 37.13964824714697], [44.380711963452505, 37.14150670312804], [44.3835228862122, 37.141521356116115], [44.38361427062406, 37.13025734002256], [44.38080376448099, 37.13024269298156], [44.38068184941075, 37.13604144896604], [44.377934038082884, 37.13698822910192]]], [[[44.35821260405652, 37.13913660770199], [44.35815551239465, 37.145893733448794], [44.36258429169623, 37.14597740939165], [44.36376654989092, 37.14817749941584], [44.36657771041203, 37.14819255653993], [44.36721337652558, 37.14625090698112], [44.37107708708519, 37.145374488760254], [44.37442329497197, 37.14628918050268], [44.37502673709818, 37.148237409805844], [44.37783790591559, 37.14825219988657], [44.37785633956609, 37.146001890131224], [44.37554127206058, 37.14559213770847], [44.37505991153818, 37.1437336629265], [44.370211780125466, 37.14384081605298], [44.36944885303031, 37.141450429798184], [44.367133971625684, 37.14104051455575], [44.36665284451646, 37.13918200639415], [44.35821260405652, 37.13913660770199]]], [[[44.36022943527136, 37.23379443419138], [44.36019137444168, 37.238298079067015], [44.36864266134009, 37.23834343906163], [44.36808511058086, 37.2343805071956], [44.36985072398781, 37.2332536781201], [44.374316703504945, 37.23386659224713], [44.374353918117016, 37.22936293169878], [44.371538515902984, 37.22934807305649], [44.3712239928926, 37.231358169346386], [44.369269932290564, 37.231859157522514], [44.3679549926823, 37.2305181269303], [44.368736579954344, 37.227079639414804], [44.36592249267592, 37.22706460640308], [44.36605609110941, 37.23094566136575], [44.36306661360263, 37.23155624654776], [44.36255379751107, 37.233409396633135], [44.36022943527136, 37.23379443419138]]], [[[44.34928566501763, 37.195425539496206], [44.34926635035316, 37.19767581793895], [44.35917127764036, 37.197757346373656], [44.36051484474557, 37.19999056580626], [44.36332792372477, 37.20000571795534], [44.36336574554286, 37.19550204114031], [44.3610492536668, 37.19509199560236], [44.36056795258432, 37.19323347780166], [44.35212170946437, 37.19318758898412], [44.351608899929, 37.19504070356405], [44.34928566501763, 37.195425539496206]]], [[[44.35811739691513, 37.15040366030875], [44.35809837540741, 37.15265395981343], [44.360909698534044, 37.152669152925384], [44.36092863674751, 37.1504188521888], [44.35811739691513, 37.15040366030875]]], [[[44.34664360649351, 37.175129524907504], [44.34662422764963, 37.17737980989301], [44.349436460359364, 37.177395283900886], [44.349455755808, 37.175144997661015], [44.34664360649351, 37.175129524907504]]], [[[44.253649254026286, 37.181340724732564], [44.2536271120963, 37.183590962616904], [44.25905123269612, 37.184341282471394], [44.25919366836505, 37.1903863537092], [44.27016732887336, 37.191056927581606], [44.27022187620571, 37.19424860348598], [44.26759975924154, 37.19494869528798], [44.26755624921852, 37.199452282339216], [44.2705331271859, 37.20009727645778], [44.270329756996254, 37.20397636026769], [44.272645999964425, 37.204388176952655], [44.273125205902126, 37.206247026772175], [44.28157276524459, 37.20629856261043], [44.28208736263738, 37.20444577322538], [44.28441119465436, 37.204062262164456], [44.284875485088364, 37.197438525134054], [44.290108652727135, 37.19733609105283], [44.29102355043553, 37.19524929171626], [44.29576323774983, 37.195116354388475], [44.296065332890564, 37.19346712696907], [44.29860082997819, 37.1928797010284], [44.29966588441745, 37.19073698950814], [44.30571285624392, 37.19069563916709], [44.30705471723669, 37.192929450499264], [44.312684177886496, 37.192962244146216], [44.31308565587308, 37.191206971410836], [44.31552119575269, 37.19072517879021], [44.315922595557176, 37.18896989499933], [44.31835804625225, 37.18848804297082], [44.318659622176, 37.18683875086678], [44.32119472940327, 37.18625083670442], [44.32241558836355, 37.18406410624763], [44.326713486498264, 37.18486505877513], [44.326771468029825, 37.19304313538423], [44.32983141909344, 37.19380492825974], [44.32954830330136, 37.19756586492785], [44.335178134425064, 37.19759759312143], [44.335197867172774, 37.19534732101846], [44.33207021928011, 37.194461344991666], [44.33255274380854, 37.1913014734117], [44.33400398134161, 37.190488572555076], [44.34087063121595, 37.190868923710106], [44.340148442957776, 37.187417277591464], [44.34103526803401, 37.18628230775158], [44.343327288161646, 37.18650948508459], [44.343709408187955, 37.188631140231934], [44.34652328199316, 37.188646742355935], [44.34654267173572, 37.18639646170504], [44.34336356404896, 37.1853816809749], [44.343784709426366, 37.179620725762085], [44.34146881295174, 37.17921030195082], [44.34098808782053, 37.177351705239275], [44.338463932327436, 37.176735171913016], [44.33819163347432, 37.17508261946947], [44.33537949283931, 37.17506687941857], [44.33415915434703, 37.17725375187119], [44.330171428528054, 37.17712297338615], [44.32976346991732, 37.17278174661694], [44.32719036904991, 37.17249039263431], [44.32561611588063, 37.17336026360254], [44.321319556246095, 37.17273368425889], [44.3211561641779, 37.176403516794394], [44.318463146569506, 37.177224284204684], [44.31769206758402, 37.17924391871767], [44.31562672562957, 37.179461431047336], [44.31509277816474, 37.1835677604704], [44.30995338191083, 37.18393551341025], [44.309182006156966, 37.185955087271836], [44.30582238824778, 37.1861568088468], [44.30391947425284, 37.18277322067065], [44.30715377139265, 37.18166257349329], [44.307174324043764, 37.179412308399556], [44.304362041021264, 37.179395830619384], [44.30309241697309, 37.18193893992445], [44.296533258636615, 37.18165737880176], [44.29590966698004, 37.17934590449792], [44.29310806372357, 37.177975573174834], [44.293416608768645, 37.175423434460036], [44.295951520049655, 37.17483605738498], [44.295993306126746, 37.17033242352318], [44.29318136634659, 37.17031568384859], [44.29266728439396, 37.172168537289274], [44.29034223323909, 37.17258384745726], [44.29026018337485, 37.18156258125547], [44.29338679552141, 37.18244965250563], [44.29298912933163, 37.18725260884821], [44.29019689191596, 37.18832578043092], [44.289558892157196, 37.19026697933931], [44.28735922768377, 37.19056223339307], [44.28728796475991, 37.194331030635304], [44.28590185543308, 37.1953866454017], [44.279310763832186, 37.19485244084185], [44.27890564036579, 37.190511081320906], [44.27302982254166, 37.189730730161465], [44.2733588804279, 37.18146324134622], [44.27014584896166, 37.18031389022116], [44.27062931619939, 37.172432508544155], [44.26781731425605, 37.17241516617282], [44.26849261776021, 37.18037393653677], [44.26695785241153, 37.18344787634812], [44.263556293565486, 37.18425824983011], [44.26175707084326, 37.18342419450305], [44.262115921552464, 37.179140268059896], [44.2598005080915, 37.17872825273605], [44.259321792175484, 37.17686934586659], [44.25650963295637, 37.17685173337939], [44.25672255717029, 37.18061560239482], [44.253649254026286, 37.181340724732564]]], [[[44.324389608989804, 37.17077139237766], [44.326728605119555, 37.17078470523101], [44.32733165734048, 37.16845022610651], [44.32417562475793, 37.1682430086924], [44.324389608989804, 37.17077139237766]]], [[[44.32946302861316, 37.168080677583006], [44.33825061727453, 37.16831933714898], [44.33902103562621, 37.16629955868575], [44.343901652915484, 37.166097256859345], [44.34441444396299, 37.16424416655121], [44.3467367449975, 37.163859415176496], [44.34685304256673, 37.15034211905624], [44.33892523825529, 37.15026323585193], [44.33768455733815, 37.14697340551032], [44.33846659644721, 37.14353507432631], [44.32158138018407, 37.14343963035018], [44.3215612810874, 37.14568991592572], [44.331503006223, 37.14514459825107], [44.335188367976244, 37.145935213185], [44.33559651640897, 37.15027644248687], [44.33877405390989, 37.15129142226707], [44.33822945412213, 37.15621857473096], [44.335537334718275, 37.15703974181189], [44.33476692176058, 37.15905950078123], [44.332702174330144, 37.15927731737991], [44.3324674347326, 37.16306672388429], [44.32984695275363, 37.16376821355591], [44.32946302861316, 37.168080677583006]]], [[[44.33494470255915, 37.224641221363235], [44.334905150670295, 37.22914485052184], [44.337719297982524, 37.22916062125845], [44.33775868254942, 37.22465698954268], [44.33494470255915, 37.224641221363235]]], [[[44.31813897036468, 37.213278254135666], [44.31811871816031, 37.21552851151543], [44.32093234994616, 37.215544676103384], [44.32095251859999, 37.2132944174138], [44.31813897036468, 37.213278254135666]]], [[[44.29561890279672, 37.21085824569778], [44.30125133285284, 37.21092324374295], [44.30129285858878, 37.206419632264954], [44.298479577258405, 37.20640300463234], [44.29796536542107, 37.20825586864399], [44.29564146873385, 37.208639644729125], [44.29561890279672, 37.21085824569778]]], [[[44.298291756554605, 37.22668320432082], [44.2982709047797, 37.22893344715783], [44.301085022775226, 37.228950088286176], [44.30110579094567, 37.22669984410091], [44.298291756554605, 37.22668320432082]]], [[[44.27863075945947, 37.21980465831017], [44.27860932880741, 37.22205489415075], [44.28142317923884, 37.222071999775515], [44.28144452631624, 37.21982176254895], [44.27863075945947, 37.21980465831017]]], [[[44.270914574353924, 37.14313879623953], [44.270828070975334, 37.152149160831314], [44.276454463065114, 37.1521836437379], [44.276497371056834, 37.14768001176492], [44.27332084361685, 37.1466633720101], [44.273725494126545, 37.14315605357181], [44.270914574353924, 37.14313879623953]]], [[[44.273837072042454, 37.131889209596046], [44.27381556752213, 37.13413947651828], [44.27662615617156, 37.13415666152124], [44.276647577479565, 37.131906393205384], [44.273837072042454, 37.131889209596046]]], [[[44.26792600103057, 37.161148368993445], [44.26790429849224, 37.16339862181831], [44.27071596643847, 37.16341595855702], [44.27073758564464, 37.16116570432664], [44.26792600103057, 37.161148368993445]]], [[[44.265437485229015, 37.12733044209836], [44.26541573556817, 37.1295807065382], [44.26822615036896, 37.129598088884954], [44.26824781683683, 37.12734782303542], [44.265437485229015, 37.12733044209836]]], [[[44.25943564165765, 37.16560260297729], [44.25939169335458, 37.17010620411521], [44.262203604424116, 37.17012374550327], [44.26224738590304, 37.165620141519426], [44.25943564165765, 37.16560260297729]]], [[[44.25058809391266, 37.20610969585186], [44.25047668278394, 37.21737325481059], [44.25329034158417, 37.21739102688822], [44.2526120716134, 37.211553424599785], [44.25375991210232, 37.20887597419884], [44.25619637820823, 37.208395412947], [44.256240577314976, 37.20389184424503], [44.253427417805504, 37.20387414770576], [44.252912125971314, 37.20572680516499], [44.25058809391266, 37.20610969585186]]], [[[44.25032052919944, 37.233149660723384], [44.25027593112126, 37.237653201044125], [44.25309034335831, 37.237670986103744], [44.2531347740564, 37.23316744289952], [44.25032052919944, 37.233149660723384]]]]}}