{"type": "Feature", "properties": {"fire_id": "IAN_2021_01", "fire_date": "2021-07-29", "province": "Adana", "region": "Akdeniz", "modis_area_ha": 539}, "geometry": {"type": "MultiPolygon", "coordinates": [[[[35.67256449898534, 37.57932610677169], [35.67264490715529, 37.58157393012271], [35.67546936803299, 37.58150990077487], [35.67538887513446, 37.579262082588365], [35.67256449898534, 37.57932610677169]]], [[[35.65268639024752, 37.577522035173146], [35.65284612005383, 37.582020860023256], [35.65567064336159, 37.581957303772185], [35.6561037425162, 37.580092236773524], [35.658759609126584, 37.57944576295245], [35.658338990186145, 37.577394787788975], [35.65268639024752, 37.577522035173146]]], [[[35.66091066167078, 37.579778762673456], [35.66133136807358, 37.58182972471162], [35.66698425393975, 37.581702050985605], [35.66690401558128, 37.5794542173005], [35.66091066167078, 37.579778762673456]]], [[[35.61718029723672, 37.614359504759065], [35.61741706896719, 37.62110944387716], [35.621888565121004, 37.62042136969047], [35.62353927869863, 37.62182990376586], [35.62270188772572, 37.62307986776862], [35.62032625303085, 37.62329972507197], [35.620454659608285, 37.629095295779855], [35.61773314183523, 37.63011659393051], [35.61797009807454, 37.636866512007266], [35.62362734916051, 37.636740759185265], [35.62332416124814, 37.63286841163307], [35.627449217547344, 37.63156109027228], [35.63135205455864, 37.63237146448859], [35.63204346450181, 37.634300422803534], [35.63487001300536, 37.63423729012296], [35.634769435405396, 37.63014792891796], [35.64037149474156, 37.62960871206307], [35.640291919189835, 37.62736084813582], [35.63552544207085, 37.62730632860637], [35.63455204451073, 37.62523648039013], [35.62623895017631, 37.62470588339962], [35.6260825624998, 37.621238072052364], [35.63156300696327, 37.620794601119165], [35.63183795005778, 37.61872801015871], [35.62824570789956, 37.61762205281133], [35.62925974186033, 37.614317043787594], [35.63682758322507, 37.61376262179999], [35.63729249440545, 37.61541998846936], [35.634465907969975, 37.615950690285565], [35.63431613922226, 37.618480320855504], [35.64846262000235, 37.618163491490776], [35.64838283368926, 37.61591563789604], [35.646164872407304, 37.615657064634775], [35.645473303737816, 37.61372819098838], [35.64263967533322, 37.61270221183577], [35.64219488271285, 37.61016116983995], [35.6456544265167, 37.60902631073595], [35.64523394943298, 37.60697529066032], [35.642408456490344, 37.60703863281167], [35.641246560643616, 37.60961439980239], [35.63399965131785, 37.60947950366063], [35.63287011189407, 37.61169773327604], [35.6255902648523, 37.611919794363914], [35.62466716102809, 37.61670061620309], [35.62083365458861, 37.61630178472281], [35.61996634216358, 37.61429608637109], [35.61718029723672, 37.614359504759065]]], [[[35.64780629564576, 37.6093595179602], [35.648226860282016, 37.61141052492537], [35.65105250531556, 37.611347037229265], [35.65097266065488, 37.60909918574854], [35.64780629564576, 37.6093595179602]]], [[[35.64372379354522, 37.56420662447164], [35.64380329126172, 37.56645450626192], [35.649455095482566, 37.56632771585785], [35.649375428303664, 37.564079844296025], [35.64372379354522, 37.56420662447164]]], [[[35.60719749011818, 37.5717778257617], [35.60727591163987, 37.57402577055392], [35.61158180960325, 37.573328913247785], [35.61797720268398, 37.57409714254892], [35.618667642246976, 37.576026229652655], [35.621394096478426, 37.57680163571383], [35.62165387141958, 37.58046545727629], [35.62985780804491, 37.58003247985496], [35.63093223680708, 37.58132285963794], [35.63053546824485, 37.59153158762852], [35.63618922885842, 37.59140536110946], [35.63610988859042, 37.589157475025814], [35.633547916514495, 37.58861243243846], [35.632488929241184, 37.585399165231614], [35.63427143259934, 37.58410085515669], [35.63877946893243, 37.58458914159109], [35.63921300508033, 37.58272412082384], [35.64152842990124, 37.58227484693719], [35.64159689163922, 37.5784838251063], [35.64419756034364, 37.57770951298069], [35.644038375652016, 37.5732106533446], [35.63890050901692, 37.57329077911007], [35.63830266124691, 37.57108629719721], [35.63622259862933, 37.57090344699563], [35.63539523742578, 37.568898509368466], [35.63229022774462, 37.568223623663044], [35.632408715676206, 37.564459635370284], [35.62958480009473, 37.564522610196185], [35.62903085483364, 37.56647936520994], [35.625687165890994, 37.56745124808993], [35.61552434481398, 37.56708794263638], [35.614917778617595, 37.57137760339642], [35.611539064498785, 37.572283654270755], [35.60719749011818, 37.5717778257617]], [[35.62975575244718, 37.571240163357096], [35.62932988751447, 37.569350274480364], [35.63192144334766, 37.56891869033725], [35.632242392314076, 37.57108780574998], [35.62975575244718, 37.571240163357096]]], [[[35.63659062318517, 37.602663319706004], [35.63667001655712, 37.604911199766455], [35.639495442119554, 37.604847998027935], [35.639415963911304, 37.60260012306425], [35.63659062318517, 37.602663319706004]]], [[[35.61395635784558, 37.60316715308835], [35.61403507155228, 37.605415073783064], [35.617214832384676, 37.60621265767141], [35.61702231184011, 37.60985436514141], [35.622677520545814, 37.609728734105694], [35.622598534497826, 37.60748083060358], [35.6194186698519, 37.60668339630161], [35.61961107417277, 37.60304168785537], [35.61395635784558, 37.60316715308835]]], [[[35.61906227483391, 37.58728446331507], [35.61914109704477, 37.589532380889985], [35.62196598095444, 37.589469620530686], [35.62188707396698, 37.58722170801776], [35.61906227483391, 37.58728446331507]]], [[[35.59572848344899, 37.56752514931776], [35.59580654825917, 37.569773116231936], [35.59863073829436, 37.569710942004996], [35.598552588784024, 37.567462980106576], [35.59572848344899, 37.56752514931776]]]]}}