{"type": "Feature", "properties": {"fire_id": "IAN_2024_01", "fire_date": "2024-06-18", "province": "Uşak", "region": "Ege", "modis_area_ha": 1039}, "geometry": {"type": "MultiPolygon", "coordinates": [[[[29.0511227370104, 38.64609322001281], [29.051572321109386, 38.661850794036], [29.053961535655432, 38.6619635421821], [29.054919951049648, 38.663100927734185], [29.054165501039527, 38.66581796513937], [29.051700952298734, 38.666356942599684], [29.051893731284995, 38.673108393719886], [29.054761852485033, 38.67305802135994], [29.055040371808865, 38.6690435376439], [29.060376872573762, 38.66845391341348], [29.061380979715505, 38.66628800626689], [29.07077003091526, 38.66578883069336], [29.071868317725993, 38.668250839695276], [29.077425834940552, 38.66853412120724], [29.078475142473376, 38.67145012428395], [29.07780733091047, 38.6749033594538], [29.084867538837724, 38.67478572938843], [29.08637533642633, 38.67571156028089], [29.086172084934685, 38.6790983547525], [29.08080995464732, 38.67935833489199], [29.080356913164938, 38.68122160986497], [29.078002801119688, 38.681660900998004], [29.078067852608914, 38.68390927191934], [29.080936357487083, 38.68385824580827], [29.081389397366035, 38.681994969331065], [29.084748898535928, 38.680974401656016], [29.08886906780312, 38.68177248560564], [29.089754224333163, 38.69045883746056], [29.09213168700763, 38.690813732441455], [29.092692552139724, 38.69265889883018], [29.095561379646085, 38.692607504295005], [29.096990049783127, 38.68999568815466], [29.106881692591955, 38.69098729530734], [29.10674004967033, 38.69449788174315], [29.101376889144777, 38.69475883524414], [29.101442702810914, 38.69700716756589], [29.106580086507808, 38.69689267279181], [29.10732078272065, 38.70140658286541], [29.110145917439386, 38.70231639851064], [29.110478872723668, 38.711395145938454], [29.10765148087739, 38.71266681314761], [29.107783684146447, 38.7171665505597], [29.109895881645045, 38.71735777155126], [29.110723675760717, 38.71936610274334], [29.113218719188385, 38.719816709529915], [29.11367448847156, 38.72307255895763], [29.11173961317139, 38.72418368831458], [29.108601685068514, 38.72360439397364], [29.107912135122987, 38.72167256696634], [29.102168230438096, 38.7217760278456], [29.10171552980752, 38.723639364933064], [29.09936018780455, 38.72407911874195], [29.099426097363647, 38.72632842157041], [29.107139554337706, 38.72634976022495], [29.10844913575164, 38.72986791284205], [29.10094328726877, 38.7307809829012], [29.099238604724164, 38.72831044592567], [29.096617792658744, 38.728633579124846], [29.097181060424273, 38.73432970987365], [29.093940818824137, 38.735439415562105], [29.094255956301023, 38.73795935564611], [29.09821716814891, 38.7370104010008], [29.10172127976362, 38.737710384070674], [29.10269629011208, 38.739784306763084], [29.105295965961254, 38.74033972640827], [29.105637091151277, 38.74198395734712], [29.10850786725203, 38.74193219011713], [29.109511429886634, 38.739765906781706], [29.11313124011928, 38.73970050197169], [29.1143277137456, 38.74407963025504], [29.117198557657996, 38.744027647255606], [29.118523174489752, 38.74177856016331], [29.127410480193653, 38.74164931812342], [29.128701686811475, 38.74381864959824], [29.13130168536829, 38.744373480230685], [29.131643427409493, 38.74601761669343], [29.134514284367096, 38.745966187357965], [29.134447350754353, 38.74371694091846], [29.1316202786152, 38.742807774083424], [29.13143867181912, 38.73926666631782], [29.1293257864488, 38.73907585546124], [29.12849722404519, 38.737067683650615], [29.12573120776643, 38.73628214021927], [29.12546882319054, 38.7315825322928], [29.126813271634205, 38.73036495517476], [29.134391705711298, 38.7300100921729], [29.134015872438166, 38.72666169646021], [29.13678509726442, 38.725650317299525], [29.13671810875987, 38.723402047459125], [29.128730942676032, 38.72344756479169], [29.127635697241146, 38.72238831204971], [29.127962647502873, 38.719056590950686], [29.11971999428081, 38.71871068919915], [29.11914172585092, 38.712459039765136], [29.116646909143075, 38.71200855276377], [29.11613538004564, 38.708008284790125], [29.113309948544526, 38.70709862327045], [29.11276395802081, 38.70461253898629], [29.114248250152972, 38.70354189231836], [29.118256500227027, 38.703769871782065], [29.11894613169455, 38.7057016402523], [29.12171088601629, 38.706487383694316], [29.121952545295155, 38.71015232233905], [29.126938001098893, 38.7102910359558], [29.12776617619728, 38.71229923743775], [29.130365014091627, 38.712854124374275], [29.130706551030617, 38.71449827673171], [29.133576180824125, 38.71444592496017], [29.134511649806946, 38.710028065354656], [29.142062477401506, 38.709785484756736], [29.143064607881715, 38.707618943772395], [29.150058643984515, 38.70697696784382], [29.151418599619937, 38.7084249256911], [29.150754055767056, 38.7118784667875], [29.15362508193913, 38.71291503529453], [29.153830280684993, 38.718579614957065], [29.158816321116753, 38.718716949440314], [29.16038821698615, 38.72151244744301], [29.159372858644648, 38.72474253737186], [29.156907199619386, 38.72528376398493], [29.157042552002753, 38.729783347272125], [29.159912743602064, 38.729730331654174], [29.161072568049892, 38.72751604681389], [29.166790668416553, 38.727006365039486], [29.16828521940534, 38.72770457888186], [29.16853913163544, 38.729570568096655], [29.17452587118177, 38.73014865224593], [29.174196706351303, 38.733257735652025], [29.171549728535098, 38.734022944746734], [29.171408975845257, 38.73589625863706], [29.169958146711487, 38.736649144139975], [29.161306935122557, 38.7367411187921], [29.160048493172305, 38.73423611371165], [29.154908631449246, 38.734353033248574], [29.15423216079407, 38.73209089145404], [29.148487594826857, 38.73219665164691], [29.149215366913744, 38.74226679990588], [29.14595030070914, 38.74350624737861], [29.146017626825365, 38.74575449589051], [29.151763288320144, 38.745648826120025], [29.151724875314223, 38.7415262577998], [29.158575236493547, 38.74067395688177], [29.160201445448894, 38.74161034155506], [29.160391637841673, 38.74548960910508], [29.166137223676806, 38.745383233448386], [29.16606926755456, 38.743135014589065], [29.163241853308023, 38.742226623934954], [29.16370044325762, 38.73897896302524], [29.170146988227764, 38.73794926706652], [29.17455655539429, 38.73846909253696], [29.175263672745057, 38.736432676748564], [29.18023701210806, 38.736110656988515], [29.18068772064722, 38.734247076045506], [29.183042817588422, 38.73380568793753], [29.183263824487945, 38.729488662037355], [29.18052670484169, 38.72895318955875], [29.179963272202414, 38.727108529061496], [29.172249846652726, 38.727091023103185], [29.17049338796055, 38.72410057685254], [29.1722100052229, 38.722181345998244], [29.17695247366662, 38.722656371097145], [29.176794798157346, 38.71712216912551], [29.177974937114058, 38.715939299927726], [29.18187561330343, 38.71611513240942], [29.182567075000694, 38.7180464684103], [29.185166489665068, 38.71860011741115], [29.185509309175536, 38.720244070755136], [29.190633783013634, 38.72045646574348], [29.191325525608537, 38.722387740450415], [29.194091643761222, 38.72317172710345], [29.19397906943152, 38.72665395445573], [29.196716185922956, 38.72718911153926], [29.197280046610835, 38.72903367856544], [29.199879961765795, 38.72958698418457], [29.20022318124478, 38.731230880039874], [29.203093348193157, 38.73117680266147], [29.202747644255034, 38.719923526631874], [29.197274399692496, 38.71942434019303], [29.196131046409647, 38.716731584274164], [29.196793426697027, 38.71327785028015], [29.193577572226676, 38.71352741939097], [29.194709970717984, 38.717149643956645], [29.193194156366467, 38.718178228888696], [29.191556902619364, 38.71771692443332], [29.190315164569103, 38.714588142698766], [29.191392868219616, 38.713186966895464], [29.19044133616685, 38.70794508839361], [29.191959157089418, 38.70661553962337], [29.2023328446802, 38.70641273121791], [29.20176157284643, 38.700717319046866], [29.204998460689353, 38.69960471118192], [29.20486024958743, 38.695105248397546], [29.200338301559302, 38.69513070905674], [29.19904591173804, 38.692962190174036], [29.196177264646725, 38.69301612366009], [29.19593526154957, 38.69467103792843], [29.193373429460376, 38.6953213640817], [29.192372992906478, 38.6974882914829], [29.186358102379845, 38.698307198256295], [29.18300986558101, 38.69766353857497], [29.181878234880216, 38.694370238060486], [29.184682692095397, 38.693228419331426], [29.184614281954378, 38.69098020808433], [29.18223644518186, 38.690627208169424], [29.181673316726304, 38.68878253718402], [29.175932319719497, 38.68888954564896], [29.17568985718519, 38.6905444322698], [29.173127966127424, 38.691194316000896], [29.172421172763567, 38.69323072234164], [29.168069623439436, 38.69323250514915], [29.16741594743449, 38.69000543634075], [29.170183273574054, 38.68899331410057], [29.1701152364843, 38.686744100714435], [29.167443630645906, 38.68649847221213], [29.166853972919704, 38.68498673969253], [29.16851330139421, 38.683917288239044], [29.17291952023758, 38.68443727653806], [29.173209244420534, 38.682371560776666], [29.16729275937263, 38.68191034256885], [29.166239710197843, 38.678995250054626], [29.166835370307748, 38.67329028294491], [29.16396744693078, 38.673343403704415], [29.164035189852342, 38.67675792685838], [29.162876293803393, 38.677809063836754], [29.159544586560557, 38.67820609560729], [29.158287327756327, 38.6757010168096], [29.155072966897393, 38.67594948276238], [29.15627668085337, 38.679316600007084], [29.1540653059412, 38.68252865919715], [29.14535217368271, 38.682637198030946], [29.143812224243256, 38.680196503106544], [29.13108881457384, 38.680677699129724], [29.129633758672423, 38.67847911970856], [29.12699858309752, 38.6782510101469], [29.12683212813883, 38.68077963583469], [29.12920941651489, 38.68113378090352], [29.129771139353668, 38.68297874727106], [29.13789319367586, 38.683227910987306], [29.13841750309226, 38.68636845600868], [29.136965505633704, 38.687347729464435], [29.12415972099395, 38.687589190612655], [29.122836206083367, 38.68983832772438], [29.119269119301823, 38.68987320734342], [29.118016946184795, 38.688773819996115], [29.117953537757977, 38.68411998954164], [29.12115012895643, 38.68313549258731], [29.121083731266996, 38.68088718350057], [29.112470847556473, 38.68104313819255], [29.112993967717347, 38.68435947810714], [29.111647995759345, 38.68553679572848], [29.093715286098327, 38.68582605757201], [29.092466575073047, 38.6846875144695], [29.092295069999263, 38.679153347098215], [29.089426233604996, 38.67811520319659], [29.088372297357523, 38.668883961169534], [29.090265975841568, 38.66733435499388], [29.09771076906503, 38.66779003038108], [29.097645140744014, 38.665541681420194], [29.092176564414096, 38.6650374294883], [29.09177066720945, 38.66114165531057], [29.088902568946757, 38.66010347520514], [29.089542503560548, 38.656902447913694], [29.096625246876656, 38.6567756601262], [29.097517595240006, 38.66103559238292], [29.099894108531604, 38.66139035737397], [29.100454907098186, 38.66323549604637], [29.105135568457584, 38.663255751085146], [29.106264081074414, 38.665383622093586], [29.10864077420449, 38.66573820371155], [29.109267920265086, 38.66983472900414], [29.112091816876482, 38.67074453655326], [29.112272140892546, 38.67428574501584], [29.11801221107466, 38.674181894515094], [29.11846423281922, 38.67231850033728], [29.12081775623175, 38.67187840916292], [29.12075139562853, 38.66963009525503], [29.11637549036899, 38.67031096205714], [29.114470172567973, 38.669309834492374], [29.11487521453829, 38.66523128290942], [29.10940657802123, 38.6647278399001], [29.108999751838773, 38.66083215167705], [29.105749697353936, 38.65996418642078], [29.105996330921794, 38.65638102037987], [29.103233685459983, 38.6555948396365], [29.10299329115863, 38.65192979824746], [29.094580754184857, 38.651784615102706], [29.09424866655819, 38.64758146285981], [29.091872635588683, 38.647226568706515], [29.091271847989468, 38.64538054240847], [29.085574329010893, 38.64548385074573], [29.085121585582005, 38.64734714487826], [29.082768607338252, 38.64778650259487], [29.083082829629358, 38.650306529811616], [29.085467770991695, 38.650264019098714], [29.086703975300154, 38.64781767163116], [29.090758728842253, 38.64794915631354], [29.092245007684685, 38.65093077708377], [29.090971355687493, 38.65255704317614], [29.075504353170192, 38.65236120344008], [29.07428511655165, 38.651353131237], [29.07415155574662, 38.647939666612636], [29.07090246826033, 38.64707070261781], [29.07115082721923, 38.6434875555702], [29.068283914655083, 38.64353829733787], [29.068478092762785, 38.65028970438645], [29.071074266843876, 38.650845990609625], [29.071803772080585, 38.65381267957756], [29.070360860021555, 38.65475699209183], [29.063652812206392, 38.654825997451105], [29.06240209860272, 38.653725967462904], [29.06273191603157, 38.65039431702884], [29.060355918189767, 38.65003878065229], [29.059055397713387, 38.647405160310356], [29.059602820825766, 38.64143886207002], [29.05673596901321, 38.641489318606446], [29.056090634169063, 38.645776637946376], [29.0511227370104, 38.64609322001281]], [[29.158964093566382, 38.69821459316162], [29.156365599841738, 38.697660332191525], [29.1560236703115, 38.6948499905672], [29.15917498427696, 38.69351321527026], [29.15896963756469, 38.691835461653945], [29.16075039400548, 38.69109305701494], [29.162416181187208, 38.69231940184813], [29.16177305108095, 38.69590696537203], [29.16459859472178, 38.69681545157074], [29.165031216811084, 38.70062794693165], [29.1679970348144, 38.700107724931705], [29.168432645319783, 38.69594475369219], [29.177284098618806, 38.69562061962405], [29.178962629139296, 38.69654856289552], [29.179146371926393, 38.70008955605299], [29.181524512270116, 38.70044260962181], [29.182087742684, 38.70228727534604], [29.18495678719072, 38.70223367673123], [29.186382327229108, 38.69962086041424], [29.190636156272138, 38.700964210154346], [29.190108363548408, 38.706746948889204], [29.18090427379117, 38.706809598036216], [29.179279221618756, 38.70459537745359], [29.17678436356879, 38.704146177056714], [29.176337835561966, 38.70239758851035], [29.173843070040906, 38.70194832238913], [29.1733966294055, 38.7001997195099], [29.17018124719677, 38.70044863043558], [29.17073182999981, 38.70700392658731], [29.174066228819633, 38.70812138814654], [29.17397793546181, 38.7195851990934], [29.172682283291802, 38.72079706271061], [29.168266923325042, 38.72056836012792], [29.169125586364032, 38.72413087570122], [29.16769665694077, 38.72538496240048], [29.165797942361575, 38.72484957993162], [29.165815094579795, 38.723055583929124], [29.163065843582984, 38.72276264709103], [29.162104914698627, 38.72162623136218], [29.161987935632652, 38.71485032241524], [29.165186243572816, 38.71383295925706], [29.16511736574191, 38.71161637111189], [29.162291224272213, 38.710707916638384], [29.162087373925463, 38.70613219648109], [29.164913486791608, 38.70485924577988], [29.164845576241163, 38.70261003065799], [29.159594469136298, 38.70231073633271], [29.158964093566382, 38.69821459316162]], [[29.157304357906394, 38.73878567023642], [29.157592650981538, 38.736751170773665], [29.16026704649425, 38.7370609555387], [29.15978647215209, 38.73908348213059], [29.157304357906394, 38.73878567023642]], [[29.144397776117703, 38.691724908665726], [29.1416333746219, 38.69093969104368], [29.14139116053982, 38.686108525849406], [29.142550509401588, 38.68505759045817], [29.145683974369284, 38.68496788901458], [29.147139653255987, 38.687166248432376], [29.14990396163769, 38.68795133870392], [29.150109511436277, 38.69291181470099], [29.14568851887303, 38.69389408068291], [29.144397776117703, 38.691724908665726]], [[29.124020058224467, 38.72874054688857], [29.121691670317507, 38.72685206126102], [29.122867010912753, 38.7240487875856], [29.12749138940717, 38.72354525409277], [29.12824779995782, 38.72758521031576], [29.124020058224467, 38.72874054688857]], [[29.081102967198756, 38.659249924167824], [29.08072889871404, 38.6546778878333], [29.08432241621778, 38.65418006694989], [29.08572217367874, 38.65498849102345], [29.084897634749204, 38.658907336841516], [29.081102967198756, 38.659249924167824]], [[29.072591352974023, 38.66593112094944], [29.07244396662398, 38.6617120471225], [29.076193711076083, 38.66147593858737], [29.078240554202033, 38.66509172139786], [29.076376312467076, 38.66651034843373], [29.072591352974023, 38.66593112094944]], [[29.054806633103652, 38.65689438174653], [29.05475823022507, 38.650631843177656], [29.059369452740366, 38.65084790143729], [29.06072669168548, 38.65374313236437], [29.059540262694618, 38.65681110037101], [29.054806633103652, 38.65689438174653]]], [[[29.126461830132943, 38.67655721553387], [29.126628295255422, 38.67402858857671], [29.12376026685856, 38.67408072427645], [29.12382673213508, 38.676329032083295], [29.126461830132943, 38.67655721553387]]], [[[29.14424775594614, 38.678484960919846], [29.149738592789078, 38.67810803539877], [29.150189805542396, 38.67624454259498], [29.152889563867134, 38.67560826994605], [29.15247586992424, 38.67355554883171], [29.14404417350647, 38.6729944888491], [29.143637984893527, 38.665925003660455], [29.146462896668666, 38.66465252711841], [29.146261297676055, 38.65790147564567], [29.140522632537046, 38.658006675465245], [29.140589583715236, 38.66025496491386], [29.143840027255536, 38.66112194889705], [29.14343732299453, 38.663875240381834], [29.139236218056578, 38.664760561792875], [29.13778126258586, 38.66256207613968], [29.134913712410636, 38.662614472324776], [29.13446216971734, 38.664477919088014], [29.13210898301082, 38.66491827625409], [29.13244294922549, 38.67617218486712], [29.14270793900844, 38.676044246194806], [29.14424775594614, 38.678484960919846]]], [[[29.175369839470992, 38.68194993383349], [29.178595840830692, 38.68207902317981], [29.178527648358127, 38.67983079851602], [29.175659486215746, 38.679884213523245], [29.175369839470992, 38.68194993383349]]], [[[29.185425758090556, 38.729066812628766], [29.19152796040527, 38.72914169555913], [29.191817265813604, 38.727075958734424], [29.18571523988987, 38.72700108577118], [29.185425758090556, 38.729066812628766]]], [[[29.136576705259493, 38.730351602877285], [29.13705746140142, 38.734655736923365], [29.13974758539999, 38.735322499992606], [29.140066275690174, 38.739105865639715], [29.14293687240685, 38.73905325620098], [29.14266778527383, 38.73005091108585], [29.136576705259493, 38.730351602877285]]], [[[29.093818926794487, 38.73967073889331], [29.091197671596312, 38.73999376218657], [29.091653875649055, 38.743564283702064], [29.088107345299914, 38.74474341660952], [29.087515507358273, 38.748965609190755], [29.083016194514464, 38.748434346268205], [29.082926816935352, 38.745359601859654], [29.085922093434046, 38.74440100581795], [29.085509818318528, 38.742348027503155], [29.08267929887991, 38.74239695819551], [29.081785942581025, 38.74450589925326], [29.074079695615428, 38.74480408651397], [29.072753608963158, 38.747052708746914], [29.069454714204028, 38.74703426987446], [29.0683258827072, 38.7449060764757], [29.065454913996444, 38.744956860187095], [29.065001133033572, 38.746820078504925], [29.062644776772643, 38.74725911763559], [29.062709499111257, 38.749507485116304], [29.06508882465485, 38.74986287670041], [29.065649530240577, 38.75170816194152], [29.068249392955313, 38.752264401062504], [29.06858974176282, 38.753908759008176], [29.105963946881364, 38.75324108733216], [29.106416688101902, 38.751377740453805], [29.108772870102907, 38.75093782227995], [29.108640445255276, 38.74643811378591], [29.103799667206722, 38.746364228198985], [29.102824527081502, 38.744290320305296], [29.09795957775429, 38.744548316745416], [29.097008947374174, 38.74214222673931], [29.094629751151476, 38.74178748220077], [29.093818926794487, 38.73967073889331]], [[29.094369996688513, 38.74765244648998], [29.099746392381423, 38.74686492523887], [29.10004718767257, 38.750137308592656], [29.095621927956913, 38.75111778948741], [29.094369996688513, 38.74765244648998]]], [[[29.134818648273296, 38.74793926734884], [29.134652421830378, 38.750467872796555], [29.14074522112869, 38.750167233291364], [29.140331342939657, 38.74811449593343], [29.134818648273296, 38.74793926734884]]], [[[29.142930864727727, 38.75050860562834], [29.143344834025974, 38.75256133046834], [29.151966131491413, 38.75240285723665], [29.15189860281783, 38.75015462006783], [29.142930864727727, 38.75050860562834]]], [[[29.185912196346383, 38.63911128118434], [29.18802517177686, 38.6393327235716], [29.188854122668634, 38.64134048892737], [29.19123034305204, 38.64169340383575], [29.1917932880235, 38.643538046204746], [29.194659969938417, 38.64348427787829], [29.19510983480212, 38.641620641875875], [29.198465705675794, 38.64059690106072], [29.20320288494729, 38.64107102000014], [29.203134023567575, 38.6388228165712], [29.198426440916784, 38.6391402356079], [29.1973243673986, 38.63667951769582], [29.185846820059986, 38.63689462147411], [29.185912196346383, 38.63911128118434]]], [[[29.186531273885695, 38.659407935647636], [29.186736664695935, 38.66615880541859], [29.18960425802705, 38.66610513471032], [29.190054368532756, 38.66424151685421], [29.19275328381159, 38.66360434558745], [29.19269622902762, 38.66173425195813], [29.189961656776028, 38.66119892115273], [29.18939859840031, 38.65935427781837], [29.186531273885695, 38.659407935647636]]], [[[29.195145106619556, 38.65924652840821], [29.196013371627917, 38.66254361467528], [29.195351304984918, 38.665997359438094], [29.198039303460778, 38.66666284700357], [29.198360583201715, 38.67044601411977], [29.200737810510613, 38.67079870437442], [29.201301261254063, 38.67264327850213], [29.20416908523269, 38.67258924314874], [29.204100116059447, 38.67034105332201], [29.20133596337625, 38.669557240382936], [29.200290778956024, 38.664843716651625], [29.201360715984308, 38.66187485316633], [29.203823840198798, 38.66133275677306], [29.203685891379653, 38.65683326092182], [29.200818694841875, 38.6568872660177], [29.199661152527085, 38.65910190089508], [29.195145106619556, 38.65924652840821]]], [[[29.194801438176807, 38.64798994804399], [29.19493878770876, 38.65248947757512], [29.197805820275065, 38.65243562172972], [29.19865444909379, 38.65032820581567], [29.20347878797759, 38.650076246072295], [29.203340916197654, 38.6455767404988], [29.19760345141452, 38.64568471171075], [29.1971536312705, 38.64754835495252], [29.194801438176807, 38.64798994804399]]], [[[29.197832320313694, 38.74704702083692], [29.19797034683306, 38.75154646482901], [29.200841331444078, 38.75149241905735], [29.200703124989296, 38.74699298370353], [29.197832320313694, 38.74704702083692]]], [[[29.19461282354602, 38.735844649727646], [29.19468165681645, 38.73809282864776], [29.197552109072802, 38.73803887932035], [29.197483185950983, 38.7357907047093], [29.19461282354602, 38.735844649727646]]], [[[29.171766660893294, 38.646167434037935], [29.171834560135586, 38.64841568177101], [29.17504761410006, 38.648166791243796], [29.174633485874566, 38.64611415340608], [29.171766660893294, 38.646167434037935]]], [[[29.17723026280585, 38.64850761280183], [29.1776444817852, 38.65056023809003], [29.183382412084196, 38.650453234430316], [29.183832606391928, 38.64858963404752], [29.18618489685153, 38.648148259191075], [29.186116549835187, 38.64590003283342], [29.183249755295627, 38.64595359461416], [29.18209182332494, 38.648168070034515], [29.17723026280585, 38.64850761280183]]], [[[29.177503481274954, 38.74066990391201], [29.177571789940338, 38.742918106663865], [29.183317104174606, 38.74281089255644], [29.183248615631953, 38.74056269836779], [29.177503481274954, 38.74066990391201]]], [[[29.1777809588248, 38.65506602833846], [29.17784906765988, 38.657314263659295], [29.180716325314236, 38.65726082107381], [29.180648126983286, 38.65501259002439], [29.1777809588248, 38.65506602833846]]], [[[29.13698218062633, 38.635545160005805], [29.137182748171366, 38.64229627832905], [29.142815931929416, 38.64302909247334], [29.143125397951152, 38.648945395592285], [29.15173426553272, 38.64878729346438], [29.151599636081254, 38.64428763200101], [29.146230665947794, 38.644221882001546], [29.14572378340638, 38.6398903474785], [29.14290072917983, 38.63898132547509], [29.14271906777082, 38.63544018499171], [29.13698218062633, 38.635545160005805]]], [[[29.14541121892444, 38.72549537976396], [29.14547848486885, 38.72774363601243], [29.151222705597434, 38.72763803383924], [29.151155259895965, 38.725389786026426], [29.14541121892444, 38.72549537976396]]], [[[29.14220097365266, 38.71429126242311], [29.14233535085204, 38.718790897649384], [29.145205130488193, 38.718738255598105], [29.145070573619247, 38.71423862878824], [29.14220097365266, 38.71429126242311]]], [[[29.12602738585666, 38.75062824027973], [29.126094104166405, 38.75287651527771], [29.12896527849286, 38.75282423339073], [29.128898470249474, 38.75057596256833], [29.12602738585666, 38.75062824027973]]], [[[29.08479356320252, 38.71758202571479], [29.084858910955504, 38.71983037308439], [29.0877288387772, 38.71977914063414], [29.08766340122847, 38.71753079735749], [29.08479356320252, 38.71758202571479]]], [[[29.076628440891515, 38.73349573712179], [29.076693569815106, 38.73574409002793], [29.079910971548568, 38.735497700286395], [29.079498930464368, 38.733444691629394], [29.076628440891515, 38.73349573712179]]], [[[29.082095926320875, 38.735840232359955], [29.082508058273753, 38.737893228620266], [29.085378713126048, 38.737842033902936], [29.085313307040984, 38.73559369422014], [29.082095926320875, 38.735840232359955]]], [[[29.081658434764, 38.708627415935055], [29.081723663429614, 38.710875771242165], [29.084593238932776, 38.71082462564806], [29.084527920510606, 38.70857627442725], [29.081658434764, 38.708627415935055]]], [[[29.079307012325277, 38.7266902516657], [29.079372209376757, 38.72893860337165], [29.082242511582812, 38.72888749554164], [29.08217722469372, 38.72663914791841], [29.079307012325277, 38.7266902516657]]], [[[29.07016456402736, 38.708831559174506], [29.070229433161977, 38.71107993079315], [29.07286569686465, 38.711309290908325], [29.073034078871608, 38.708780699502654], [29.07016456402736, 38.708831559174506]]], [[[29.073401493171655, 38.71300335031792], [29.07323312094368, 38.715531940457794], [29.07610289808423, 38.71548099810584], [29.076037834764904, 38.71323263654729], [29.073401493171655, 38.71300335031792]]], [[[29.065219101448786, 38.636834505184765], [29.06528364947527, 38.639082911567144], [29.068150389980588, 38.63903224821453], [29.06808575251307, 38.63678384588233], [29.065219101448786, 38.636834505184765]]], [[[29.06415854254077, 38.69992725582659], [29.064287959994036, 38.70442712779294], [29.067157309461397, 38.70437641716348], [29.067027712430615, 38.6998765533061], [29.06415854254077, 38.69992725582659]]], [[[29.05247281112429, 38.693375118500306], [29.052537090630235, 38.69562352112656], [29.054914575490514, 38.69597917340321], [29.055474538079388, 38.6978245421765], [29.058343639654225, 38.69777405501987], [29.058279173430808, 38.69552566142034], [29.055901690084745, 38.69517007762047], [29.05534174036955, 38.69332470984099], [29.05247281112429, 38.693375118500306]]]]}}