{"type": "Feature", "properties": {"fire_id": "IAN_2023_01", "fire_date": "2023-08-23", "province": "Eskişehir", "region": "Ic Anadolu", "modis_area_ha": 336}, "geometry": {"type": "MultiPolygon", "coordinates": [[[[30.663067409576456, 39.2173624943466], [30.662992846337037, 39.21961026588176], [30.665362841249934, 39.22005519032466], [30.665811938395468, 39.22191919334372], [30.66870172163919, 39.221977093594106], [30.668776109096843, 39.21972931382328], [30.666406100017312, 39.2192844585491], [30.665957000355643, 39.21742045708012], [30.663067409576456, 39.2173624943466]]], [[[30.570089073364986, 39.226720835731925], [30.570011519435823, 39.22896845145591], [30.587370834880435, 39.22932950506799], [30.587374950367234, 39.225404231590744], [30.5916468251713, 39.2245693364353], [30.593104742573214, 39.22532534454907], [30.59323958805948, 39.22719863328123], [30.59612943602952, 39.227258340476766], [30.59640387337386, 39.221467623210614], [30.599253448332703, 39.22056574760045], [30.600077849765533, 39.21822900151287], [30.610904155925226, 39.21855305290686], [30.612212560673527, 39.216387280521346], [30.619660798267855, 39.21648005083327], [30.619995683951704, 39.2126980894476], [30.62270614377621, 39.21203754544283], [30.622049687992916, 39.20857824350579], [30.623560142012334, 39.2056061945608], [30.631612949653366, 39.205461958352764], [30.632185627757455, 39.203618611580495], [30.63458151620863, 39.203269931687714], [30.634731389019127, 39.19985756022771], [30.635964380761475, 39.19885301709712], [30.639445143840035, 39.19896831055579], [30.640446750060647, 39.20113656006989], [30.643335629129073, 39.20119506375709], [30.643486006145253, 39.19669646392329], [30.64075538031249, 39.195805361650834], [30.640351616621736, 39.19105208025302], [30.644072581050615, 39.189758947046045], [30.643264315928125, 39.18171862079423], [30.644584652697933, 39.17909393032483], [30.64697965306713, 39.17874496657243], [30.647278915137186, 39.170830809044865], [30.650171473142326, 39.169799870641796], [30.650594408024343, 39.16774827108194], [30.647358795850487, 39.16749380983327], [30.646786851699254, 39.16933726279437], [30.64439217236569, 39.169686232820496], [30.64389242264946, 39.17583110584787], [30.6412748854564, 39.17638029107188], [30.640434143279613, 39.1783863311571], [30.638307692938053, 39.17857253872538], [30.63766003396777, 39.1826667838411], [30.635264862973944, 39.183015550140205], [30.63491512976901, 39.18465865761127], [30.63229720167997, 39.18520762801644], [30.631595527400844, 39.187137422196535], [30.62932935621511, 39.18739962381041], [30.629253797706077, 39.18964735239271], [30.6325098518871, 39.19076508263387], [30.631539987543306, 39.195958456239104], [30.629026653824837, 39.19640295162562], [30.628185299880094, 39.198408878890355], [30.624997594124764, 39.198915234383826], [30.6233730183184, 39.19815821608481], [30.623237385878944, 39.196284930759795], [30.617456132276693, 39.19616678581554], [30.61738017186725, 39.19841449162874], [30.620636418850903, 39.19953255916174], [30.61905083447409, 39.20285207998667], [30.61277773520003, 39.20342956423178], [30.60932646148787, 39.20252794554288], [30.608697998521755, 39.198239622709295], [30.60318288554186, 39.19837654992376], [30.602176003450815, 39.19704172152305], [30.603065699543116, 39.19361909428715], [30.59792775256272, 39.19320490994414], [30.59735745285861, 39.19124909338491], [30.594627673213513, 39.19035693281919], [30.594385166113383, 39.186406951848625], [30.591730450114778, 39.18662813416487], [30.591576827356466, 39.19112657230611], [30.59405636851637, 39.19167346945769], [30.595128894254042, 39.194516124924576], [30.593859646421496, 39.1974383113837], [30.591346063552308, 39.1978819839715], [30.591192354754895, 39.202380412132186], [30.594081181207724, 39.202440138671946], [30.595227874674205, 39.20031589218697], [30.599068035002333, 39.20012018620733], [30.59961174961415, 39.206226303258276], [30.59682441060548, 39.20700461113861], [30.59598200967731, 39.20901026988647], [30.592467615531852, 39.209768704648795], [30.586248444597835, 39.208933775541986], [30.58524843180331, 39.20676511072413], [30.582359446992147, 39.20670515966843], [30.582282339378757, 39.208952803556805], [30.58439409684761, 39.20922594240706], [30.585098276318593, 39.21126359457354], [30.587759985235486, 39.21203468499974], [30.587725573926747, 39.2153261213998], [30.586310883214345, 39.21613007797055], [30.58328266028947, 39.215673985640365], [30.58212378762681, 39.213457319692424], [30.57923453527541, 39.213397282624854], [30.57900264735054, 39.220147378412356], [30.581674785191115, 39.22049807616545], [30.582101253430427, 39.22214904052655], [30.580434501466854, 39.22303324507747], [30.576031550570388, 39.22234002908971], [30.57545723941937, 39.22418304345634], [30.573060404217472, 39.22453047361982], [30.57221709980996, 39.22653592704976], [30.570089073364986, 39.226720835731925]], [[30.604647825310153, 39.21361458604271], [30.599578301114278, 39.213196160597946], [30.599987585096066, 39.207668910526074], [30.602606571173173, 39.20712070241843], [30.603882408574073, 39.20461894933403], [30.610584782866855, 39.20526164650784], [30.61093915114262, 39.20894527667236], [30.60832015176251, 39.20949367204687], [30.6074780405212, 39.21149942243748], [30.605350530048835, 39.21168499335], [30.604647825310153, 39.21361458604271]], [[30.578704840101352, 39.22686338984526], [30.578056359630835, 39.225558040684724], [30.579271061739007, 39.22431880235737], [30.582163885533376, 39.225039480953455], [30.581237043039863, 39.227290856629445], [30.578704840101352, 39.22686338984526]]], [[[30.59493294940653, 39.18471490214608], [30.61916111974038, 39.18494476371759], [30.620652662414663, 39.18721955863933], [30.62354093031138, 39.18727853570915], [30.62411364564969, 39.18543522532608], [30.62650894297692, 39.185086692836514], [30.626584576644202, 39.18283896696241], [30.624216106104495, 39.18239329615207], [30.623768316371077, 39.180529162461035], [30.621657223960337, 39.1802567586226], [30.62095224022143, 39.178219294669134], [30.618472929022758, 39.17767297748502], [30.618136348172598, 39.175909363603594], [30.612999563867454, 39.17549588053581], [30.612428960409872, 39.17354012387494], [30.604989342843705, 39.17332762372926], [30.603830404178684, 39.17111115961221], [30.583593697872157, 39.17069304555256], [30.583516728285858, 39.17294070541218], [30.58900804661323, 39.17332423761733], [30.589069197482488, 39.17981287447048], [30.59118012040997, 39.180085865008735], [30.591884250482682, 39.182123482468526], [30.594252473896656, 39.182569804527105], [30.59493294940653, 39.18471490214608]]], [[[30.65279381567843, 39.167411212283554], [30.661812520158367, 39.167781763663015], [30.661886983601004, 39.16553397398322], [30.653216656967583, 39.16535959966728], [30.65279381567843, 39.167411212283554]]], [[[30.646247263260552, 39.190184324969216], [30.64645792938171, 39.19450108462901], [30.655131794350417, 39.194676069952685], [30.655356218455207, 39.187926551520164], [30.652467857703392, 39.18786836229409], [30.65116124131956, 39.190034650791965], [30.646247263260552, 39.190184324969216]]], [[[30.631011490623663, 39.2234717579628], [30.630935888740343, 39.225719475334614], [30.63569660122061, 39.22558745786735], [30.63664808417603, 39.22808793667496], [30.64822001400122, 39.22832227436114], [30.648295071568462, 39.22607452997893], [30.643432493331368, 39.225815077686306], [30.642582615452962, 39.22370663264706], [30.631011490623663, 39.2234717579628]]], [[[30.639136017349852, 39.153813106932645], [30.639060861102713, 39.156060864432376], [30.64194789314159, 39.15611934647815], [30.64202295769302, 39.15387158432297], [30.639136017349852, 39.153813106932645]]], [[[30.6241512863747, 39.16927509375475], [30.623999824099187, 39.17377365192166], [30.62636800632196, 39.174219318788936], [30.626815833690713, 39.176083445210985], [30.62970365883245, 39.17614225560004], [30.629779166719835, 39.1738945210643], [30.626996434416775, 39.172877173089255], [30.627038827479527, 39.16933396166389], [30.6241512863747, 39.16927509375475]]], [[[30.61646661806746, 39.2254272465015], [30.61639054698531, 39.22767493938071], [30.61928046340872, 39.227734072825946], [30.619356442473915, 39.22548637524201], [30.61646661806746, 39.2254272465015]]], [[[30.573729351127454, 39.12093584650408], [30.57365220426054, 39.123183509190454], [30.57819679540637, 39.12333781407096], [30.579354209535996, 39.12555450012105], [30.582239870092103, 39.12561442230152], [30.582316750723578, 39.123366746270456], [30.579950581643732, 39.1229202419536], [30.57950426578006, 39.121055969008346], [30.573729351127454, 39.12093584650408]]], [[[30.573603081847605, 39.2087753618981], [30.573525689426823, 39.21102299042108], [30.576414832278225, 39.211083166043416], [30.57649213276983, 39.20883553273239], [30.573603081847605, 39.2087753618981]]], [[[30.560150692840526, 39.17921370570717], [30.560072953405488, 39.1814613231803], [30.56296085695719, 39.18152179447591], [30.563038504601828, 39.179274172190176], [30.560150692840526, 39.17921370570717]]], [[[30.5456135127553, 39.18116057858767], [30.545535304993834, 39.18340817087708], [30.5476461249856, 39.183681948829154], [30.548349013575066, 39.18571978978585], [30.55100932631445, 39.18649168053826], [30.551084748348565, 39.19028204935565], [30.553972993512577, 39.1903427547803], [30.55417253920379, 39.18680291835096], [30.557021176113004, 39.18590204471693], [30.557099025022918, 39.18365443407706], [30.552654394597234, 39.18387178426158], [30.551393230707433, 39.1812822495057], [30.5456135127553, 39.18116057858767]]]]}}