{"type": "Feature", "properties": {"fire_id": "KAR_2024_01", "fire_date": "2024-08-16", "province": "Bolu", "region": "Karadeniz", "modis_area_ha": 3045}, "geometry": {"type": "MultiPolygon", "coordinates": [[[[31.01754597398193, 40.293778265546315], [31.017480255891122, 40.29602614492946], [31.020161036295065, 40.29634808962601], [31.020481584755707, 40.293828547755616], [31.01754597398193, 40.293778265546315]]], [[[31.020609144075134, 40.2980589343794], [31.020288573933584, 40.30057847450144], [31.02322448388647, 40.30062869408979], [31.023290022292667, 40.298380808692464], [31.020609144075134, 40.2980589343794]]], [[[31.01490782446622, 40.38381688860859], [31.014775695640587, 40.38831567406901], [31.017715402083194, 40.38836612360598], [31.017847335565932, 40.38386733017234], [31.01490782446622, 40.38381688860859]]], [[[31.008091794706466, 40.41522868141922], [31.008025479533178, 40.41747650057384], [31.010439224198965, 40.41791539980847], [31.01090418895688, 40.41977814881547], [31.013531774814744, 40.42042542648045], [31.0137830944564, 40.42207972913534], [31.016724268385932, 40.422130238546075], [31.016790304928584, 40.41988240933562], [31.01437644373931, 40.419443640270394], [31.013911384511903, 40.4175809029128], [31.011283904289634, 40.41693363612796], [31.011032660150885, 40.41527932856151], [31.008091794706466, 40.41522868141922]]], [[[31.010705103870034, 40.42653402954501], [31.01063884922967, 40.428781847863874], [31.013580309491825, 40.42883244414498], [31.013646466325536, 40.426584621831516], [31.010705103870034, 40.42653402954501]]], [[[31.009219564947987, 40.37696282264708], [31.00915337678401, 40.37921065825932], [31.012092677421112, 40.379261241356325], [31.012158768021397, 40.37701340174935], [31.009219564947987, 40.37696282264708]]], [[[31.007536059616985, 40.334144119069876], [31.007469915592093, 40.336391969066625], [31.013348858228635, 40.336493127804935], [31.013414807409543, 40.334245269817266], [31.007536059616985, 40.334144119069876]]], [[[31.001935505289822, 40.42413068105101], [31.00186896433544, 40.42637848830295], [31.004810304205396, 40.4264293052284], [31.004876747366993, 40.424181493964404], [31.001935505289822, 40.42413068105101]]], [[[31.005257587302566, 40.31158383326482], [31.005191420413304, 40.31383168893294], [31.008127877372786, 40.3138823053012], [31.00819394701823, 40.31163444563417], [31.005257587302566, 40.31158383326482]]], [[[30.998711907751513, 40.333991727820774], [30.998645471266016, 40.336239565778655], [31.001582887663883, 40.33629037149339], [31.001649226797937, 40.334042529522186], [30.998711907751513, 40.333991727820774]]], [[[30.981991357368248, 40.401263507914976], [30.98192420672, 40.403511296584746], [30.98676702067537, 40.40336698481681], [30.987745899099256, 40.40586486504761], [30.99068632042034, 40.4059160199544], [30.99126093410718, 40.40407126169947], [30.993697670277363, 40.403716261792916], [30.99376442981094, 40.40146845693886], [30.991351391388356, 40.40102922490811], [30.99088707716822, 40.39916640757966], [30.98794694915085, 40.39911526480085], [30.98666066930818, 40.401620556400204], [30.981991357368248, 40.401263507914976]]], [[[30.98855026593893, 40.2797649583363], [30.988483620034607, 40.28201280342198], [30.99141866986343, 40.28206381075967], [30.991485218682683, 40.279815961643465], [30.98855026593893, 40.2797649583363]]], [[[30.875392837641172, 40.32503531603806], [30.875251719944753, 40.32953375339699], [30.87753584985061, 40.32988397530439], [30.878122152389484, 40.3318385334128], [30.880993213601844, 40.33298036642919], [30.88081202149958, 40.33555941086023], [30.87798098741028, 40.336343182987996], [30.877910538955376, 40.33859084913578], [30.88274873287233, 40.338450782817674], [30.88372289370676, 40.34094944987917], [30.886556364737775, 40.34196182801721], [30.886767937060174, 40.3448232094858], [30.88358205585669, 40.345454108671625], [30.883441380437187, 40.34995255397139], [30.885589578668515, 40.350221139874634], [30.886312936661422, 40.35225715211184], [30.888836740172945, 40.35279884163256], [30.88911446959738, 40.35681246312791], [30.8915251861581, 40.35725377677924], [30.891986506340174, 40.35911693002924], [30.902660576749376, 40.35941548196829], [30.903685892611414, 40.36158173249783], [30.9063101086898, 40.36223137232886], [30.906558637040856, 40.36388585308758], [30.909083051695017, 40.36442711444759], [30.909431576947036, 40.366189906321836], [30.911956102520758, 40.36673110745619], [30.912304712353947, 40.368493892183096], [30.914829348853786, 40.369035033080166], [30.915178043285582, 40.37079781065387], [30.926155590394295, 40.37122454459233], [30.926880378336847, 40.37326033209375], [30.92950528825727, 40.37390946082486], [30.92975441714678, 40.375563903764764], [30.935322536404293, 40.376265573558726], [30.93632566688172, 40.37899710823328], [30.935434340988955, 40.38242168125805], [30.94578348815749, 40.38263357586128], [30.947139495598094, 40.384882214608204], [30.954545584380313, 40.385041022031984], [30.955901932680117, 40.38728956541446], [30.958841488124918, 40.387341510487644], [30.959416785746367, 40.38549692237215], [30.961852987270614, 40.385142580662524], [30.962700868281043, 40.383134736445264], [30.964864290704025, 40.38294356678581], [30.965349082012583, 40.3767979719044], [30.96941880366978, 40.37566577720338], [30.973739604234492, 40.377178960845384], [30.973698703464194, 40.38309876555016], [30.982525064103193, 40.383253148174376], [30.982592146771385, 40.38100535077631], [30.978071083029626, 40.381527784402984], [30.976376115792153, 40.38045993178896], [30.976978813620427, 40.37894817541682], [30.979719095969582, 40.37866837494777], [30.97978328685931, 40.3764521456048], [30.97650761228324, 40.375468539332296], [30.976974795469587, 40.37189887796764], [30.974035878014526, 40.37184741002582], [30.973330040656606, 40.37377884182967], [30.969617320598438, 40.37462363185328], [30.963215842159844, 40.374471290361406], [30.959317931922826, 40.372751426966666], [30.95966651021699, 40.36994159569163], [30.962327901768596, 40.36938645060268], [30.962652481570135, 40.36560384672232], [30.96540617593589, 40.36493651652161], [30.96574743811603, 40.36073447355092], [30.970335544430345, 40.36062341851769], [30.97136306996647, 40.36278912170674], [30.977244175000543, 40.362892170852696], [30.97771504174455, 40.347138934619814], [30.97530404544756, 40.34669941314652], [30.974840487015435, 40.34483653465346], [30.970001864925063, 40.34498044934369], [30.969024436123018, 40.342482431461804], [30.96095299405014, 40.34244174499974], [30.9602672276893, 40.34007618880343], [30.95748724027518, 40.33919141026228], [30.957461477289065, 40.335522489152495], [30.94330351545977, 40.33568051302675], [30.942435135157908, 40.33392719762256], [30.945509095775336, 40.333331559422724], [30.945832644712134, 40.330812312380466], [30.9434224605152, 40.33037214417172], [30.942959877791814, 40.3285091572907], [30.93833404484863, 40.328367033470165], [30.93714638207888, 40.32615350587626], [30.934209522643343, 40.326101074732144], [30.93414096489685, 40.328348825706094], [30.936551009081644, 40.32878918430332], [30.937724476721666, 40.33146597565018], [30.936494451615687, 40.33498582437145], [30.9265302862052, 40.33494442714205], [30.92517590453155, 40.33269557030708], [30.91929761360823, 40.332589938611434], [30.918949241261945, 40.342754861984815], [30.916010066937844, 40.34379110395804], [30.91568304091292, 40.34757352777381], [30.908465528883188, 40.34813149176911], [30.906742959549828, 40.34467193373912], [30.91012282761886, 40.343681730933774], [30.910450135623307, 40.339899327797234], [30.913203234931384, 40.33923322528772], [30.91334188063384, 40.33473468568819], [30.910931798135543, 40.334293842079546], [30.910470092893632, 40.33243074811009], [30.90784697611193, 40.33178122765217], [30.907598500324404, 40.33012674323974], [30.902247613342062, 40.329632464709924], [30.90185590060311, 40.32551853169213], [30.895978319835006, 40.325411730598766], [30.895908495564388, 40.32765942711499], [30.898741614059904, 40.32867149923837], [30.89863419126301, 40.33183442981235], [30.891580526879157, 40.33243180496842], [30.889976565816028, 40.33143633006096], [30.89002254134478, 40.327555275914605], [30.887612885306158, 40.32711395590289], [30.887151866215316, 40.325250784150896], [30.884529271265343, 40.324600746515834], [30.884281386175005, 40.32294622520794], [30.881344764905283, 40.322892455479845], [30.880021939134753, 40.32506054348983], [30.875392837641172, 40.32503531603806]], [[30.96870993182333, 40.348733470639694], [30.963169853106283, 40.3484198632455], [30.963184691866967, 40.345464383420094], [30.968305328138136, 40.34481899805579], [30.969361316995034, 40.34591649762284], [30.96870993182333, 40.348733470639694]], [[30.88971276918816, 40.3375613493103], [30.891631357460238, 40.33624782484917], [30.893435715724948, 40.33781917030609], [30.89137025062967, 40.33918417871492], [30.88971276918816, 40.3375613493103]]], [[[30.973383622049692, 40.295230216884555], [30.985139298287585, 40.295467236430994], [30.985206086687423, 40.2932194012087], [30.980266083848058, 40.29297212782195], [30.979394009948034, 40.290865898833154], [30.973519145078587, 40.29076311021168], [30.973383622049692, 40.295230216884555]]], [[[30.978861310617816, 40.30887340723123], [30.97879427492365, 40.31112122756432], [30.981730566996106, 40.311172511121455], [30.98179750546593, 40.30892468673674], [30.978861310617816, 40.30887340723123]]], [[[30.972820824134065, 40.41236335391684], [30.972753342018255, 40.41461112552514], [30.97516672515363, 40.41505075381107], [30.975630694115512, 40.416913621639104], [30.978571574427747, 40.416965096186146], [30.978706248014202, 40.41246643272752], [30.972820824134065, 40.41236335391684]]], [[[30.967066888395976, 40.407758164671506], [30.966999225819915, 40.41000593005523], [30.969939789712615, 40.410057616893944], [30.970007354584453, 40.40780984742918], [30.967066888395976, 40.407758164671506]]], [[[30.96970342403436, 40.31997346411687], [30.969636058317185, 40.32222126738826], [30.97257281463262, 40.32227279504493], [30.972640083073596, 40.32002498770294], [30.96970342403436, 40.31997346411687]]], [[[30.960906001455285, 40.416657874229024], [30.960838112585403, 40.41890562753147], [30.96377905266402, 40.418957480430855], [30.963846843787593, 40.41670972303447], [30.960906001455285, 40.416657874229024]]], [[[30.961693744594566, 40.292807404421374], [30.961558510638007, 40.29730611375037], [30.9644941732585, 40.29735782019306], [30.964629212785862, 40.29285910268804], [30.961693744594566, 40.292807404421374]]], [[[30.95254905496322, 40.400745715160134], [30.952276211667538, 40.40974601511314], [30.95521673729455, 40.409798076107435], [30.954983230102158, 40.40408910578628], [30.958365459693546, 40.403097557267024], [30.958433392929653, 40.40084980126631], [30.95254905496322, 40.400745715160134]]], [[[30.952263376841692, 40.312909670505704], [30.95219544965323, 40.31515745211361], [30.958072257892738, 40.315262353768986], [30.95814008287481, 40.31301358529355], [30.952263376841692, 40.312909670505704]]], [[[30.95826373343061, 40.31724393300832], [30.95794073155293, 40.31976323336165], [30.96087736002205, 40.31981505532324], [30.960945010474124, 40.31756726334979], [30.95826373343061, 40.31724393300832]]], [[[30.94919482673485, 40.414198600519924], [30.949126554049535, 40.41644633833858], [30.955012247001473, 40.41655063185738], [30.955080324088, 40.414302885804396], [30.94919482673485, 40.414198600519924]]], [[[30.948989702607474, 40.42095112568038], [30.94892140681883, 40.423198860577976], [30.951862511991116, 40.42325102114027], [30.95193071001533, 40.421003282124595], [30.948989702607474, 40.42095112568038]]], [[[30.943990502988893, 40.39158554573507], [30.943922111741546, 40.39383328503075], [30.946334545068773, 40.39427349416814], [30.946797595029107, 40.396136461049934], [30.949737518443726, 40.39618864693819], [30.94948573657781, 40.39260636357476], [30.952817902616353, 40.39173911791111], [30.952885993054263, 40.38949136526951], [30.949946355082265, 40.3894392665297], [30.94865888281393, 40.39194410903857], [30.943990502988893, 40.39158554573507]]], [[[30.9348270466444, 40.305843328013346], [30.934758558405303, 40.30809108775511], [30.937694638646526, 40.308143485720954], [30.937763029686693, 40.30589572183956], [30.9348270466444, 40.305843328013346]]], [[[30.91711780996964, 40.30777780296717], [30.917048729967114, 40.310025536737434], [30.91998486106745, 40.3100783862347], [30.920053843865993, 40.30783064828925], [30.91711780996964, 40.30777780296717]]], [[[30.890517242999213, 40.31179977936611], [30.890447271227035, 40.31404747328597], [30.892856487097646, 40.31448872381616], [30.89331760368567, 40.316351878179795], [30.896620214317263, 40.31622287713086], [30.896323749316778, 40.314157635445575], [30.893914519414622, 40.31371645688091], [30.893453401107227, 40.31185330414316], [30.890517242999213, 40.31179977936611]]], [[[30.89883210382723, 40.316644441267755], [30.899128653200044, 40.31870967789993], [30.902065126859842, 40.31876299163027], [30.90213472504155, 40.31651528276778], [30.89883210382723, 40.316644441267755]]], [[[30.88434120450177, 40.41528163793816], [30.88427077106277, 40.41752928257658], [30.890156315969882, 40.41763687987131], [30.890226553831674, 40.415389226738114], [30.88434120450177, 40.41528163793816]]], [[[30.88190768371187, 40.30488617156923], [30.881837443643754, 40.30713385568735], [30.884773383264758, 40.307187595642], [30.884843526151727, 40.304939907278346], [30.88190768371187, 40.30488617156923]]], [[[30.876168951998615, 40.30027676414191], [30.876098533176023, 40.30252444169872], [30.879034262337733, 40.3025783222255], [30.879104584003038, 40.30033064041196], [30.876168951998615, 40.30027676414191]]], [[[30.86915726961994, 40.336180901896846], [30.869086528767642, 40.338428555225676], [30.872023800167316, 40.33848265325322], [30.872094443689267, 40.33623499565141], [30.86915726961994, 40.336180901896846]]], [[[30.855021556262933, 40.317903010879874], [30.854950392297496, 40.320150650580516], [30.857886844345746, 40.32020508729089], [30.857957911073473, 40.317957443290084], [30.855021556262933, 40.317903010879874]]], [[[30.84655802477319, 40.30648536807023], [30.846486608951277, 40.30873299972975], [30.849422550168615, 40.308787638560545], [30.84949386881054, 40.30654000258462], [30.84655802477319, 40.30648536807023]]], [[[30.836865573820006, 40.42562819513365], [30.842752663879754, 40.425769859903795], [30.842824499722923, 40.4235222793726], [30.840411799322727, 40.423079901573956], [30.83995155149665, 40.421216587108304], [30.83701074665526, 40.42116158210557], [30.836865573820006, 40.42562819513365]]]]}}