{"type": "Feature", "properties": {"fire_id": "MAR_2023_01", "fire_date": "2023-08-22", "province": "Çanakkale", "region": "Marmara", "modis_area_ha": 6017}, "geometry": {"type": "MultiPolygon", "coordinates": [[[[26.591737079173903, 40.19517651113852], [26.5917235898238, 40.19742572108058], [26.594577143094334, 40.1983964256804], [26.594633948824125, 40.20194067540258], [26.600504660502203, 40.20196108435258], [26.60053107994188, 40.197459555339194], [26.59811443285075, 40.19705381608081], [26.5976072054168, 40.19519706416586], [26.591737079173903, 40.19517651113852]]], [[[26.574283551116075, 40.16808521073437], [26.57425542500979, 40.172586747773664], [26.577187482445183, 40.1725974923464], [26.577496634549952, 40.17094841413175], [26.58013747119075, 40.17035585412286], [26.581083544522023, 40.16826803458336], [26.58447755619073, 40.16751738858935], [26.59483094780438, 40.16815582996143], [26.59484432064678, 40.1659066077447], [26.577233438103033, 40.165843644239175], [26.57670396256854, 40.16769670822244], [26.574283551116075, 40.16808521073437]]], [[[26.573985897668297, 40.21534906060663], [26.57640487484222, 40.21578693345235], [26.576911671572745, 40.21764376949667], [26.582783656387242, 40.21766606417528], [26.582797519807222, 40.21541588449991], [26.580380344792918, 40.215009773586935], [26.579873472251666, 40.21315295150158], [26.574001810258995, 40.213131491334984], [26.573985897668297, 40.21534906060663]]], [[[26.583022372979816, 40.219645354328875], [26.58274632822371, 40.224422012581826], [26.58516385182159, 40.224828075181584], [26.585670953269428, 40.22668487151794], [26.588605346212084, 40.22669533856584], [26.588632576356716, 40.22219383547799], [26.58621512493324, 40.221787845509496], [26.585708043978105, 40.219931050094296], [26.583022372979816, 40.219645354328875]]], [[[26.582898223442513, 40.19964972946626], [26.582884439875134, 40.20189893515985], [26.585817762905776, 40.20190946751997], [26.585831449548387, 40.19966026099322], [26.582898223442513, 40.19964972946626]]], [[[26.58005820188298, 40.18387290189776], [26.580044332202462, 40.186122112923854], [26.582976974500106, 40.18613271383189], [26.58350642728641, 40.18427962692481], [26.585927364050214, 40.183890935331284], [26.585941038359472, 40.18164172175095], [26.58300858832927, 40.181631196896454], [26.582479143226895, 40.18348428241063], [26.58005820188298, 40.18387290189776]]], [[[26.521706031692002, 40.1295895049685], [26.521690265106894, 40.131838719148256], [26.527153834641, 40.13235680200982], [26.527527736700605, 40.13636745270184], [26.52994180176165, 40.136774655124995], [26.530446763117517, 40.1386317094718], [26.533129012899153, 40.13891860979126], [26.53403639837343, 40.13670213879739], [26.537898024692975, 40.13609861970614], [26.539250652608608, 40.13866707253556], [26.54188247279133, 40.139279683415005], [26.542170168658792, 40.14093103563734], [26.549554845174985, 40.140987516943035], [26.55095954112675, 40.14321783505426], [26.556613075478687, 40.14353576674182], [26.556799936689092, 40.147745100193106], [26.559214584258605, 40.148151694709874], [26.55972042526052, 40.15000862253451], [26.5618693814933, 40.15024608368198], [26.562641107721788, 40.15227207136703], [26.565171390686405, 40.152777245412786], [26.565561984095158, 40.15453544667303], [26.568493261729348, 40.15454640734909], [26.569051326227758, 40.14818872093521], [26.574406098214418, 40.147811147415325], [26.574476344268998, 40.136552589277336], [26.56888842513452, 40.13678224241739], [26.56782997592118, 40.13546418410568], [26.56863571913756, 40.13202620576378], [26.566349037188758, 40.131709351017015], [26.56571569715763, 40.12976290375102], [26.563567371469937, 40.129525516504785], [26.56279586887192, 40.12749952825785], [26.560266539784774, 40.12699430521208], [26.559890758787713, 40.122983743570416], [26.554956445211644, 40.122803758121925], [26.554037545957886, 40.12070896107196], [26.540457633922536, 40.120551448199976], [26.539398631808556, 40.11614688258791], [26.534782975904463, 40.1160686885703], [26.53354669579592, 40.11387106891184], [26.53061717931808, 40.113859233492825], [26.53008685625305, 40.11571209610035], [26.527668035567352, 40.116099636668295], [26.527592968864802, 40.121767167710054], [26.524687331131304, 40.1228446148194], [26.524671666556635, 40.12509383260305], [26.530535707932106, 40.12511775200661], [26.530845760871582, 40.1234687899614], [26.533485150788074, 40.12287728098078], [26.534283339282126, 40.120857414273054], [26.538586394116717, 40.120874637846505], [26.539211494945803, 40.12431988694263], [26.536407829798836, 40.125144513836055], [26.536665462675067, 40.13109737931075], [26.52914497373745, 40.131864314801206], [26.527570456879307, 40.12961357674346], [26.521706031692002, 40.1295895049685]]], [[[26.53361429859715, 40.14062394483872], [26.533350573669928, 40.14314821335351], [26.536281348921456, 40.14315998669823], [26.53629664066931, 40.140910772209715], [26.53361429859715, 40.14062394483872]]], [[[26.559514838645637, 40.18150946510136], [26.56832207724124, 40.18157426101086], [26.568336331768364, 40.179325051640156], [26.565920525019088, 40.178918643405225], [26.565414307318147, 40.17706174990808], [26.562482062286197, 40.17705070618024], [26.561952096294323, 40.178903696525744], [26.55953120475089, 40.179291887319195], [26.559514838645637, 40.18150946510136]]], [[[26.556286556669985, 40.2265790610852], [26.556271879747005, 40.228828248416285], [26.565083414223537, 40.22886169428031], [26.565097799715414, 40.22661250430398], [26.562680336348087, 40.22620602300777], [26.561928893011025, 40.22407215059332], [26.559239585393556, 40.22433799251377], [26.558709151197423, 40.226190950431345], [26.556286556669985, 40.2265790610852]]], [[[26.562437407514665, 40.222370717838615], [26.565126625438705, 40.22210480104973], [26.56489603596206, 40.219578635991525], [26.562206917154654, 40.21984454806402], [26.562437407514665, 40.222370717838615]]], [[[26.565404441753273, 40.21787718831103], [26.568093470877542, 40.217611201387356], [26.56810775113059, 40.21536200612971], [26.565173854876463, 40.21535102198195], [26.565404441753273, 40.21787718831103]]], [[[26.550840834827067, 40.16123951808683], [26.550811167126007, 40.165741046369725], [26.553226414361124, 40.166147767781936], [26.553732221038626, 40.16800471583434], [26.562535882620697, 40.168038313460364], [26.562550321300893, 40.165789100541595], [26.559261204358044, 40.164850189678056], [26.559643619120255, 40.1612733308997], [26.550840834827067, 40.16123951808683]]], [[[26.55361414426233, 40.18602632830915], [26.55359940009213, 40.18827553062949], [26.556532124920093, 40.18828680190721], [26.556546772233055, 40.186037598695194], [26.55361414426233, 40.18602632830915]]], [[[26.551283561121167, 40.09363482970188], [26.553698080459082, 40.09407316194663], [26.55420338407842, 40.0959301282164], [26.557132141220936, 40.0959413629327], [26.557161319346218, 40.09143977635177], [26.55474868662227, 40.09103314599332], [26.55424340314563, 40.089176180648984], [26.551314937122044, 40.08916487447017], [26.551283561121167, 40.09363482970188]]], [[[26.53611682214608, 40.16793858697138], [26.536101509843636, 40.17018779087139], [26.539033448926048, 40.17019950107242], [26.539048664459802, 40.16795029624591], [26.53611682214608, 40.16793858697138]]], [[[26.530276092807252, 40.16341029235126], [26.530260590194583, 40.165659496143384], [26.5331923320223, 40.16567135315264], [26.533207737888507, 40.16342214842237], [26.530276092807252, 40.16341029235126]]], [[[26.419372958456986, 40.086326264061434], [26.419353847908155, 40.08857545788348], [26.42220036635208, 40.089550381155156], [26.422248186208503, 40.09309472115438], [26.42466007120327, 40.093504106293054], [26.42516185693181, 40.09536161179273], [26.428090531055837, 40.095376108995005], [26.429527476205482, 40.093158321216194], [26.43376295778131, 40.09386751003257], [26.43373746327847, 40.09694342675844], [26.431008513526606, 40.09764598056993], [26.430971015351222, 40.102147474586225], [26.435747799812543, 40.102275268737976], [26.43681847349387, 40.10442844591855], [26.442036742902438, 40.10476201653674], [26.442666324779697, 40.106709123804045], [26.447599126505658, 40.10689388423117], [26.4485145691898, 40.10898950817124], [26.453291873184025, 40.10911658206422], [26.454363206705246, 40.11126959894872], [26.458978410950504, 40.11135099528398], [26.460212237307076, 40.113549396065025], [26.465293210012277, 40.113802276225705], [26.466061660976283, 40.11582889944871], [26.473928824759053, 40.116026030269666], [26.474845197275968, 40.11812144880852], [26.477475633345428, 40.118735516942294], [26.477761687440694, 40.12038702473252], [26.48069146070936, 40.12040019879556], [26.482127240216357, 40.118181760388644], [26.493962226651025, 40.11823407592664], [26.495364637771683, 40.12046506327465], [26.509100130089287, 40.120685227013624], [26.510042657055337, 40.125034420074265], [26.518799537643996, 40.12506958266455], [26.51903612967103, 40.121281712952936], [26.521765142105664, 40.120577088113876], [26.52178089994648, 40.11832786952231], [26.518890673637546, 40.11722656301751], [26.51892650551302, 40.1070540825725], [26.51651355764624, 40.10664665501249], [26.516009203884302, 40.104789533281895], [26.513861845097146, 40.10455122858171], [26.51309209570267, 40.10252491077579], [26.510564068519166, 40.10201860767934], [26.510175180945886, 40.100260215071835], [26.505560643818967, 40.10018086286296], [26.50432558966097, 40.097982932628916], [26.49824286912606, 40.09726746609213], [26.498509455722417, 40.09120070062946], [26.495981958076822, 40.09069408150157], [26.49561013227481, 40.086683310186], [26.49281990672944, 40.08583530666936], [26.492744618888555, 40.07766118383964], [26.490027714232074, 40.076933324509255], [26.489846242799477, 40.0731436445058], [26.48230177794865, 40.07305042916581], [26.481067955336133, 40.07085224846282], [26.47059207552801, 40.07074510288526], [26.469358671505955, 40.068546799300464], [26.466730237034284, 40.06793255455228], [26.466444655453227, 40.06628100774122], [26.46151472320986, 40.066097067599586], [26.460599440364216, 40.06400153207053], [26.455384179898836, 40.06366881553862], [26.45475461736836, 40.06172176317906], [26.445964798309706, 40.061680062248435], [26.445016116875994, 40.06376679912339], [26.44008379586631, 40.06390419660631], [26.440028495892093, 40.07065803977159], [26.442439701634306, 40.07106705158253], [26.442941813853707, 40.07292448942537], [26.445570219839883, 40.07353927323465], [26.445855324945477, 40.0751908662404], [26.45119860982367, 40.0756136843221], [26.451715387806942, 40.07925009634798], [26.445818783803418, 40.07969860303422], [26.445018480532468, 40.08171786031745], [26.44152111277466, 40.08192230314063], [26.440017822263716, 40.08096241558958], [26.439969081913024, 40.07741806923285], [26.431177267238425, 40.077375232659136], [26.4315837811345, 40.08070269307267], [26.430330105485996, 40.08181850730201], [26.426522568704286, 40.08179733756149], [26.425290392013828, 40.07959857741574], [26.42236239539347, 40.07958401415104], [26.42234338776789, 40.081833211787966], [26.425132556159348, 40.082682906319604], [26.425167916984886, 40.08539447583322], [26.423819670637492, 40.086320946588685], [26.419372958456986, 40.086326264061434]], [[26.48499597746971, 40.10459604284637], [26.48412811470612, 40.1003642122238], [26.488397100993634, 40.10022270983347], [26.48954420313829, 40.10371523368612], [26.48499597746971, 40.10459604284637]], [[26.469213016150793, 40.087568954978295], [26.47075675381356, 40.0862357820294], [26.474784420702786, 40.08718982392702], [26.474253380300656, 40.09311623393332], [26.469469542549408, 40.092721561032704], [26.469213016150793, 40.087568954978295]], [[26.46337876196224, 40.07531019376031], [26.46599164794474, 40.07544983810576], [26.465740292330096, 40.077561809655336], [26.46298824439343, 40.07720436321121], [26.46337876196224, 40.07531019376031]], [[26.44596231902097, 40.09831753827373], [26.453603779579517, 40.09722851358265], [26.4547575060742, 40.09920727086734], [26.451768731511894, 40.099722438549215], [26.450414585045454, 40.102140045996116], [26.446418029940947, 40.10199612774035], [26.44596231902097, 40.09831753827373]]], [[[26.51851741966839, 40.16561436535183], [26.518501527747087, 40.167863564444424], [26.521433359412125, 40.16787571974265], [26.52144915457696, 40.16562651968832], [26.51851741966839, 40.16561436535183]]], [[[26.51606112601282, 40.09803255822675], [26.516045191144684, 40.100281782834315], [26.51897411906498, 40.10029398342871], [26.518989957503283, 40.098044757855426], [26.51606112601282, 40.09803255822675]]], [[[26.512694168704613, 40.158832882472595], [26.512678088439987, 40.16108208227049], [26.51560962587645, 40.16109438331835], [26.515625609417757, 40.15884518254715], [26.512694168704613, 40.158832882472595]]], [[[26.50946681061401, 40.19936185855307], [26.509450600647696, 40.201611041473214], [26.512383881560055, 40.20162343450068], [26.51239999460692, 40.1993742506002], [26.50946681061401, 40.19936185855307]]], [[[26.50644791060475, 40.2106108100917], [26.506431594393764, 40.21285998760737], [26.509365358908752, 40.212872459998714], [26.509381578145895, 40.21062328149651], [26.50644791060475, 40.2106108100917]]], [[[26.506774299244928, 40.16556493671741], [26.506758019765417, 40.16781413189891], [26.509689844202104, 40.16782658454448], [26.509706026926057, 40.16557738837772], [26.506774299244928, 40.16556493671741]]], [[[26.489007648504444, 40.18575919309177], [26.488990770587133, 40.188008374277366], [26.491406423641703, 40.18841638634796], [26.491910701352122, 40.19027358811537], [26.494544073797197, 40.19088727911809], [26.49483082639029, 40.19253872861326], [26.497763709915667, 40.1925514897202], [26.49786775016154, 40.18900789253748], [26.50073367795209, 40.18805961242375], [26.500750168057383, 40.18581042718473], [26.498334549273768, 40.18540261012416], [26.497830130763877, 40.18354543392689], [26.495197011141137, 40.18293181845521], [26.494910287678874, 40.18128036732253], [26.491977890832032, 40.181267536896705], [26.491739552980633, 40.18505530158406], [26.489007648504444, 40.18575919309177]]], [[[26.494981132391946, 40.17227120867728], [26.49496445972311, 40.174520397203096], [26.49789656748709, 40.17453315022473], [26.49791314336859, 40.17228396068995], [26.494981132391946, 40.17227120867728]]], [[[26.471335392429463, 40.1924369238941], [26.471317926697143, 40.19468609616839], [26.47461231678097, 40.19451194841982], [26.47426826073734, 40.19245028020456], [26.471335392429463, 40.1924369238941]]], [[[26.476830519030912, 40.19490339325567], [26.477174664350265, 40.19696505355495], [26.480107730474483, 40.19697826315702], [26.480124907223196, 40.19472908861147], [26.476830519030912, 40.19490339325567]]], [[[26.474324478376598, 40.18569345271552], [26.474307115532454, 40.1879426287], [26.477239791661155, 40.18795590850503], [26.477257057654203, 40.18570673147], [26.474324478376598, 40.18569345271552]]], [[[26.468574235972863, 40.16990064531943], [26.46855669300242, 40.17214982537099], [26.470971657668223, 40.17255826054621], [26.471475264481434, 40.17441555209553], [26.474407356909595, 40.17442889994214], [26.474442081407126, 40.16992742961272], [26.468574235972863, 40.16990064531943]]], [[[26.453695843953042, 40.1946073837484], [26.453677794087525, 40.19685654866572], [26.456610844331713, 40.196870353557195], [26.45662879730423, 40.194621187547824], [26.453695843953042, 40.1946073837484]]], [[[26.444921568346288, 40.190060928710295], [26.444903231535015, 40.19231009208115], [26.447836081602603, 40.19232411798131], [26.448212727983467, 40.1902658083367], [26.444921568346288, 40.190060928710295]]], [[[26.450436791258156, 40.18989498870087], [26.4537279612493, 40.190099711593156], [26.453746005147558, 40.18785054402374], [26.4508133448445, 40.187836669117566], [26.450436791258156, 40.18989498870087]]], [[[26.43925194859075, 40.1652576108099], [26.439233440726177, 40.167506781674014], [26.44216522021037, 40.16752094402303], [26.442183631325058, 40.1652717720384], [26.43925194859075, 40.1652576108099]]], [[[26.430294108791735, 40.18323279171261], [26.430275293325177, 40.185481952094996], [26.433207841975197, 40.18549634656348], [26.43322656060542, 40.18324718504236], [26.430294108791735, 40.18323279171261]]], [[[26.43125221400519, 40.06836598833645], [26.431233506321245, 40.0706151938417], [26.434161123397264, 40.07062953024847], [26.434179734799525, 40.06838032360825], [26.43125221400519, 40.06836598833645]]], [[[26.418625017909445, 40.174165335050674], [26.418605823218574, 40.17641449435427], [26.423225377597223, 40.17649734539214], [26.424459201297395, 40.17869610261565], [26.427391454819933, 40.1787106423875], [26.427410360997897, 40.17646148049752], [26.4249955300774, 40.17605213779915], [26.4244931812133, 40.17419465327531], [26.418625017909445, 40.174165335050674]]], [[[26.418509658175186, 40.187678918614324], [26.418490450502585, 40.189928072605724], [26.421423184576522, 40.189942766920495], [26.421442295392037, 40.18769361176667], [26.418509658175186, 40.187678918614324]]], [[[26.41952597648582, 40.068307826485594], [26.419506883145825, 40.07055702738599], [26.422434491729753, 40.07057166011105], [26.42245348878913, 40.06832245805223], [26.41952597648582, 40.068307826485594]]], [[[26.398925948611165, 40.077212380179574], [26.398906171477286, 40.07946156925416], [26.40476617633311, 40.07949182819936], [26.404785760689528, 40.077242636729416], [26.398925948611165, 40.077212380179574]]], [[[26.38424434984383, 40.07935293969688], [26.38885902009214, 40.07946874553267], [26.390090017687424, 40.08166788456012], [26.393018086498227, 40.081683264164596], [26.393038058923555, 40.07943407839768], [26.390192384967676, 40.07845844299745], [26.390146228376825, 40.07491409321095], [26.387218451055077, 40.074898643172695], [26.386684562154723, 40.0767508357261], [26.38426634665864, 40.07713538839151], [26.38424434984383, 40.07935293969688]]], [[[26.3830450493092, 40.21227120916481], [26.383024652498946, 40.214520338977565], [26.38889625723552, 40.21455148718775], [26.388916459963863, 40.212302354911316], [26.3830450493092, 40.21227120916481]]], [[[26.384185183381874, 40.08614454247807], [26.384164914848622, 40.08839372191432], [26.38709326858712, 40.088409253425596], [26.387113440756327, 40.08616007275991], [26.384185183381874, 40.08614454247807]]]]}}