{"type": "Feature", "properties": {"fire_id": "MAR_2024_02", "fire_date": "2024-06-20", "province": "Bursa", "region": "Marmara", "modis_area_ha": 453}, "geometry": {"type": "MultiPolygon", "coordinates": [[[[28.89189481003266, 39.572320284973905], [28.891955945567677, 39.5745685652809], [28.8948999781251, 39.57587356354518], [28.89467529091861, 39.578429946622705], [28.892078490613276, 39.57907443991017], [28.8922008942073, 39.583574099476316], [28.903835164251063, 39.58338400364691], [28.903773625751697, 39.581135742241685], [28.901635732273878, 39.58094144973742], [28.900802636542625, 39.578932016217884], [28.89808185954815, 39.57826058123753], [28.898132133922154, 39.574660069702965], [28.89536365918555, 39.57411874592119], [28.894799908386535, 39.57227293807368], [28.89189481003266, 39.572320284973905]]], [[[28.90032182184928, 39.57424286839845], [28.9030903354107, 39.57478407292936], [28.90365432763716, 39.57662983399887], [28.908841125683, 39.57685303466759], [28.909596466398376, 39.58103706083932], [28.912501898754282, 39.58098926270771], [28.91290229703027, 39.57687529511212], [28.921105839737947, 39.57634254243428], [28.921567889870424, 39.57447990219605], [28.923952808805613, 39.57404305160649], [28.923890640884913, 39.57179481301896], [28.900622123161174, 39.572177829592746], [28.90032182184928, 39.57424286839845]]], [[[28.898573365010762, 39.60374459805115], [28.898696296180432, 39.60824422154374], [28.90203713497452, 39.60924104322317], [28.9017301307304, 39.6126993208225], [28.907475779572508, 39.61298696472394], [28.907675328216527, 39.61710654890755], [28.915168257217136, 39.61704297243434], [28.9165112063325, 39.619214988383476], [28.919377310408436, 39.61916610169531], [28.920558323930855, 39.61695396146753], [28.925136959430507, 39.616818408775856], [28.925074658783164, 39.614570188346185], [28.921781970762705, 39.613698288579016], [28.92203926511706, 39.61011573860404], [28.917624899609475, 39.61016118796699], [28.91622349858539, 39.609122515365186], [28.915758198393913, 39.60426463363727], [28.918942019910798, 39.603406752875884], [28.918755657238535, 39.59665583745503], [28.91584958108736, 39.59670380766568], [28.915001458131606, 39.60370369414617], [28.898573365010762, 39.60374459805115]], [[28.913269658942575, 39.61155222526455], [28.907824901241554, 39.612332747708855], [28.907527632375135, 39.60906018981981], [28.912009468594043, 39.608085562269785], [28.913269658942575, 39.61155222526455]]], [[[28.908851345166898, 39.65988510143294], [28.9090371625235, 39.6666359822752], [28.913815373997707, 39.66632852099004], [28.914925392920672, 39.66879135660478], [28.91783448846088, 39.668743337177126], [28.9169613146071, 39.6653118919454], [28.918259840864017, 39.66382002763644], [28.923535795286174, 39.664144330165136], [28.923411009305497, 39.659644815322906], [28.91591350950316, 39.65970903415008], [28.914569743818113, 39.657537044062565], [28.91170204743094, 39.65758584999284], [28.91123926772773, 39.65944844546358], [28.908851345166898, 39.65988510143294]]], [[[28.915049840452884, 39.67329709778899], [28.915298561974105, 39.68229925208096], [28.921121897397345, 39.68220302806914], [28.920872420787163, 39.67320090433912], [28.915049840452884, 39.67329709778899]]], [[[28.89814302634666, 39.58798501616381], [28.89820439781924, 39.59023328226301], [28.900611732694735, 39.59059129423053], [28.901175804673134, 39.59243706108042], [28.90699165732212, 39.59234172463473], [28.906868258904513, 39.58784211048928], [28.89814302634666, 39.58798501616381]]], [[[28.9012990247868, 39.59694289775044], [28.901360517804363, 39.59919115625721], [28.90426672247752, 39.599143545944926], [28.90420513560704, 39.59689529121719], [28.9012990247868, 39.59694289775044]]], [[[28.889719656778222, 39.599384237949124], [28.889903218067634, 39.60613526421966], [28.892809732310962, 39.606087933596676], [28.89262588913006, 39.59933691860588], [28.889719656778222, 39.599384237949124]]], [[[28.886565014673224, 39.59042601228494], [28.886626017219125, 39.59267429248401], [28.88953197437336, 39.59262705715621], [28.889470878001834, 39.59037878070661], [28.886565014673224, 39.59042601228494]]], [[[28.86577287472654, 39.57499514078797], [28.86583317216703, 39.57724345376319], [28.86823991452097, 39.577602152123255], [28.86880301431095, 39.57944810295552], [28.87357548837286, 39.57914243094898], [28.874682579607658, 39.58160575313079], [28.883407130500096, 39.58146462791625], [28.883346256213553, 39.579216339202155], [28.880939392162876, 39.57885795717024], [28.880375977970953, 39.57701207253725], [28.872860715284475, 39.57772169559783], [28.869370536560073, 39.57688137742814], [28.868678128329503, 39.57494844426896], [28.86577287472654, 39.57499514078797]]], [[[28.877288407715547, 39.57030484944744], [28.877349067082694, 39.572553149440886], [28.88025419950795, 39.57250616592606], [28.88019344640725, 39.570257869662655], [28.877288407715547, 39.57030484944744]]], [[[28.87820027143363, 39.60407583408108], [28.878261033018838, 39.6063241197984], [28.88116757465281, 39.60627708022714], [28.8811067191763, 39.60402879824343], [28.87820027143363, 39.60407583408108]]], [[[28.83828707485096, 39.63624771346723], [28.838406241204332, 39.64074746654565], [28.840815077916474, 39.641106681771284], [28.84137803478611, 39.6429527514176], [28.844009699462966, 39.64351315564583], [28.8443500170411, 39.64515795503578], [28.847258239977567, 39.64511172625203], [28.846402545275062, 39.64154723928726], [28.84712137351603, 39.63706510081398], [28.84842759498372, 39.63611115782124], [28.860660602218704, 39.63604940042693], [28.86170257213683, 39.64037630839478], [28.864111497557214, 39.64073503773], [28.86467506639825, 39.642580980074136], [28.87340732447579, 39.642440426777085], [28.873871030595872, 39.64057795563812], [28.876258542093037, 39.640142028414196], [28.876197772409043, 39.63789375323665], [28.87329207846155, 39.63685134047026], [28.87310364580181, 39.63118660497291], [28.867912834848607, 39.63096190309968], [28.867159331751985, 39.62677759332787], [28.864360444553952, 39.62598675095518], [28.864066606541595, 39.620070159833766], [28.859165284445698, 39.619987597762645], [28.858184047588452, 39.61791205437559], [28.852365892540643, 39.618004997556724], [28.851496312260803, 39.620110112519185], [28.846603545014325, 39.62034913984199], [28.84613921697805, 39.622211522124545], [28.8437521044814, 39.622646821261284], [28.843027436429864, 39.62468139118079], [28.840900475467237, 39.62494443616547], [28.841134494942715, 39.63511327544123], [28.83828707485096, 39.63624771346723]]], [[[28.87068139702716, 39.64924456945289], [28.870742012498567, 39.65149284732296], [28.87656291271611, 39.651398918101535], [28.876502108906266, 39.64915064768448], [28.87068139702716, 39.64924456945289]]], [[[28.839241813990654, 39.67227047713311], [28.83930145976625, 39.6745187861175], [28.843742807421947, 39.67384683714554], [28.847120123950837, 39.67455577959529], [28.84810190093583, 39.6766313863243], [28.85073490305065, 39.67719160404307], [28.851075575813528, 39.67883636709279], [28.856898835994535, 39.678743370308766], [28.85736319274719, 39.67688096013126], [28.859752062575865, 39.67644534335274], [28.860476717603362, 39.67441068509388], [28.862605100176392, 39.67414724981256], [28.86254469975724, 39.67189897030433], [28.85488295551568, 39.67191721042778], [28.853492444967923, 39.669515431138], [28.848996203606465, 39.6697587536617], [28.847857932248367, 39.66762893953876], [28.842035575490264, 39.66772146154189], [28.84242975216035, 39.6714146095204], [28.839241813990654, 39.67227047713311]]], [[[28.853940231877544, 39.66780492036586], [28.859510518642463, 39.667439786068854], [28.859974740967562, 39.665577365404715], [28.86236320553351, 39.665141703560366], [28.862302832239177, 39.66289342024752], [28.859393888844977, 39.66294004299871], [28.858210175529813, 39.665151608615076], [28.853628118824027, 39.66528459841456], [28.853940231877544, 39.66780492036586]]], [[[28.856924856810114, 39.57063212490652], [28.856984859112476, 39.57288045088466], [28.859890038976996, 39.57283397612334], [28.8598299429352, 39.57058565383488], [28.856924856810114, 39.57063212490652]]], [[[28.859031856791454, 39.649431667119785], [28.859092095315862, 39.651679959836805], [28.86200056723137, 39.65163335560952], [28.86194023459894, 39.64938506659045], [28.859031856791454, 39.649431667119785]]], [[[28.816373094490103, 39.57803042335742], [28.81643180230568, 39.58027879761624], [28.8187091676651, 39.58055148209871], [28.819400260301894, 39.58248474218314], [28.8223028928457, 39.583528583994976], [28.822271186928972, 39.586111823169865], [28.819518140506364, 39.5869907959808], [28.819576968641318, 39.58923916283703], [28.825392824175605, 39.58914791670629], [28.82691071668395, 39.58687972165008], [28.83988281404589, 39.58666692261421], [28.84085755006527, 39.58417028984483], [28.845642652963253, 39.584323160666415], [28.8461067807835, 39.58246077440663], [28.84849250631623, 39.58202545651412], [28.849318506771525, 39.57958938936655], [28.854251660006806, 39.57968128155531], [28.85419173152794, 39.577432954732174], [28.850901631135354, 39.57655897744236], [28.851162522702523, 39.572976480202485], [28.848756015580562, 39.57261742186657], [28.848193506418397, 39.57077135803277], [28.822015145653282, 39.57118487202619], [28.82230783548521, 39.57735813045285], [28.816373094490103, 39.57803042335742]]], [[[28.837691233291853, 39.613733362638555], [28.837750705194455, 39.61598169629727], [28.840657717603747, 39.61593566083674], [28.840598151755973, 39.61368733083178], [28.837691233291853, 39.613733362638555]]], [[[28.834245454321433, 39.59351635530758], [28.834304772187238, 39.59576470115464], [28.837210944971357, 39.59571877135722], [28.837151533254318, 39.59347042915603], [28.834245454321433, 39.59351635530758]]], [[[28.82604743100136, 39.61391701551199], [28.826106526595936, 39.6161653637481], [28.831924613646677, 39.61607373915341], [28.8318653300262, 39.61382539818941], [28.82604743100136, 39.61391701551199]]], [[[28.80957591310646, 39.652430582007206], [28.811987865796947, 39.65282196681785], [28.812550167901783, 39.654668188079654], [28.818371525416392, 39.654577169074265], [28.819347901587513, 39.65208070499289], [28.82413767851804, 39.65223435389867], [28.825008461529254, 39.650129426550315], [28.82990343414412, 39.64989126035711], [28.829784780286566, 39.645391492947], [28.823964230029578, 39.64548306641902], [28.823770254636624, 39.64938869376135], [28.82028929586373, 39.65037305647152], [28.818531243826406, 39.64980330562002], [28.81819460571886, 39.64782592577381], [28.812373813840125, 39.64791692309408], [28.811908405903694, 39.64977918530193], [28.809520110027098, 39.650213805197296], [28.80957591310646, 39.652430582007206]]], [[[28.819989600922877, 39.60500255023885], [28.8200484819118, 39.607250909518044], [28.822955157968703, 39.60720532532599], [28.8228961830718, 39.604956969664975], [28.819989600922877, 39.60500255023885]]], [[[28.81072994787515, 39.58487571835617], [28.81078848757355, 39.58712409698809], [28.81369433744815, 39.58707876356434], [28.813635703934025, 39.58483038853123], [28.81072994787515, 39.58487571835617]]], [[[28.790535280684395, 39.59194595249247], [28.790593182238347, 39.59419435335486], [28.79931968732351, 39.59406048693339], [28.799261540822283, 39.59181111578205], [28.790535280684395, 39.59194595249247]]], [[[28.799619341589203, 39.596034311898116], [28.79891662426978, 39.5981762704695], [28.796529999019004, 39.59861058843173], [28.796588108103432, 39.600858979324435], [28.79949455464746, 39.60081398806958], [28.79996001915146, 39.59895176055807], [28.80234663192463, 39.59851737234687], [28.802288341489366, 39.596268987661766], [28.799619341589203, 39.596034311898116]]], [[[28.797928348244767, 39.65264624722745], [28.79798661412073, 39.65489461542604], [28.800895320133012, 39.65484953827225], [28.800836960121096, 39.652601173650474], [28.797928348244767, 39.65264624722745]]], [[[28.790187528091472, 39.57843689269686], [28.790245390661575, 39.58068529922755], [28.793151004493666, 39.58064048556878], [28.793093048133706, 39.578392082595826], [28.790187528091472, 39.57843689269686]]]]}}