{"type": "Feature", "properties": {"fire_id": "MAR_2024_01", "fire_date": "2024-08-15", "province": "Çanakkale", "region": "Marmara", "modis_area_ha": 1985}, "geometry": {"type": "MultiPolygon", "coordinates": [[[[26.337926176560277, 40.32013337999275], [26.33790420458972, 40.322382447937315], [26.345308275757777, 40.3224521088791], [26.346685174810293, 40.323521666116015], [26.346494636966426, 40.33286011575398], [26.343680050341458, 40.333679961356026], [26.342873632564157, 40.33569837706823], [26.34071516724632, 40.33591539606318], [26.340671351302785, 40.340416627991445], [26.34309148813994, 40.340827760445976], [26.343592779469404, 40.34268553721714], [26.352418798938405, 40.342735288860474], [26.35295580580946, 40.34088336280059], [26.355383601293777, 40.3404995560906], [26.355426439695854, 40.33599831104534], [26.352529739940834, 40.33489284229999], [26.35261685531378, 40.33018326942343], [26.353970944503274, 40.32925771179342], [26.3584335332123, 40.32925502913022], [26.360222484019644, 40.32701419130463], [26.366031307172218, 40.32710436292488], [26.367265947366608, 40.32930367953738], [26.371728034868106, 40.329355520856545], [26.373105493923557, 40.33042476656733], [26.372803773883714, 40.335824128164134], [26.364259727874355, 40.33604719773911], [26.364217476436153, 40.34054845051816], [26.369167004709084, 40.34073667298825], [26.370083083646286, 40.34283283825131], [26.399512918869444, 40.34298937013282], [26.400317743190104, 40.34097055035225], [26.40541949917929, 40.34076758643641], [26.406224120717173, 40.338748723333474], [26.41132569471803, 40.33854549750513], [26.41186105954325, 40.3366932848122], [26.41428838583447, 40.33630823793596], [26.414666899360572, 40.33425010137322], [26.41188748652096, 40.33364949850958], [26.41138438216353, 40.33179200183352], [26.408445522018695, 40.33177700974032], [26.40683116589894, 40.334012982877354], [26.395301567527348, 40.33395328382168], [26.39379340218096, 40.33299280192075], [26.39360942515901, 40.3300241022804], [26.39668988980789, 40.3294608855812], [26.397004176885595, 40.32781236985278], [26.399652658688325, 40.32722399800107], [26.40031741848058, 40.3252834460343], [26.40555785366704, 40.325002191245495], [26.40597604646893, 40.3184396721477], [26.40484164285336, 40.31705068374706], [26.405941855986132, 40.31401234812896], [26.40753876225467, 40.31340881192943], [26.409216530408568, 40.3143093188953], [26.40856222404812, 40.318260626587254], [26.411501778451814, 40.31827566626926], [26.411720068445337, 40.3164063107929], [26.41323392095347, 40.3156881551728], [26.4167597640142, 40.316358291281205], [26.417390509452407, 40.31830547366715], [26.420287467959792, 40.318321580838074], [26.420863742941357, 40.3164679707969], [26.423290294519884, 40.31608272825975], [26.42330942875572, 40.31383362154116], [26.415575665532117, 40.31369038851121], [26.414502448305406, 40.31153707399548], [26.41186515296577, 40.31092154681049], [26.41157995357613, 40.30926993607618], [26.403961776219692, 40.30950658664275], [26.402773972286774, 40.30697250085525], [26.39826791252786, 40.30755063843345], [26.394202036073054, 40.30665188550991], [26.39341691609126, 40.30877876261644], [26.39099046448192, 40.30916337968382], [26.390212590526946, 40.31151297740189], [26.38508618766708, 40.311384455520674], [26.38506578701956, 40.31363354755533], [26.387219264982303, 40.3138742773468], [26.38798757293038, 40.31590134847275], [26.390785873753657, 40.31675190389313], [26.391335590662806, 40.31924744434882], [26.390076810145136, 40.32036273968021], [26.379119640086564, 40.320361809825556], [26.378008061391874, 40.322503720536815], [26.37186199804769, 40.32256687096718], [26.370288371076125, 40.32031407323304], [26.367753361234037, 40.31980461816819], [26.367366994814642, 40.31804583004932], [26.35979561420856, 40.317944432649305], [26.35856141958829, 40.31574503546268], [26.35562328449903, 40.315728706720705], [26.355368515894696, 40.31993575743054], [26.3514591050128, 40.320208488660825], [26.349778894501963, 40.31923996062084], [26.349734845940162, 40.31569575695219], [26.34389585589189, 40.315661234448946], [26.343727295976286, 40.31978457951553], [26.337926176560277, 40.32013337999275]], [[26.393582665091735, 40.340672282608686], [26.393225948179044, 40.338771434179414], [26.395991181945593, 40.33844442022957], [26.3962080946718, 40.340558583560565], [26.393582665091735, 40.340672282608686]]], [[[26.393719117396476, 40.304946031274625], [26.39492231624474, 40.30258509591809], [26.399872027065125, 40.30244975389862], [26.39989192866542, 40.30020065132577], [26.396598626464066, 40.299257109882866], [26.396990433074762, 40.29568093705911], [26.394094756547197, 40.29457650913095], [26.394129201089157, 40.28787410168909], [26.395219970286444, 40.28676374563006], [26.402306614310863, 40.28700445394518], [26.40291686103756, 40.29120393503264], [26.41098470735971, 40.2911439019504], [26.41170127494066, 40.2957535678833], [26.423462662744484, 40.29581277493754], [26.423481777570863, 40.293563660246], [26.418804266045914, 40.29412845923649], [26.41715814988767, 40.292585280513165], [26.41827032763449, 40.29138238293749], [26.420310425171206, 40.29156843703078], [26.421363340977, 40.28927464576468], [26.42352007995667, 40.28905610786266], [26.42355832091875, 40.284554765495564], [26.418931419711832, 40.28447187760121], [26.417690207160536, 40.28317243563327], [26.418499464283215, 40.28025100618794], [26.423596606033477, 40.28004720601127], [26.42365395157036, 40.27329362710021], [26.42071633854057, 40.2732790060241], [26.42031318390233, 40.27536486923675], [26.418321894362077, 40.27578123434316], [26.416977539364463, 40.27445109852823], [26.417792490892364, 40.27101195810712], [26.414854979637195, 40.270997188920546], [26.415611813687974, 40.27444680162626], [26.414599373959838, 40.27737097605862], [26.409848875473013, 40.27756756432289], [26.4089981078093, 40.2720535724131], [26.412273948936992, 40.27079180991992], [26.41193142684709, 40.26872999408693], [26.408995297618915, 40.26871503518927], [26.407885524839, 40.27085726489004], [26.404183071805278, 40.27083825979501], [26.402354561540644, 40.26536483747019], [26.40325962349547, 40.260633843086076], [26.404611629613267, 40.25970766650816], [26.408285778169255, 40.25992829679041], [26.40905412629947, 40.26195524700607], [26.414035720122612, 40.261810054523224], [26.414914509894054, 40.26423735460915], [26.417850448632333, 40.26425216196564], [26.41838502517217, 40.262399889972784], [26.420809653584083, 40.262014682412406], [26.420126977207815, 40.25605065294966], [26.421401686893336, 40.25340568903648], [26.423825977302293, 40.25302041531087], [26.423940520297684, 40.23951007887983], [26.421005647363444, 40.23949543345613], [26.42047132978905, 40.24134772663685], [26.418047438420167, 40.241732933658334], [26.417244352242978, 40.24375192335637], [26.41508903471235, 40.2439703560033], [26.41582583969324, 40.247552119378234], [26.414097964123776, 40.2505612213306], [26.403273253964432, 40.25066703638829], [26.401660690090743, 40.252902981310065], [26.38561652950385, 40.25282697548256], [26.38508113985304, 40.25467909311443], [26.382656580623202, 40.25506355298383], [26.382511384101875, 40.2614379013354], [26.378261302129996, 40.262398740481], [26.373775564558752, 40.26177281720911], [26.373754825060328, 40.26402192376851], [26.378585676300954, 40.26381917478136], [26.379614177142923, 40.26630581079508], [26.38429007485731, 40.2657425816809], [26.388217604991794, 40.26706752196749], [26.388393805474028, 40.27085719714904], [26.391312607573422, 40.272093075725074], [26.39114628069519, 40.28780408229058], [26.38823139436928, 40.288878007063815], [26.38754632780557, 40.29307070970343], [26.382308297391855, 40.29335116785206], [26.383062428495684, 40.296801011096115], [26.38169677943656, 40.29826411659419], [26.3646187282143, 40.29775999845061], [26.364597658699033, 40.30000908701159], [26.369103486675492, 40.299432258525755], [26.37333138395471, 40.30043858276524], [26.373380597771394, 40.30456161177062], [26.37671841389814, 40.30563110019169], [26.3762808846411, 40.309081902318034], [26.38216066263802, 40.30911345330528], [26.381425009277383, 40.305531521797064], [26.38349681217107, 40.300171083929506], [26.390717165770873, 40.30036976511931], [26.39103094772956, 40.30465586599653], [26.393719117396476, 40.304946031274625]], [[26.40290868395091, 40.28441308668572], [26.40255198168011, 40.282512248822776], [26.40531487614394, 40.28218499195957], [26.405531921413115, 40.2842991591141], [26.40290868395091, 40.28441308668572]], [[26.388574127567097, 40.26552081570214], [26.389142536373324, 40.25969975592949], [26.39385258212992, 40.2600216584855], [26.39433461199577, 40.26413146902838], [26.397670785745287, 40.26520034826881], [26.396719388014837, 40.26825431739632], [26.391872458931815, 40.268228946228724], [26.3913703665633, 40.2663713491038], [26.388574127567097, 40.26552081570214]]], [[[26.4168958677584, 40.33387997000339], [26.42019390523496, 40.33408568966688], [26.420213154435636, 40.33183659119917], [26.417274287712008, 40.331821823394385], [26.4168958677584, 40.33387997000339]]], [[[26.415534307331672, 40.19216864914792], [26.415495660452937, 40.19667005719209], [26.424302838754286, 40.19671419121915], [26.424340903389634, 40.192212776188], [26.415534307331672, 40.19216864914792]]], [[[26.414253465185404, 40.3408157665643], [26.414234011959056, 40.343064859144704], [26.417173364940382, 40.34307970758584], [26.41755183122271, 40.341021563636964], [26.414253465185404, 40.3408157665643]]], [[[26.41978100781355, 40.3406513785527], [26.42307938452033, 40.34085701806448], [26.42309854250892, 40.338607921091906], [26.42015938050114, 40.338593224560974], [26.41978100781355, 40.3406513785527]]], [[[26.42113989409491, 40.2237297174546], [26.421120748922124, 40.225978858443185], [26.424055038495204, 40.22599349690752], [26.42407408663585, 40.22374435476118], [26.42113989409491, 40.2237297174546]]], [[[26.421063194647243, 40.232738703347636], [26.42104404084078, 40.23498784079401], [26.423978719188057, 40.23500248389656], [26.42399777591862, 40.23275334529211], [26.421063194647243, 40.232738703347636]]], [[[26.412344631500154, 40.221433052366095], [26.41232519702107, 40.22368219072697], [26.415259382921906, 40.22369705147012], [26.415278720380606, 40.221447911933886], [26.412344631500154, 40.221433052366095]]], [[[26.280416543850162, 40.19365996511672], [26.280368960435528, 40.19816125090542], [26.284989742490016, 40.19824962893668], [26.286219465302604, 40.200449816909845], [26.291788500786915, 40.20108618105983], [26.291978984982112, 40.204032313499695], [26.289109546094206, 40.204975393235266], [26.289086049940906, 40.20722448306222], [26.29150112657093, 40.207636661069024], [26.29200007261372, 40.2094946836966], [26.297352824056265, 40.20992467085784], [26.297851946142806, 40.21178266903618], [26.300644818411595, 40.21263537450286], [26.300743307310345, 40.21630485003013], [26.303677110875793, 40.216322536653145], [26.30507478790259, 40.21376792529803], [26.309172577775215, 40.21459876286532], [26.309534022400097, 40.21860996134629], [26.31216678670172, 40.219227793898774], [26.312426448192124, 40.22313185412372], [26.31505941417456, 40.22374962207489], [26.315319255419862, 40.22765367429555], [26.317735222496243, 40.22806531083339], [26.318235028787228, 40.229923221046235], [26.321531459547646, 40.229753447997744], [26.321214366835203, 40.22543916892497], [26.3183229261378, 40.22433286566616], [26.318434733896826, 40.217371041323084], [26.324604124118615, 40.21625739492917], [26.324042932702486, 40.21166563847004], [26.32135325993552, 40.211925950453875], [26.320078373360925, 40.21411106516419], [26.315595802941754, 40.21330859410618], [26.31512770528594, 40.21056025793072], [26.318434123357306, 40.20965335012419], [26.318456651518506, 40.207404247212374], [26.313784263482752, 40.20796485049563], [26.312142612529403, 40.20642019137086], [26.313255204864827, 40.2052182888459], [26.315292407094304, 40.2054061737157], [26.316465085934045, 40.20271418352298], [26.32050790271067, 40.20306963758798], [26.321420676718663, 40.20516621055839], [26.323951061162077, 40.20567665328214], [26.324557286553013, 40.209965292725045], [26.32864021686489, 40.2091112557426], [26.334972590752844, 40.209853972776614], [26.336041714056915, 40.21200803007973], [26.338674472717553, 40.21262526025671], [26.338957522581786, 40.21427706105918], [26.34189126191055, 40.21429377843091], [26.34350484788855, 40.21205865966247], [26.3496820252573, 40.2118566746438], [26.35074993479338, 40.214345360129286], [26.353642453562614, 40.21435999494902], [26.354874789721716, 40.21183887257206], [26.35889396009344, 40.21244516565853], [26.359479703412845, 40.21889712864215], [26.362010893867723, 40.21940674435388], [26.362821587771588, 40.2222440579626], [26.359437251602603, 40.223404682208034], [26.358632653632128, 40.22542325990055], [26.356477743870727, 40.225640604726586], [26.356456458714653, 40.22788971782969], [26.359141437042112, 40.2281806656671], [26.359705484989053, 40.22625755629394], [26.362350307960405, 40.22567000011145], [26.363912959474405, 40.22309273133286], [26.368276178796307, 40.223926707922665], [26.368184222459604, 40.22686812850083], [26.365271606995535, 40.227941503327465], [26.36446712624116, 40.22996012092438], [26.35962296468758, 40.22988667591936], [26.358837683217775, 40.232013345036194], [26.356413792983872, 40.23239726169915], [26.356221484146634, 40.23831740162514], [26.350721507877758, 40.23884642258405], [26.350694748062136, 40.241647596739206], [26.35632446680897, 40.24140299590563], [26.356860529172145, 40.23955101233147], [26.359284672645053, 40.23916708874681], [26.36041663226701, 40.23477310314891], [26.37402057469768, 40.23474305930297], [26.374355670081066, 40.23084235342556], [26.37700054963331, 40.23025446331198], [26.37780466300326, 40.22823575590943], [26.37995959205504, 40.228018014201986], [26.380265897998914, 40.21747385691707], [26.385938097293728, 40.2167881765219], [26.385999052884987, 40.21003456977847], [26.38016909802994, 40.210001944965136], [26.379689178661362, 40.21400998201478], [26.377148975997535, 40.21449197794137], [26.376196009331984, 40.216578064407614], [26.371805219613467, 40.21712448518513], [26.370473414343504, 40.21564443587571], [26.371290098544616, 40.212207958266134], [26.368874354568064, 40.211797440357905], [26.36837328875671, 40.20993973334248], [26.362715238993694, 40.20961257894142], [26.362540252501685, 40.20540306483478], [26.356882611495237, 40.20507562820621], [26.35670799385766, 40.200866104897536], [26.35188156328898, 40.20106797728301], [26.350855034831987, 40.198581082501846], [26.347921967545524, 40.19856459762584], [26.346689621773578, 40.201085651606185], [26.340788062590136, 40.20112054840809], [26.3392901163426, 40.200386151586834], [26.339106574140413, 40.198514604629146], [26.336474355547107, 40.19789738714396], [26.336191428718827, 40.19624557664593], [26.327384459361664, 40.196194739889876], [26.325821062618342, 40.19877152124017], [26.319800186045754, 40.1983430262498], [26.318569592376466, 40.19717503310229], [26.318614495327573, 40.19163875458736], [26.292187438786215, 40.191480188657856], [26.292092625487676, 40.197147331991644], [26.290525731029142, 40.19821899225031], [26.28654432666754, 40.197600424376766], [26.28628622700687, 40.19369630257473], [26.280416543850162, 40.19365996511672]], [[26.300745245753927, 40.20951399147224], [26.30039176915162, 40.20761284112124], [26.303152072641602, 40.20728799796407], [26.30336573025181, 40.20940235580458], [26.300745245753927, 40.20951399147224]]], [[[26.35024014364931, 40.23714037918479], [26.350511060433657, 40.23461662293033], [26.347576439216837, 40.23460011714995], [26.347554852820025, 40.23684922279969], [26.35024014364931, 40.23714037918479]]], [[[26.326822132029093, 40.216651711676], [26.32716182755859, 40.21871377516674], [26.332757137468356, 40.218495850204576], [26.333812279988763, 40.219816013641754], [26.33299360929336, 40.22325220638117], [26.3359277322051, 40.22326907799941], [26.33599366702228, 40.21651554473776], [26.326822132029093, 40.216651711676]]], [[[26.323749887948473, 40.23014782617544], [26.324067159448052, 40.23446209630398], [26.327001760759988, 40.2344791981157], [26.327249474070033, 40.23069187853684], [26.329984811599882, 40.22999183745429], [26.330029164336544, 40.22549052911663], [26.32709494911739, 40.225473507199865], [26.326847250252264, 40.229260829934624], [26.323749887948473, 40.23014782617544]]], [[[26.35018079585273, 40.24334805265016], [26.34748995972953, 40.24360896147981], [26.347403471083986, 40.252614684830164], [26.350338870183126, 40.25263120106914], [26.35018079585273, 40.24334805265016]]], [[[26.364492100793747, 40.31127315694044], [26.36447101701813, 40.3135222401765], [26.367409061540204, 40.31353834348695], [26.367430047861603, 40.31128925897796], [26.364492100793747, 40.31127315694044]]], [[[26.252995457793155, 40.283579289301876], [26.252945904015608, 40.28808047730288], [26.25588277771074, 40.288099403072636], [26.257161143343446, 40.28591505409515], [26.263797548117683, 40.286058851545974], [26.264685234910836, 40.29040798825243], [26.267976219252432, 40.291355266653014], [26.267577645519467, 40.294930946828934], [26.27203733882795, 40.2949866135251], [26.27337181489168, 40.29592813344305], [26.2733636137422, 40.303976646650135], [26.27659546918621, 40.3048021998927], [26.276257171597123, 40.30849938782549], [26.279053727158644, 40.309352632532644], [26.279129578351657, 40.31405685364926], [26.277872893941204, 40.31520974666045], [26.273242883175534, 40.3152404951111], [26.273218768864286, 40.31748953411848], [26.27607268475628, 40.31846807643076], [26.276044558336995, 40.3213926413072], [26.27456865535278, 40.322339227218954], [26.270228019752096, 40.321978404097365], [26.270203799647568, 40.3242274389693], [26.274711989869097, 40.32365431027623], [26.278813416062444, 40.32457757173286], [26.278983409249772, 40.32878708416394], [26.284345471587823, 40.32921774525282], [26.28482129120896, 40.33332791115304], [26.290703063772202, 40.333364128187014], [26.292494350220245, 40.33112435921607], [26.295827209654433, 40.331372444608], [26.29659296606723, 40.33340009555007], [26.29953183184543, 40.33341792990421], [26.30007020376001, 40.33156625785059], [26.30249794848529, 40.3311835602988], [26.302521102569532, 40.3289345123143], [26.298059133700104, 40.32888000194712], [26.296682902800583, 40.327809872402284], [26.296773883382652, 40.32310036826487], [26.29964823807211, 40.32215715912722], [26.29967318198731, 40.31993974034537], [26.296776393273205, 40.31880125430098], [26.296822598782825, 40.31088162786469], [26.290942769279305, 40.31084573849708], [26.289375293131688, 40.31342194232617], [26.28463637319085, 40.312007760140624], [26.285194008050123, 40.30501099767626], [26.288067749044348, 40.304068068147565], [26.287769216237468, 40.29385616000746], [26.291127096150277, 40.29282532578133], [26.290401244258923, 40.28712275544571], [26.291579626980642, 40.284011107796324], [26.29044834455865, 40.28261842250352], [26.291607117487995, 40.281377573302755], [26.291291732902636, 40.2770632647105], [26.286061088998753, 40.27672280415041], [26.28543449328291, 40.27477492670299], [26.28271202996383, 40.2740421800111], [26.282403284288925, 40.270827758514564], [26.295653415920192, 40.27033790497991], [26.29722341419307, 40.272591706902496], [26.30172795411943, 40.27201748917494], [26.31421504361554, 40.27300196473685], [26.314794754161046, 40.276115534322415], [26.311879190965065, 40.27718753194829], [26.312629566555042, 40.280637813106466], [26.311517396714564, 40.28334017203692], [26.302988331891367, 40.28389125630635], [26.30296523010246, 40.286140322079675], [26.305117523736527, 40.2863825716542], [26.305883070143082, 40.28841017486729], [26.30860636568883, 40.289142381461346], [26.309576023673223, 40.29174833783585], [26.308755210221886, 40.29518429913713], [26.3116924273294, 40.295201810861975], [26.31194978990727, 40.29099485992871], [26.315857655475618, 40.290723449996854], [26.317601697091238, 40.29298450656539], [26.320135315169487, 40.293495051766506], [26.320520323189864, 40.29525399399697], [26.323416240968953, 40.29527251895306], [26.323502438733666, 40.290769955709074], [26.320866802584142, 40.290152364979534], [26.320376925073248, 40.28693315854733], [26.33237007641927, 40.28631373322841], [26.332392203825123, 40.28406465374524], [26.329974155814043, 40.28365331026887], [26.3294323820358, 40.2817936694826], [26.326537004899972, 40.281778406465975], [26.325260941607446, 40.283963542655904], [26.318624561417685, 40.28382327134928], [26.317710851000918, 40.28172669669434], [26.31447957404636, 40.280902293733504], [26.315330433743437, 40.2776022646928], [26.31915098219138, 40.27662571020004], [26.32363716651214, 40.27725375337501], [26.324303586225437, 40.27531363500018], [26.32954042738758, 40.27503579277377], [26.331155887638076, 40.272800884532145], [26.33465902705107, 40.273042324015314], [26.335425313782185, 40.27506974233313], [26.353063807889207, 40.27516970469917], [26.3531067013549, 40.270668410725], [26.34848086963057, 40.270582713361996], [26.34724788427172, 40.268383187173306], [26.34230370508151, 40.268194066669444], [26.341389464539816, 40.26609766920016], [26.338754614900637, 40.26548048967699], [26.338471373638242, 40.263828701270846], [26.333527555467185, 40.26363920847097], [26.332613646207005, 40.2615427426924], [26.327383963514798, 40.26120415731038], [26.326756316150945, 40.25925648988394], [26.318725371233707, 40.25898018347196], [26.31795975949573, 40.25695265453131], [26.31532548387103, 40.2563349452091], [26.315042848238257, 40.254683101864686], [26.309571216303418, 40.254154953602175], [26.30920961032669, 40.25014377816944], [26.30679291440258, 40.24973195907089], [26.30629328362736, 40.247874007176144], [26.3015066007419, 40.24774079268712], [26.30043803030187, 40.24558643409084], [26.29520975601664, 40.24524640541971], [26.294583174385455, 40.24329856720605], [26.28964099884713, 40.24310721247474], [26.288728715896415, 40.2410104065937], [26.282854945586685, 40.240974157785466], [26.282738454457462, 40.2510145732481], [26.27979669452629, 40.25221679010241], [26.279597630908487, 40.25813672468579], [26.273845689678335, 40.258936563355476], [26.274104768716924, 40.262637521304214], [26.270857653389328, 40.26342241110679], [26.27004994172468, 40.265440332064884], [26.267893501798987, 40.26565601238716], [26.267777303845158, 40.26919925338935], [26.264904772209764, 40.27014169513645], [26.264880420076608, 40.27239074754371], [26.267602618643092, 40.27312391172931], [26.2677720940158, 40.276913708573716], [26.272716653242444, 40.277106017253665], [26.27362890830106, 40.279202936272206], [26.27656541146694, 40.27922133372713], [26.27737080021445, 40.27462035385652], [26.28170968239589, 40.27497806043099], [26.28245059478972, 40.27925798055725], [26.285085446834376, 40.27987644095567], [26.285573601785334, 40.283095785945875], [26.2765214188666, 40.28372878770092], [26.275713624305954, 40.285746740508664], [26.27203424252909, 40.2859254321104], [26.270659288470057, 40.28485499626431], [26.27066006009853, 40.2814396783379], [26.26772346481243, 40.28142113017654], [26.266609039753494, 40.283561959998636], [26.26323616255799, 40.28361743306746], [26.261861395084622, 40.282546893889965], [26.2618626076836, 40.27913157860692], [26.25602687557867, 40.27909264903575], [26.255733672891335, 40.28288103553311], [26.252995457793155, 40.283579289301876]], [[26.276397274795826, 40.294989551516295], [26.273601343158557, 40.29413624596075], [26.274288132700253, 40.290697923614154], [26.2849822213088, 40.29080491998997], [26.286021888344226, 40.2939879498597], [26.28444371712239, 40.29739329009637], [26.277465833686513, 40.29714411394926], [26.276397274795826, 40.294989551516295]], [[26.279538085438887, 40.27019677455319], [26.279184912384398, 40.26829558168694], [26.281947779512482, 40.267971269976755], [26.282160939910927, 40.27008564083141], [26.279538085438887, 40.27019677455319]]], [[[26.29382704614247, 40.281772534509344], [26.293807578824065, 40.28364333669093], [26.297102752713748, 40.28385254395939], [26.297126046910112, 40.281603480111876], [26.29382704614247, 40.281772534509344]]], [[[26.350299816249667, 40.25713874293125], [26.35023520927076, 40.2638922480215], [26.353171097412552, 40.26390869621931], [26.353235412521908, 40.257155187223994], [26.350299816249667, 40.25713874293125]]], [[[26.34476799674407, 40.22107022874185], [26.34474632779296, 40.223319338404394], [26.347680460540058, 40.22333591212329], [26.347702032477493, 40.22108680114993], [26.34476799674407, 40.22107022874185]]], [[[26.338760429145207, 40.23455008391767], [26.338738551109145, 40.236799185610266], [26.341673262072757, 40.2368159162276], [26.34169504303014, 40.23456681321188], [26.338760429145207, 40.23455008391767]]], [[[26.32696118586969, 40.23898673372635], [26.32693891396535, 40.241235828283706], [26.329873809454376, 40.24125285963785], [26.329895984259412, 40.23900376373362], [26.32696118586969, 40.23898673372635]]], [[[26.308686316396336, 40.30194391565464], [26.308663388835807, 40.304192977104876], [26.311600996032812, 40.30421049437587], [26.31162382618901, 40.30196143154087], [26.308686316396336, 40.30194391565464]]], [[[26.30305771734971, 40.277134733511076], [26.303034623373502, 40.27938380195199], [26.305971153072676, 40.27940145321526], [26.30599414976593, 40.277152383378784], [26.30305771734971, 40.277134733511076]]], [[[26.281806710318207, 40.34006921063093], [26.281782859239684, 40.34231824420381], [26.28472210256428, 40.34233645812907], [26.284745856054595, 40.340087423116685], [26.281806710318207, 40.34006921063093]]], [[[26.280226014401965, 40.21167751386676], [26.280202219012043, 40.21392659671764], [26.283135907000442, 40.21394480307667], [26.283159605427507, 40.21169571878576], [26.280226014401965, 40.21167751386676]]], [[[26.2555407386875, 40.319632519674], [26.25551603320687, 40.32188154802627], [26.258454372839505, 40.32190042155314], [26.258478980834024, 40.31965139170907], [26.2555407386875, 40.319632519674]]], [[[26.25269776208714, 40.31060500383437], [26.252672970171805, 40.31285403425092], [26.255610916602507, 40.312872976508444], [26.255635611076034, 40.310623944594575], [26.25269776208714, 40.31060500383437]]], [[[26.244123094721864, 40.28802627992972], [26.24407294453719, 40.29252745529703], [26.247010004765094, 40.29254660801932], [26.247059960142444, 40.28804542962177], [26.244123094721864, 40.28802627992972]]], [[[26.243796691118366, 40.31730404934211], [26.243771597988165, 40.31955307255115], [26.24670982879015, 40.31957224347586], [26.246734824446648, 40.31732321875149], [26.243796691118366, 40.31730404934211]]]]}}