{"type": "Feature", "properties": {"fire_id": "AKD_2021_05", "fire_date": "2021-07-29", "province": "Adana", "region": "Akdeniz", "modis_area_ha": 3768}, "geometry": {"type": "MultiPolygon", "coordinates": [[[[35.58193025259732, 37.33128027982807], [35.58204687718314, 37.33352904961249], [35.58482259590863, 37.33346684683151], [35.58594988451276, 37.33124908711531], [35.59009346884738, 37.33133770129118], [35.59078858076008, 37.335865829914376], [35.59748781407782, 37.33484027070429], [35.6102733275103, 37.33516056901602], [35.61019548992943, 37.33291253858998], [35.59744559705194, 37.33379495626412], [35.595330373437484, 37.33230802160049], [35.59529231552033, 37.32465586518611], [35.59693502968932, 37.32360089799952], [35.60176686267817, 37.32389454846506], [35.60127199363979, 37.319592021166414], [35.59845024048362, 37.31856449404221], [35.59809292717012, 37.31116331152626], [35.602741408932694, 37.31064956432684], [35.603861327984895, 37.312773330128174], [35.6123126402397, 37.312587923338945], [35.61215689807409, 37.3080877651338], [35.60459240209762, 37.308093442513666], [35.603546836097856, 37.303771892074906], [35.6005410866635, 37.3032115666364], [35.60024987408741, 37.29680911618818], [35.59340435994374, 37.2972085819789], [35.591965189007325, 37.29501477968075], [35.58633348737009, 37.29513805896873], [35.58641050861952, 37.2973861463706], [35.590846438672905, 37.29734881899571], [35.592123568393944, 37.29951395369849], [35.59714996270763, 37.29971206765865], [35.59828363210655, 37.302758345831315], [35.59509642516377, 37.30395761685169], [35.594412520992385, 37.30599613387747], [35.59235563814308, 37.306270598387], [35.5925830272885, 37.31669397767627], [35.58992378688967, 37.317588243119104], [35.589675533306284, 37.32160366865695], [35.5872595853673, 37.32215230643155], [35.588130550726426, 37.32557991695146], [35.58718364959084, 37.328310278865], [35.58467223783814, 37.328967502499566], [35.583987861280264, 37.331005970644746], [35.58193025259732, 37.33128027982807]]], [[[35.600668460933015, 37.295097322286885], [35.605574375000316, 37.295110119971454], [35.606290958225166, 37.30145547567459], [35.60910506060427, 37.30139342863599], [35.609538125928026, 37.29952847072319], [35.611845142536424, 37.299080083292445], [35.61199706017339, 37.29517329320694], [35.614507091366114, 37.294515537442216], [35.61465887590588, 37.2906087468433], [35.61716873105046, 37.28995094078995], [35.61701280083028, 37.285451764016265], [35.614563926050444, 37.28501016553726], [35.61332803864343, 37.28221633777783], [35.61419130387624, 37.27710186307953], [35.61670072162977, 37.276444082623435], [35.61738379593649, 37.27440546069758], [35.61943970024962, 37.27413059599964], [35.61928372406297, 37.26963141535931], [35.61507339736852, 37.27005068304871], [35.613660498230935, 37.269018232769376], [35.61365380295367, 37.266083066390465], [35.61631095218623, 37.2651883400446], [35.61623313178344, 37.262940293839705], [35.613420476779474, 37.263002455964724], [35.61298766378815, 37.26486742677315], [35.61068168860769, 37.26531579866964], [35.61091491526659, 37.2720661721238], [35.61400738744858, 37.27274212114192], [35.61366139405628, 37.275798300611264], [35.60825356215951, 37.27663373603669], [35.60782056240572, 37.2784986919264], [35.60551413903136, 37.27894697916027], [35.60559168568543, 37.28119503850751], [35.60766365353246, 37.28137874252193], [35.6084866674309, 37.28338410963864], [35.611127174853, 37.284041931901456], [35.6113070168721, 37.287351745801374], [35.60989091152416, 37.28820384061524], [35.60582480595023, 37.28795163185139], [35.606124646620074, 37.29182431361274], [35.6003448563025, 37.29257797659416], [35.600668460933015, 37.295097322286885]]], [[[35.603910340821585, 37.32422888604926], [35.60432765466363, 37.326280243634024], [35.607482364993764, 37.3260215121485], [35.60706496779925, 37.32397016883222], [35.603910340821585, 37.32422888604926]]], [[[35.60962592337057, 37.32635574268767], [35.61004340682304, 37.32840707306086], [35.612116685173625, 37.328590647862505], [35.61294040604031, 37.33059594543716], [35.61558262460424, 37.33125359891585], [35.615915686244186, 37.33503586525842], [35.618731019204056, 37.33497354181029], [35.61849656228469, 37.328223282382915], [35.61405889196247, 37.32826171602991], [35.612780610214095, 37.32609687033086], [35.60962592337057, 37.32635574268767]]], [[[35.59036959596415, 37.33757759526494], [35.58780038011663, 37.33791055126691], [35.58795486359754, 37.34240979264255], [35.59077053446685, 37.34234812421242], [35.59036959596415, 37.33757759526494]]], [[[35.61262174729111, 37.3145593899091], [35.61211974609816, 37.31690772030223], [35.615287136473384, 37.31702691840186], [35.61520920057817, 37.3147788900763], [35.61262174729111, 37.3145593899091]]], [[[35.610002831632315, 37.3173359824848], [35.60683542815031, 37.31721664293694], [35.60691312151507, 37.3194646853585], [35.60972789380733, 37.319402598105476], [35.610002831632315, 37.3173359824848]]], [[[35.61740684747323, 37.29670737566618], [35.617484797877566, 37.29895540691653], [35.620298781946346, 37.29889309726183], [35.62022074797341, 37.29664507105136], [35.61740684747323, 37.29670737566618]]], [[[35.60870503447705, 37.37124391284612], [35.60886095271864, 37.375743054129536], [35.61606467711945, 37.375286828738226], [35.61740148689285, 37.377807062114286], [35.62021841446164, 37.37774464273298], [35.62006180658814, 37.3732455438067], [35.61772498128837, 37.372899865269744], [35.617162895213006, 37.37105693061616], [35.60870503447705, 37.37124391284612]]], [[[35.59679836999569, 37.353448542350414], [35.599617468948914, 37.35341821005186], [35.600617638876045, 37.35088860181741], [35.60429266795545, 37.35122361367594], [35.60533909705464, 37.35554509973675], [35.60811755168201, 37.35644471362642], [35.60831501405168, 37.35998517374007], [35.61395145915061, 37.3598606651388], [35.61422636193681, 37.35779405117322], [35.611537127873234, 37.35726682940901], [35.61024242651861, 37.35463866445172], [35.610972090065786, 37.35139409613588], [35.61238932736743, 37.35054195177093], [35.61927864135467, 37.350731357797294], [35.61920049146465, 37.34848334947612], [35.606197176622075, 37.34902548694845], [35.60502394607686, 37.346543737577484], [35.6026880083015, 37.34619772612068], [35.602126524376224, 37.344354690942026], [35.5995732125578, 37.34380856645493], [35.59922927066963, 37.342165566146036], [35.596413625492666, 37.342227435637234], [35.59679836999569, 37.353448542350414]]], [[[35.61634437137911, 37.35736567354644], [35.61951346707909, 37.35748469252099], [35.619435291114556, 37.35523668719293], [35.616619203116876, 37.35529905607671], [35.61634437137911, 37.35736567354644]]], [[[35.58362523300109, 37.38077149203356], [35.5935653848664, 37.37998376770981], [35.595525042137815, 37.38109370619598], [35.59522278067246, 37.38956040791999], [35.597942133976176, 37.39033664129858], [35.59820536382725, 37.39516695458793], [35.595455884949324, 37.39631693299324], [35.59490202157126, 37.398273564546244], [35.59271191349345, 37.398630016931676], [35.59243633380101, 37.40069659594367], [35.5955091616979, 37.40165432719119], [35.595844279127576, 37.407569507411715], [35.59818211681639, 37.407915580175285], [35.598744072251854, 37.40975860202214], [35.601562237705906, 37.409696582127374], [35.60199595538868, 37.40783165184467], [35.6043063084597, 37.4073832914554], [35.60420843732959, 37.4032936892247], [35.609793944437754, 37.40275653553171], [35.61022742621765, 37.400891582290186], [35.612877496307014, 37.40024634869834], [35.61281253341249, 37.39837646526467], [35.60928865517323, 37.397396997609086], [35.60958054626526, 37.394356142782485], [35.611052541870265, 37.39337553312235], [35.614897024822874, 37.39390906196178], [35.61499783427686, 37.38783250719783], [35.617711641915236, 37.38677991750116], [35.61763259064263, 37.3845635674521], [35.6148154021737, 37.38462593488156], [35.61384312675628, 37.38679583670999], [35.60643008668608, 37.38706401532198], [35.6056057460687, 37.38917387468571], [35.60190492093929, 37.38931213200086], [35.60077797351525, 37.386022144565196], [35.603526996535344, 37.38487205774841], [35.603449220428054, 37.3826240341616], [35.60080526130964, 37.381966178746495], [35.600472514235165, 37.37818289730641], [35.59220805454544, 37.37800840975703], [35.59116032646194, 37.36613207949076], [35.59246916836231, 37.36486814288251], [35.59727522116416, 37.365249946555146], [35.597500142722055, 37.37374043545768], [35.59983692520093, 37.374086516615606], [35.60064507479583, 37.3762008170267], [35.60321551435119, 37.37586753632408], [35.60305993257841, 37.37136837490513], [35.600194556279554, 37.37007818298467], [35.60039164984813, 37.36752059632627], [35.60290417069007, 37.36686299893674], [35.60274865810674, 37.362363829542694], [35.600412232872685, 37.36201779211493], [35.5998506630197, 37.360174752907355], [35.591393907211334, 37.36036045129891], [35.59096012838873, 37.36222535569698], [35.58865105136834, 37.362673408869355], [35.589094944041165, 37.36630126237578], [35.58598533724683, 37.36723747518204], [35.586059518094196, 37.369453973183205], [35.588616662241634, 37.37003192099117], [35.58937565585896, 37.37292489788949], [35.58621731846124, 37.37399096990516], [35.58666119332055, 37.37761882821194], [35.583551092960064, 37.37855499404726], [35.58362523300109, 37.38077149203356]], [[35.601545162754554, 37.400449644142256], [35.60233330678774, 37.39586557409365], [35.60714846155302, 37.39705333646894], [35.60569254982528, 37.40053756544915], [35.601545162754554, 37.400449644142256]]], [[[35.614931681656245, 37.397948071900686], [35.616054963984084, 37.399044149012255], [35.61502320761524, 37.400580396269454], [35.61630281425391, 37.40619453082914], [35.615272881249005, 37.40890125321462], [35.61285438482623, 37.409450506484376], [35.61301076655275, 37.41394960375293], [35.615829056969915, 37.413887237876196], [35.616262435393075, 37.412022268877664], [35.61857281406779, 37.41157362796931], [35.61802424297331, 37.395819070667734], [35.61543398413316, 37.3955997412209], [35.614931681656245, 37.397948071900686]]], [[[35.590316956882205, 37.40112459317879], [35.587146017652444, 37.40100485915818], [35.58722335837141, 37.403252904818935], [35.59004130590939, 37.40319116863627], [35.590316956882205, 37.40112459317879]]], [[[35.61325264770927, 37.33960357134718], [35.613408659113986, 37.34410272040626], [35.61622433617984, 37.34404044378894], [35.616068157156235, 37.33954130480645], [35.61325264770927, 37.33960357134718]]], [[[35.4206461897939, 37.316668521492176], [35.42129659220054, 37.33692861035566], [35.42393760433173, 37.33759060072771], [35.42426112002624, 37.34137374808953], [35.4270816038332, 37.34240548584754], [35.4272985266232, 37.34807024393669], [35.43007480886417, 37.34897413235105], [35.430481779860166, 37.3592695132754], [35.43805205911885, 37.35927479656878], [35.43901625403996, 37.36134666710698], [35.44156919939756, 37.36189628071377], [35.44190984110713, 37.36353985576279], [35.44472661771885, 37.36348163546547], [35.44570358660941, 37.36131295305637], [35.449097489039474, 37.36119799814765], [35.45037181926188, 37.36336475190674], [35.45540245428416, 37.3635687528876], [35.45608652158118, 37.36549907295715], [35.45863971345291, 37.36604830787352], [35.458980749042, 37.36769181867006], [35.46373099581756, 37.36775407227254], [35.46469600756394, 37.36982570136897], [35.47033381741254, 37.36970801042304], [35.47069677399998, 37.36559207394606], [35.473006773252784, 37.365146297886135], [35.47323976818245, 37.36349082268019], [35.475753422015785, 37.36283589386536], [35.47672947522644, 37.360666987095094], [35.48414084838554, 37.360407025542024], [35.48439474964769, 37.356391635391695], [35.48681265146562, 37.355845036258124], [35.48704532406059, 37.3541895434721], [35.48955853516378, 37.35353433557835], [35.490114904100544, 37.35157809668695], [35.49230425073284, 37.35122357637415], [35.49208097457064, 37.34447266896962], [35.48963074469994, 37.344028529214995], [35.48843501712008, 37.34083712048321], [35.48993950046503, 37.33791711592326], [35.49613789868599, 37.33765278278719], [35.49750226304182, 37.33868603032333], [35.49764983671194, 37.34209914129171], [35.50047125396631, 37.34312908995935], [35.50076841417516, 37.3510448350632], [35.5092247226335, 37.350865654000465], [35.510199660365494, 37.34869650750288], [35.51657057303948, 37.34856106430895], [35.517688736177575, 37.3506857034943], [35.52306183215695, 37.35117345850466], [35.52359465150212, 37.357320007520244], [35.52637137401211, 37.35725914399914], [35.52621585730216, 37.351593375986205], [35.52896489367121, 37.350445022777265], [35.52809624167221, 37.34701690011478], [35.529222750000024, 37.34571501654138], [35.531239820317296, 37.34602443096797], [35.531711900861005, 37.34813329012607], [35.53660674410632, 37.34825777685889], [35.53742873106028, 37.350263661627714], [35.54245851108079, 37.35046397982259], [35.54314464305777, 37.352393722123736], [35.545922321419184, 37.35329483118646], [35.546192946313504, 37.35908674643745], [35.54857195601889, 37.35920351095155], [35.54948392700623, 37.36027972764913], [35.54876288081725, 37.36304447109442], [35.54634527395295, 37.363592329410785], [35.54565958686706, 37.365630615078324], [35.54326083118368, 37.366100819823025], [35.5438289262579, 37.37265491088064], [35.5466458247422, 37.372594251029085], [35.54687720498802, 37.37093869125908], [35.549390372417, 37.370282210842646], [35.550216136741334, 37.368172686790366], [35.55406817110861, 37.36808951422963], [35.5550356318483, 37.370160313443435], [35.55758958216494, 37.37070737704283], [35.558722522861395, 37.373397446782114], [35.5580032248049, 37.37827471575883], [35.555341395407254, 37.37916829100134], [35.55541772575464, 37.38141640116879], [35.55775460390371, 37.38176331282673], [35.55831534640372, 37.383606578585805], [35.56109306789848, 37.3835479695789], [35.561687288070445, 37.38158905226488], [35.565276825402805, 37.38087668859421], [35.56677882440506, 37.383423063839246], [35.569596075113694, 37.3833618424404], [35.56944245969018, 37.37886256716419], [35.56498111436551, 37.379547819564245], [35.560976934464456, 37.37795674330303], [35.561133883139355, 37.37513636605769], [35.56364704653108, 37.37447958215218], [35.56334055317172, 37.36547786672258], [35.555817603483405, 37.365840603100644], [35.55479761321075, 37.362243536451764], [35.556091168057165, 37.36115352871525], [35.560366880950205, 37.36103346697275], [35.55942017048803, 37.35535442093851], [35.56057183924155, 37.352414999851355], [35.562880804499294, 37.35196750032713], [35.56416896296987, 37.349714220325666], [35.57408373329202, 37.349471226312104], [35.57403752341253, 37.34592738494745], [35.57674961913794, 37.34490741274433], [35.5766727534832, 37.34265932628925], [35.57433703445688, 37.34231274466769], [35.57377627093658, 37.34046954651853], [35.57122326197514, 37.3399227963836], [35.57087995636682, 37.33827968870446], [35.563031530999496, 37.33814170622404], [35.56226852962029, 37.333960868756], [35.55993313222718, 37.333613989392454], [35.559372794333505, 37.331770704871], [35.55195770039402, 37.331826528699864], [35.55083890037689, 37.32970223310688], [35.5458105081321, 37.32950222045184], [35.54512455132956, 37.32757248168908], [35.531919584788945, 37.32769480433566], [35.53095336177941, 37.32562375881887], [35.528236985315274, 37.32484586377211], [35.52798336683899, 37.321181493805], [35.52072694855664, 37.321276637232984], [35.519451419166934, 37.3191106760063], [35.51689946905538, 37.31856270921807], [35.516557463015886, 37.31691939114217], [35.51226503545139, 37.31761230315745], [35.50899171959969, 37.31691898250394], [35.507951431961466, 37.312596394491045], [35.49690832216115, 37.31255336266588], [35.49624481068159, 37.31469951339058], [35.49393650417836, 37.315145686110164], [35.494001806508294, 37.325806572203405], [35.49148955058881, 37.326461842424045], [35.49035949361011, 37.328678801718645], [35.48726667225155, 37.32940530651157], [35.48414496031321, 37.328764830381914], [35.48292999208364, 37.32335374564881], [35.485698773877736, 37.322074768083716], [35.48555049952456, 37.31757515450548], [35.4803970241048, 37.31728588314344], [35.479050740309404, 37.31439461698914], [35.47969076243235, 37.31093939743923], [35.47499118709404, 37.31123767565299], [35.47397967992709, 37.30880607513167], [35.468346436080985, 37.30892377707927], [35.46790980904184, 37.310788344251016], [35.46560142201254, 37.31123396559918], [35.46532251929049, 37.31330039049296], [35.47055588775119, 37.31344269256867], [35.47178147667794, 37.31461872624443], [35.47130864083326, 37.319410457066674], [35.46871475815393, 37.320180730726875], [35.467424140200244, 37.32243306544263], [35.45498362076757, 37.32248043696763], [35.454396040300615, 37.31371997448344], [35.446685823291915, 37.31365036745725], [35.445793693768806, 37.30939230849558], [35.44104710270747, 37.30932920169706], [35.440083597986764, 37.30725730945519], [35.43692884202516, 37.30751156547322], [35.437341527095995, 37.30956368510494], [35.440116472795104, 37.31046738907204], [35.43985376429229, 37.31385284204363], [35.43466825039066, 37.31412774226118], [35.43337668806105, 37.31637973982255], [35.4206461897939, 37.316668521492176]], [[35.54892752745277, 37.35677120669852], [35.54978119180081, 37.35453231101708], [35.55639887299711, 37.35438938828402], [35.55776768982973, 37.35546040961508], [35.556109200769704, 37.35884831865874], [35.5501048483248, 37.35926028456989], [35.54892752745277, 37.35677120669852]], [[35.52264665692767, 37.33030395269416], [35.5230820039029, 37.328439234351066], [35.52637218757858, 37.32740862245627], [35.528945358897026, 37.3287178983881], [35.528057427318956, 37.331842090866516], [35.52554531101496, 37.332498080956896], [35.52441619438609, 37.3347153304144], [35.52002068127134, 37.33390794932865], [35.520134537396636, 37.33095982776229], [35.52264665692767, 37.33030395269416]], [[35.505203781386854, 37.348699582513994], [35.503552795475706, 37.34777520451293], [35.503585704786474, 37.3449425892011], [35.508112801661696, 37.344291714483035], [35.5089281853254, 37.347906068385036], [35.505203781386854, 37.348699582513994]], [[35.460508862890926, 37.32811436486495], [35.46187665583391, 37.32675282678918], [35.4653702710849, 37.32723554064628], [35.46595714256776, 37.33090058165575], [35.46136740586461, 37.331369157545566], [35.460508862890926, 37.32811436486495]], [[35.45790971971105, 37.3349272021304], [35.459445641550715, 37.33354646645147], [35.46325051913122, 37.33441144122681], [35.46438355715695, 37.33723537835959], [35.46297739132068, 37.34034733047459], [35.458362746160596, 37.34007042004732], [35.45790971971105, 37.3349272021304]]], [[[35.496374692857245, 37.31086200399191], [35.496282020885744, 37.30806074999404], [35.49371327035668, 37.308391640291475], [35.493787570717124, 37.31063988430759], [35.496374692857245, 37.31086200399191]]], [[[35.49670303613006, 37.30634923816298], [35.49927170078057, 37.30601828580375], [35.499707525012006, 37.30415363063781], [35.50201545822485, 37.30370735798685], [35.50162046580109, 37.298936285895685], [35.49905205374411, 37.29926728047848], [35.4986162344967, 37.301131934185015], [35.49630835530672, 37.30157813850392], [35.49670303613006, 37.30634923816298]]], [[[35.50204131975544, 37.29722475893913], [35.51306375111504, 37.29671438496773], [35.51276414442997, 37.287712197803714], [35.50849057992622, 37.287775372621454], [35.50712703307151, 37.28674221570941], [35.50619939964493, 37.282016465135165], [35.507906964320036, 37.27854572576665], [35.51394126207246, 37.278070761032595], [35.520551254525955, 37.279027524536], [35.520845310272676, 37.28231834126858], [35.51825324907898, 37.28308964105901], [35.51840328590003, 37.28758916837396], [35.521217065621116, 37.28752923006601], [35.52165226238866, 37.285664512574975], [35.523959481965186, 37.28521783581257], [35.5245880236521, 37.280565819824254], [35.53226119375527, 37.28053459826023], [35.53269608503016, 37.278669849703064], [35.53500301538854, 37.27822296727463], [35.534927576296965, 37.275974782132], [35.532108300138226, 37.27494557012772], [35.532066273498316, 37.27248803599253], [35.53348613866016, 37.27150479246377], [35.542621837474634, 37.27160912868527], [35.543458719901416, 37.278041472584164], [35.55190657614727, 37.27785954232307], [35.55226491292652, 37.27374347825231], [35.55687609827035, 37.27328135848345], [35.55746870174238, 37.27548652962302], [35.56010855133843, 37.276145519275], [35.56114288358169, 37.27898908611174], [35.560004333917426, 37.28179601750025], [35.55769747212093, 37.282243386075066], [35.557012707141006, 37.28428172393226], [35.554956237354865, 37.28455552148279], [35.55503229569989, 37.28680366833572], [35.560663514856536, 37.28668190152704], [35.561021386321634, 37.28256583274903], [35.56614559850791, 37.28205731677008], [35.56606922266803, 37.27980918766439], [35.56280582542529, 37.278750626168936], [35.56345158226754, 37.275549357126145], [35.562318425379644, 37.27405555143472], [35.56391359474812, 37.27276151583596], [35.565645616510004, 37.273413614526426], [35.565567651843715, 37.27512196007914], [35.56836839745582, 37.27574615530573], [35.568813718616624, 37.277493622346306], [35.57126213527629, 37.27793618833959], [35.57170753867863, 37.279683640894], [35.58426741033873, 37.27941799246299], [35.58587079520753, 37.2816277761412], [35.59150149208654, 37.28150455677259], [35.59142436363206, 37.27925647238546], [35.58825886477188, 37.2784576249054], [35.588452883169055, 37.27481576057415], [35.58308500614043, 37.27433078448958], [35.582887064738884, 37.27078555726593], [35.58960831831475, 37.269679711713074], [35.60519961756995, 37.26993929075937], [35.60488933436477, 37.26093771147716], [35.58236104985133, 37.26143155513053], [35.58218932013859, 37.26769821886051], [35.57572942512888, 37.26867664917649], [35.57433541854174, 37.26800810021446], [35.57406079685217, 37.26611821316718], [35.571421199485265, 37.265459525423424], [35.57109087422713, 37.26167699815664], [35.55701170510419, 37.26198210627055], [35.55645761514582, 37.26393859801366], [35.553042320546986, 37.26466258841701], [35.55164857528395, 37.26399376128693], [35.55137453864, 37.2621037986133], [35.53583582492228, 37.262410321668774], [35.534399008277, 37.260215719973694], [35.50060290178546, 37.26093478905964], [35.5015313712203, 37.26674707735885], [35.49934964918676, 37.26832171012236], [35.495798241968224, 37.26748663737278], [35.49511420232454, 37.265556522684804], [35.489964276462715, 37.265267538107125], [35.48933208657775, 37.26117244653146], [35.44708381587962, 37.26205373556478], [35.44715660570699, 37.26430207636806], [35.45987981426215, 37.264065776056476], [35.46131459685052, 37.266261357765494], [35.463864421558284, 37.26681060738918], [35.464984015310975, 37.26976708561406], [35.46313257454776, 37.2713216174321], [35.45671333199158, 37.270704820123946], [35.4557499568435, 37.268633040979935], [35.45011962995285, 37.26874976850597], [35.450265534208995, 37.27324953952129], [35.45751767139026, 37.27315888414446], [35.4587906092521, 37.275325621097174], [35.46723871003599, 37.27514974408727], [35.467675197368166, 37.273285176021226], [35.46998242199806, 37.27283955388908], [35.4699052529082, 37.26942488491567], [35.47103872528754, 37.26837137541708], [35.48092926628891, 37.26882073658193], [35.48110414084802, 37.27414678630769], [35.47569461158694, 37.274976207894454], [35.475768286354935, 37.27722449538969], [35.47840758870423, 37.2778853328885], [35.47873340340504, 37.28166827683274], [35.48960605146527, 37.28157384003352], [35.490745458156674, 37.29155440150727], [35.48755683815546, 37.29275082020929], [35.487324289729195, 37.29440632232362], [35.484812998044475, 37.29506141792439], [35.48398606057684, 37.29717054596977], [35.47643274629302, 37.297490094948344], [35.47665424488763, 37.30424113626445], [35.483930507393076, 37.30350018912661], [35.487317673574076, 37.304325753666106], [35.48800192437705, 37.30625589646137], [35.49081646501079, 37.306196655696475], [35.49066394315701, 37.30053069548746], [35.493411751036604, 37.29938320843635], [35.49378194203522, 37.29490447924898], [35.50067864131122, 37.294828406047706], [35.50204131975544, 37.29722475893913]], [[35.5900618008162, 37.26858478033121], [35.58567091776401, 37.267515631842485], [35.585358166297766, 37.26457678512624], [35.58963117744361, 37.26322543869057], [35.591717747136556, 37.26718904993339], [35.5900618008162, 37.26858478033121]], [[35.57129373930041, 37.26972327006372], [35.56605410965971, 37.27055632808673], [35.56571772294927, 37.26725723070635], [35.57004845388191, 37.26626209110551], [35.57129373930041, 37.26972327006372]], [[35.52367148774408, 37.278431380012], [35.5229537974136, 37.27715450100471], [35.52405188964169, 37.275866255853394], [35.52691313539534, 37.27646666435782], [35.526162749639525, 37.278752569708445], [35.52367148774408, 37.278431380012]], [[35.52073572959841, 37.27172015112191], [35.52573385466983, 37.271771395467866], [35.526726395402775, 37.2734391021305], [35.52509705623738, 37.27453387886071], [35.5213616750675, 37.27390285687964], [35.52073572959841, 37.27172015112191]], [[35.51390027863072, 37.27702536377353], [35.51160979683708, 37.275142960665704], [35.51287003131258, 37.272244796787575], [35.516367435383216, 37.27126017971157], [35.51820192801824, 37.2720432731198], [35.517397885347485, 37.27604070928821], [35.51390027863072, 37.27702536377353]], [[35.49094533354832, 37.27716378304938], [35.4896519304602, 37.27294327094086], [35.49251995829138, 37.272366889080836], [35.49364920177837, 37.27014992299831], [35.4995565926837, 37.2693638544703], [35.50348650313161, 37.27015911652598], [35.50519064030841, 37.2692446919242], [35.50693915340062, 37.270397591807104], [35.5062996004292, 37.27183981469362], [35.50379254525931, 37.27213099173488], [35.50440200041659, 37.27761390575245], [35.503256134133345, 37.27883979810503], [35.49926788628483, 37.27882525291151], [35.49830324712467, 37.27675386934492], [35.49094533354832, 37.27716378304938]], [[35.49588130048561, 37.28641985350554], [35.50115561594555, 37.28630450074658], [35.501465241302164, 37.28924367792573], [35.497189022314906, 37.29059194473217], [35.49594377260846, 37.289583661494426], [35.49588130048561, 37.28641985350554]]], [[[35.464249292757984, 37.27719139500228], [35.46190901461882, 37.27724011834073], [35.46140246738466, 37.2795879837309], [35.46456828016958, 37.27971128707552], [35.464249292757984, 37.27719139500228]]], [[[35.45928557841527, 37.280013542054604], [35.44766716591098, 37.28006528021385], [35.4477400205148, 37.2823136131839], [35.452484901715664, 37.28237651213273], [35.453448385329885, 37.28444831042258], [35.455998784027074, 37.284997708125125], [35.4563392967084, 37.28664126221769], [35.45915317399869, 37.28658280056472], [35.45928557841527, 37.280013542054604]]], [[[35.541116355108585, 37.36576541836524], [35.54070046840615, 37.36371379392764], [35.53595059123248, 37.36365462808275], [35.5349837405917, 37.36158364803307], [35.53243023975364, 37.36103607744858], [35.53208765109309, 37.35939283459186], [35.529271214288485, 37.35945312965206], [35.52934671260916, 37.36170129286805], [35.53168288288735, 37.36204874834844], [35.5322428189193, 37.36389217239574], [35.534796416728824, 37.3644397432708], [35.53513909342255, 37.36608297397739], [35.541116355108585, 37.36576541836524]]], [[[35.4632047210591, 37.31372605004211], [35.460037477799304, 37.313602762059126], [35.460110789210916, 37.31585106140852], [35.46292574696832, 37.31579247118133], [35.4632047210591, 37.31372605004211]]], [[[35.43478641281483, 37.307174154629315], [35.43437381346018, 37.30512202238647], [35.43155919340708, 37.30517991937256], [35.431631634588975, 37.307428269789966], [35.43478641281483, 37.307174154629315]]], [[[35.56762408465701, 37.40818924609806], [35.56777775412344, 37.41268850544571], [35.57059609829757, 37.41262721960851], [35.570549839217776, 37.40908340629482], [35.573264214588534, 37.408063437040234], [35.57318718363287, 37.40581438988869], [35.57036919424605, 37.40587670660912], [35.56993469319049, 37.40774155018717], [35.56762408465701, 37.40818924609806]]], [[[35.57336048643531, 37.4038323284976], [35.575932019508656, 37.40349960311133], [35.57625813616384, 37.401735389865486], [35.578676699276514, 37.40118688479219], [35.57890742174474, 37.39953129255652], [35.58142121056552, 37.39887410818818], [35.58210616655247, 37.39683565017261], [35.58698714938477, 37.39649953414958], [35.58660023424151, 37.385246859702306], [35.57814057471084, 37.3854317157418], [35.578971555018526, 37.38912272843212], [35.57786061902144, 37.391798927030116], [35.575550551278276, 37.39224675904236], [35.575674076645335, 37.398041744536336], [35.572960091198325, 37.39906175601235], [35.57336048643531, 37.4038323284976]]], [[[35.579727431180444, 37.34935131380389], [35.5798044065104, 37.351599392300194], [35.58262043869594, 37.3515379050206], [35.58254337956978, 37.34928983149521], [35.579727431180444, 37.34935131380389]]], [[[35.56883180603861, 37.36085292032789], [35.56890848833528, 37.363101013718826], [35.57454534248023, 37.362978374224205], [35.57389394810809, 37.358916656562286], [35.575702836986345, 37.35784554907793], [35.58003181266904, 37.358353022773606], [35.5799548117714, 37.3561049472512], [35.5754100389726, 37.35645880436336], [35.57423767491584, 37.35397671828654], [35.57142153303774, 37.354038009404185], [35.571941393634745, 37.35991716004543], [35.56883180603861, 37.36085292032789]]], [[[35.578912308457724, 37.407943399992924], [35.57906665168982, 37.41244261958073], [35.581884961608395, 37.4123810649798], [35.58173045017224, 37.407881855345344], [35.578912308457724, 37.407943399992924]]], [[[35.57752380535593, 37.36742229668562], [35.577677839931546, 37.37192155207815], [35.58049463631293, 37.37186008707707], [35.58034043386889, 37.36736084162738], [35.57752380535593, 37.36742229668562]]], [[[35.57498542350812, 37.293132770243986], [35.57513889389836, 37.297632091216144], [35.57795292330069, 37.297570790235504], [35.577799285655544, 37.29307147918693], [35.57498542350812, 37.293132770243986]]], [[[35.575162164965136, 37.38095620132851], [35.57798233314627, 37.380926346496864], [35.57790533060612, 37.37867827593659], [35.575088273499674, 37.37873968876265], [35.575162164965136, 37.38095620132851]]], [[[35.54977736706466, 37.29818465265551], [35.54985330875121, 37.30043280340624], [35.55262910745921, 37.301333830131014], [35.553282989108176, 37.305721161279266], [35.55244761374971, 37.306970599487514], [35.55008160417743, 37.30718967149892], [35.55015757964715, 37.309437818290235], [35.5555631694767, 37.3095978304054], [35.5562249369839, 37.307451409340615], [35.55853344352192, 37.30697239387541], [35.55845635318189, 37.30475590907142], [35.55568036453996, 37.30385502695636], [35.55540945767813, 37.29806310435985], [35.54977736706466, 37.29818465265551]]], [[[35.55609810018261, 37.3112888732482], [35.55602319092169, 37.31606985793928], [35.558844329855425, 37.31709842363339], [35.55914735259051, 37.32501382974853], [35.567600360723084, 37.32483058408914], [35.56752382336382, 37.322582473823346], [35.56435669427315, 37.32178305027134], [35.564551857309326, 37.31814120168856], [35.561999669458835, 37.31759421963151], [35.561651554653494, 37.31478476200569], [35.56294423143783, 37.313694705439374], [35.57003575957561, 37.31351327657446], [35.569989861356326, 37.30996940626277], [35.57270075216562, 37.30894956783856], [35.57262401320588, 37.306700481941064], [35.56980972545535, 37.30676264751753], [35.569578966282116, 37.30841824222326], [35.567068031486805, 37.30907507463736], [35.56594046998381, 37.311292670113396], [35.55609810018261, 37.3112888732482]]], [[[35.57279725607313, 37.30471839943359], [35.57536543492645, 37.304385807957125], [35.57528872296206, 37.302137703631715], [35.57247451750791, 37.30219894762641], [35.57279725607313, 37.30471839943359]]], [[[35.53911123613644, 37.316437292054346], [35.53918691026585, 37.31868545450848], [35.54763934138614, 37.31850366097183], [35.54748739421605, 37.314004259034114], [35.54185407978885, 37.314125474242516], [35.54141926334218, 37.31599024557623], [35.53911123613644, 37.316437292054346]]], [[[35.53789992269332, 37.280416870726754], [35.5380511146893, 37.284916331767846], [35.540864752140244, 37.284855930078045], [35.54071339297499, 37.28035647881647], [35.53789992269332, 37.280416870726754]]], [[[35.530428561780916, 37.30986469740248], [35.53057946953845, 37.3143641620588], [35.536212851085224, 37.31424348291064], [35.53613727766714, 37.311995313580375], [35.53380265692149, 37.31164788700064], [35.53324314528208, 37.30980444270913], [35.530428561780916, 37.30986469740248]]], [[[35.52103315083146, 37.36635303806722], [35.523814124114075, 37.367286221038704], [35.524083163013174, 37.37307823527994], [35.52690012043753, 37.37301804514058], [35.52802967197355, 37.370800766495876], [35.53246606372998, 37.37064603823186], [35.53239044792912, 37.36839788384583], [35.527016079940395, 37.36791060179731], [35.52659803341253, 37.36401607018122], [35.52096089126499, 37.36413642748813], [35.52103315083146, 37.36635303806722]]], [[[35.52426449028206, 37.29422607726492], [35.52433966183373, 37.29647427399887], [35.52715375959177, 37.29641418242597], [35.52707850445728, 37.294165990552955], [35.52426449028206, 37.29422607726492]]], [[[35.52498963900075, 37.40009654548172], [35.52506512033515, 37.40234470065617], [35.527883170811634, 37.40228444715539], [35.52780760545635, 37.40003629684989], [35.52498963900075, 37.40009654548172]]], [[[35.50745486636861, 37.38241209910088], [35.51027520906388, 37.382383857961], [35.51042243628858, 37.380484873076696], [35.511941069066594, 37.37975154856939], [35.51523578708781, 37.38033388736964], [35.51592154658284, 37.38226379458714], [35.52156006729198, 37.38214362802142], [35.521484745642596, 37.37989545907712], [35.518841494578524, 37.37923573858536], [35.51851296977808, 37.3754530509927], [35.51592357978647, 37.37523150178896], [35.51514006464505, 37.37746937904775], [35.51188898608629, 37.378190928191444], [35.51032365384042, 37.37752312755648], [35.51005007067143, 37.375633078916756], [35.507232978943925, 37.37569287126783], [35.50745486636861, 37.38241209910088]]], [[[35.515389003416715, 37.373540277107836], [35.51554155563597, 37.37101055228686], [35.512724648640365, 37.37107046916202], [35.5127996848505, 37.3733186566181], [35.515389003416715, 37.373540277107836]]], [[[35.51249617568008, 37.3642819132342], [35.51531583044159, 37.36425357654894], [35.514994634768996, 37.36173392921169], [35.512424172726355, 37.362065287464816], [35.51249617568008, 37.3642819132342]]], [[[35.515415451152485, 37.36002236937354], [35.51798582704251, 37.35969094896976], [35.51791067307394, 37.35744276528852], [35.51509427834783, 37.35750272013627], [35.515415451152485, 37.36002236937354]]], [[[35.51328951240108, 37.3034366955353], [35.51610689103141, 37.30340842308848], [35.51603194570031, 37.30116021473636], [35.513217647015296, 37.30122004832756], [35.51328951240108, 37.3034366955353]]], [[[35.50098962985764, 37.35776722959424], [35.50553799239574, 37.357447785748406], [35.506708191148164, 37.35993063336229], [35.509524694739774, 37.35987087488976], [35.509374795454605, 37.3553713719358], [35.50091798252522, 37.35555058203464], [35.50098962985764, 37.35776722959424]]], [[[35.49832173947827, 37.362364181177476], [35.498471016627406, 37.366863716864074], [35.50410846020735, 37.3667444240154], [35.50403370112409, 37.36449621907635], [35.5016975505651, 37.3641482150722], [35.50113835209833, 37.36230461910461], [35.49832173947827, 37.362364181177476]]], [[[35.499364999439045, 37.39384791532844], [35.50218578489277, 37.39381985171057], [35.50211101007854, 37.39157165377465], [35.49929330489827, 37.39163127855562], [35.499364999439045, 37.39384791532844]]], [[[35.49594896337695, 37.37593169916347], [35.49609817195519, 37.38043123265946], [35.49891546491918, 37.380371699135374], [35.49876608835945, 37.37587217526957], [35.49594896337695, 37.37593169916347]]], [[[35.487259624448335, 37.36932143294485], [35.490079511730215, 37.36929369143819], [35.49000516436617, 37.367045463399435], [35.48718835063495, 37.36710476673885], [35.487259624448335, 37.36932143294485]]], [[[35.468772431761586, 37.40804312609642], [35.468846254781134, 37.41029137469574], [35.47448707807586, 37.41017337767], [35.47401881461356, 37.403150901507594], [35.47144671604863, 37.403481423465195], [35.47136929269981, 37.407272752720814], [35.468772431761586, 37.40804312609642]]], [[[35.47444075005464, 37.40143945651756], [35.47701276240414, 37.401108872232044], [35.476864583356935, 37.396609289237716], [35.47404663551011, 37.396668319171845], [35.47444075005464, 37.40143945651756]]], [[[35.462268561514755, 37.29553285823224], [35.46234189145936, 37.29778116068486], [35.47079248037235, 37.2976049401436], [35.47071889938759, 37.29535665194631], [35.462268561514755, 37.29553285823224]]], [[[35.45706899982981, 37.3091238651292], [35.46270528207929, 37.30903826746101], [35.462484992045155, 37.30228716055212], [35.459670536801596, 37.302345722317924], [35.46010772563494, 37.305974331592076], [35.45699876988046, 37.30690712632009], [35.45706899982981, 37.3091238651292]]], [[[35.44329840103447, 37.40631970782499], [35.44337145822457, 37.408568000071924], [35.44653040120066, 37.40831342605077], [35.44611677547813, 37.406261397916886], [35.44329840103447, 37.40631970782499]]], [[[35.448675776519444, 37.40865051432377], [35.44908948841144, 37.41070252979102], [35.453842468987524, 37.410765084187005], [35.454807831376435, 37.41283677039052], [35.45762642567603, 37.41277817748091], [35.45863211591563, 37.410249593348915], [35.46319761208772, 37.41040926523197], [35.463123957556036, 37.408161007106486], [35.448675776519444, 37.40865051432377]]], [[[35.45395755810058, 37.300176712161324], [35.456774917153645, 37.30014985742703], [35.456701746630586, 37.297901546467436], [35.45388744257492, 37.2979599648787], [35.45395755810058, 37.300176712161324]]], [[[35.44784400545517, 37.37243191517698], [35.447917108948275, 37.37468021269177], [35.45919745635915, 37.37444605519838], [35.45912401682074, 37.372197776611536], [35.456787782833075, 37.3718488860353], [35.45622960471995, 37.37000504226821], [35.45367629166131, 37.369455759763326], [35.45333536090204, 37.367812230251204], [35.45051844053655, 37.367870661295676], [35.450439897448106, 37.371662033894815], [35.44784400545517, 37.37243191517698]]], [[[35.454293522847905, 37.397080216436464], [35.4543668841211, 37.39932849370153], [35.45718497336951, 37.39926992923416], [35.457111528069866, 37.397021656701945], [35.454293522847905, 37.397080216436464]]], [[[35.44528390290208, 37.293597511649786], [35.448101031104066, 37.29357087227446], [35.4480281360997, 37.29132254419481], [35.445214058840115, 37.29138074765309], [35.44528390290208, 37.293597511649786]]], [[[35.42223371627033, 37.27830105385313], [35.43068534078505, 37.278159343421954], [35.430597451137224, 37.27406917237703], [35.43617513708018, 37.27354051534628], [35.437306080450924, 37.271324027882194], [35.441737010514764, 37.271172906086704], [35.44166436374714, 37.26892455879407], [35.43603395589067, 37.269040617200794], [35.43474313161373, 37.27129261643133], [35.42765478311607, 37.27146579939244], [35.42829732347989, 37.27552868686248], [35.426488121955764, 37.27659755588895], [35.42216458746116, 37.27608424650536], [35.42223371627033, 37.27830105385313]]], [[[35.42859272603575, 37.30070022958437], [35.43141014735595, 37.300673978343426], [35.431337730451745, 37.29842562498565], [35.42852335359199, 37.298483440963764], [35.42859272603575, 37.30070022958437]]], [[[35.40770144904333, 37.35297995146608], [35.407773303892405, 37.35522832335592], [35.41623067294267, 37.35505577377614], [35.41706007797945, 37.35294704883162], [35.42179909815182, 37.35268889771305], [35.42165447328671, 37.3481890918437], [35.41319790834973, 37.34836200227989], [35.412759731069826, 37.35022641069616], [35.41044976276908, 37.350671006286866], [35.40976045031185, 37.35270863359662], [35.40770144904333, 37.35297995146608]]], [[[35.41435990482095, 37.29652042678639], [35.4144318113893, 37.29876880913576], [35.417246228254996, 37.298711327869995], [35.41717423806661, 37.296462950170685], [35.41435990482095, 37.29652042678639]]], [[[35.4081459712465, 37.27858864707408], [35.41096260172711, 37.278562911862124], [35.41089085085276, 37.27631451607293], [35.40807725484405, 37.276371817014336], [35.4081459712465, 37.27858864707408]]], [[[35.40901083998019, 37.305641321649006], [35.409082610991575, 37.307889709392036], [35.41189737888334, 37.30783234342746], [35.41182552421293, 37.30558396032476], [35.40901083998019, 37.305641321649006]]], [[[35.40380400538814, 37.31926500389463], [35.404162737323865, 37.33051937308643], [35.4069783594455, 37.33046209468004], [35.406796365269464, 37.322414917043744], [35.40951011090689, 37.32139872921528], [35.40947172915642, 37.317854532067734], [35.41218527459233, 37.31683828914], [35.41211338795295, 37.31458990994203], [35.409298368566034, 37.314647289854875], [35.40886024407294, 37.31651169002134], [35.40655127091072, 37.316956176257335], [35.405862109994075, 37.31899378431859], [35.40380400538814, 37.31926500389463]]], [[[35.3797601587796, 37.27243882652546], [35.37983097377611, 37.27468727503102], [35.382163900811456, 37.275037809711336], [35.382719456252985, 37.276882118139596], [35.39097323983876, 37.27707264876298], [35.3913171043015, 37.28238106544262], [35.38856821782664, 37.283526215365164], [35.38863932327611, 37.28577464522139], [35.39427117475914, 37.28566079749849], [35.39470952543587, 37.283796436168345], [35.397017577173386, 37.28335221204146], [35.396946228711826, 37.28110379503908], [35.39412845549966, 37.28007123372663], [35.39391449673331, 37.27440626124068], [35.38400642488262, 37.274578793956955], [35.382573666757374, 37.27238220368778], [35.3797601587796, 37.27243882652546]]], [[[35.3943122544182, 37.37574658826904], [35.399953756076, 37.37566380709267], [35.39981031600045, 37.37116394630776], [35.394172101756865, 37.371278279291715], [35.3943122544182, 37.37574658826904]]], [[[35.389423184731385, 37.3105445792744], [35.389494385128465, 37.31279299744501], [35.39230937628586, 37.312736091034985], [35.39223809220468, 37.31048767746739], [35.389423184731385, 37.3105445792744]]], [[[35.38229364575304, 37.263375916609064], [35.38236451286707, 37.26562436441738], [35.38517776197138, 37.26556768848179], [35.38510681136622, 37.26331924526001], [35.38229364575304, 37.263375916609064]]], [[[35.37532908701353, 37.31082847551317], [35.3753998683983, 37.313076916649315], [35.378214899054186, 37.313020345148935], [35.37814403398071, 37.31077190858874], [35.37532908701353, 37.31082847551317]]]]}}